{"type":"FeatureCollection","features":[{"type":"Feature","id":"geom_evt_2024_al02_beryl_d1_hover","properties":{"event_id":"evt_2024_al02_beryl","day_index":1,"geometry_role":"hover_geometry"},"geometry":{"type":"Polygon","coordinates":[[[-42.8,9],[-42.6,8.36],[-42.05,7.9],[-41.3,7.73],[-40.55,7.9],[-40,8.36],[-39.8,9],[-40,9.64],[-40.55,10.1],[-41.3,10.28],[-42.05,10.1],[-42.6,9.64],[-42.8,9]]]}},{"type":"Feature","id":"geom_evt_2024_al02_beryl_d2_hover","properties":{"event_id":"evt_2024_al02_beryl","day_index":2,"geometry_role":"hover_geometry"},"geometry":{"type":"Polygon","coordinates":[[[-50.9,9.9],[-50.61,8.97],[-49.8,8.28],[-48.7,8.03],[-47.6,8.28],[-46.79,8.97],[-46.5,9.9],[-46.79,10.84],[-47.6,11.52],[-48.7,11.77],[-49.8,11.52],[-50.61,10.84],[-50.9,9.9]]]}},{"type":"Feature","id":"geom_evt_2024_al02_beryl_d3_hover","properties":{"event_id":"evt_2024_al02_beryl","day_index":3,"geometry_role":"hover_geometry"},"geometry":{"type":"Polygon","coordinates":[[[-58.7,10.9],[-58.3,9.63],[-57.2,8.69],[-55.7,8.35],[-54.2,8.69],[-53.1,9.63],[-52.7,10.9],[-53.1,12.18],[-54.2,13.11],[-55.7,13.45],[-57.2,13.11],[-58.3,12.18],[-58.7,10.9]]]}},{"type":"Feature","id":"geom_evt_20240612_southeast_2024_06_12_rain_d1_hover","properties":{"event_id":"evt_20240612_southeast_2024_06_12_rain","day_index":1,"geometry_role":"hover_geometry"},"geometry":{"type":"Polygon","coordinates":[[[-81.64,25.93],[-81.64,25.92],[-81.63,25.9],[-81.62,25.89],[-81.3,25.66],[-81.29,25.65],[-81.27,25.64],[-81.26,25.64],[-81.24,25.63],[-80.65,25.6],[-80.58,25.6],[-80.5,25.6],[-80.41,25.6],[-80.24,25.6],[-80.18,25.69],[-80.16,25.71],[-80.15,25.74],[-80.14,25.77],[-80.09,25.9],[-80.08,25.92],[-80.03,26.15],[-80.02,26.18],[-80.02,26.21],[-80.02,26.24],[-80.01,26.28],[-80.01,26.31],[-80.01,26.34],[-80.01,26.37],[-80.01,26.4],[-80.02,26.43],[-80.02,26.46],[-80.03,26.48],[-80.04,26.49],[-80.05,26.5],[-80.07,26.5],[-80.08,26.5],[-80.89,26.47],[-80.92,26.47],[-81.21,26.42],[-81.24,26.42],[-81.27,26.41],[-81.29,26.4],[-81.36,26.37],[-81.38,26.36],[-81.4,26.35],[-81.45,26.31],[-81.51,26.26],[-81.53,26.25],[-81.54,26.24],[-81.56,26.22],[-81.57,26.2],[-81.58,26.19],[-81.6,26.15],[-81.61,26.13],[-81.61,26.11],[-81.62,26.08],[-81.63,26.06],[-81.63,26.03],[-81.64,25.95],[-81.64,25.93]]]}},{"type":"Feature","id":"geom_evt_20240613_southeast_2024_06_13_rain_d1_hover","properties":{"event_id":"evt_20240612_southeast_2024_06_12_rain","day_index":2,"geometry_role":"hover_geometry"},"geometry":{"type":"Polygon","coordinates":[[[-82.22,26.46],[-82.22,26.45],[-82.21,26.44],[-81.72,25.92],[-81.7,25.91],[-81.17,25.45],[-81.15,25.44],[-81.14,25.43],[-81.12,25.42],[-81.1,25.41],[-81.08,25.4],[-81.06,25.39],[-81.03,25.39],[-81,25.39],[-80.98,25.39],[-80.78,25.39],[-80.75,25.39],[-80.72,25.4],[-80.43,25.46],[-80.41,25.46],[-80.4,25.47],[-80.35,25.49],[-80.33,25.5],[-80.31,25.51],[-80.3,25.53],[-80.28,25.54],[-80.26,25.56],[-80.25,25.58],[-80.23,25.61],[-80.16,25.73],[-80.16,25.74],[-80.08,25.94],[-80.07,25.96],[-80.07,25.98],[-80.04,26.11],[-80.03,26.14],[-80.03,26.16],[-80.03,26.19],[-80.04,26.21],[-80.04,26.24],[-80.05,26.25],[-80.06,26.27],[-80.08,26.28],[-80.09,26.3],[-80.11,26.31],[-80.19,26.37],[-80.21,26.38],[-80.24,26.4],[-80.26,26.41],[-80.28,26.42],[-80.31,26.42],[-80.48,26.47],[-80.51,26.47],[-81.06,26.58],[-81.09,26.59],[-81.12,26.59],[-81.15,26.59],[-81.19,26.6],[-81.25,26.6],[-81.39,26.6],[-81.57,26.6],[-81.67,26.6],[-81.7,26.59],[-81.73,26.59],[-81.77,26.59],[-82.1,26.53],[-82.11,26.53],[-82.21,26.48],[-82.21,26.47],[-82.22,26.46],[-82.22,26.46]]]}},{"type":"Feature","id":"geom_evt_20240616_southwest_2024_06_16_fire_d1_hover","properties":{"event_id":"evt_20240616_southwest_2024_06_16_fire","day_index":1,"geometry_role":"hover_geometry"},"geometry":{"type":"Polygon","coordinates":[[[-114.79,35.84],[-114.12,35.25],[-110.14,34.29],[-109.4,34.4],[-109.23,35.43],[-109.21,38.86],[-109.53,39.1],[-110.14,39.12],[-113.71,37.97],[-114.67,36.42],[-114.79,35.84]]]}},{"type":"Feature","id":"geom_evt_20240617_southwest_2024_06_17_fire_d1_hover","properties":{"event_id":"evt_20240616_southwest_2024_06_16_fire","day_index":2,"geometry_role":"hover_geometry"},"geometry":{"type":"Polygon","coordinates":[[[-114.35,35.81],[-114.33,35.51],[-114.1,35.22],[-107.55,32.38],[-106.8,32.47],[-106.2,33.21],[-106.17,33.87],[-108.61,39.27],[-108.88,39.52],[-109.5,39.29],[-110.79,38.62],[-113.42,36.91],[-113.98,36.35],[-114.35,35.81]]]}},{"type":"Feature","id":"geom_evt_20240626_northern_california_2024_06_26_fire_d1_hover","properties":{"event_id":"evt_20240626_northern_california_2024_06_26_fire","day_index":1,"geometry_role":"hover_geometry"},"geometry":{"type":"Polygon","coordinates":[[[-119.97,42.56],[-119.42,41.4],[-119.12,41.15],[-118.68,41.14],[-118.2,41.29],[-117.78,41.65],[-117.62,42.33],[-117.67,43.15],[-117.78,43.63],[-117.99,43.81],[-118.24,43.82],[-118.41,43.78],[-119.36,43.38],[-119.61,43.19],[-119.83,42.94],[-119.97,42.56]]]}},{"type":"Feature","id":"geom_evt_20240630_desert_southwest_2024_06_30_fire_d1_hover","properties":{"event_id":"evt_20240630_desert_southwest_2024_06_30_fire","day_index":1,"geometry_role":"hover_geometry"},"geometry":{"type":"Polygon","coordinates":[[[-116.24,36.75],[-115.79,36.2],[-114.97,36.17],[-114.36,36.53],[-113.71,37.17],[-112.82,38.13],[-111.98,39.19],[-111.79,39.83],[-111.76,40.02],[-111.94,40.27],[-112.31,40.78],[-112.54,40.93],[-113.18,40.9],[-115.02,39.68],[-115.98,38.26],[-116.24,36.75]]]}},{"type":"Feature","id":"geom_evt_20240601_southeast_2024_06_01_rain_d1_hover","properties":{"event_id":"evt_20240601_southeast_2024_06_01_rain","day_index":1,"geometry_role":"hover_geometry"},"geometry":{"type":"Polygon","coordinates":[[[-88.14,30.53],[-88.14,30.51],[-88.14,30.48],[-88.13,30.46],[-88.13,30.44],[-87.99,30.22],[-87.98,30.21],[-87.96,30.21],[-87.94,30.21],[-87.92,30.21],[-86.4,30.36],[-86.39,30.36],[-86.39,30.36],[-86.38,30.36],[-86.38,30.36],[-86.38,30.37],[-86.38,30.38],[-86.38,30.39],[-86.38,30.4],[-86.38,30.41],[-86.49,30.67],[-86.5,30.7],[-86.52,30.72],[-86.53,30.73],[-86.55,30.74],[-86.61,30.79],[-86.66,30.83],[-86.68,30.84],[-86.7,30.85],[-86.72,30.85],[-86.84,30.89],[-86.87,30.9],[-86.9,30.9],[-87.25,30.95],[-87.28,30.95],[-87.31,30.95],[-87.33,30.95],[-87.63,30.9],[-87.66,30.9],[-87.69,30.89],[-87.83,30.85],[-87.86,30.84],[-87.95,30.79],[-87.97,30.78],[-87.98,30.77],[-88.01,30.74],[-88.03,30.73],[-88.04,30.72],[-88.07,30.69],[-88.08,30.67],[-88.1,30.66],[-88.12,30.62],[-88.13,30.6],[-88.13,30.58],[-88.14,30.56],[-88.14,30.53]]]}},{"type":"Feature","id":"geom_evt_20240604_southern_plains_2024_06_04_rain_d1_hover","properties":{"event_id":"evt_20240604_southern_plains_2024_06_04_rain","day_index":1,"geometry_role":"hover_geometry"},"geometry":{"type":"Polygon","coordinates":[[[-97.88,35.48],[-97.88,35.45],[-97.88,35.42],[-97.87,35.39],[-97.87,35.37],[-97.86,35.35],[-96.65,33.26],[-96.63,33.24],[-96.48,33.03],[-96.47,33.02],[-96.43,32.97],[-96.38,32.92],[-95.99,32.51],[-95.97,32.49],[-95.95,32.48],[-95.93,32.47],[-95.81,32.41],[-95.71,32.37],[-95.69,32.36],[-95.54,32.32],[-95.52,32.31],[-95.49,32.3],[-95.04,32.25],[-95.01,32.24],[-94.98,32.24],[-94.94,32.24],[-94.84,32.24],[-93.63,32.24],[-93.22,32.47],[-93.2,32.48],[-93.19,32.49],[-93.16,32.52],[-93.14,32.53],[-93.13,32.54],[-93.1,32.57],[-93.09,32.59],[-93.08,32.61],[-93.02,32.71],[-93,32.74],[-92.99,32.76],[-92.98,32.78],[-92.97,32.81],[-92.93,32.98],[-92.92,33.01],[-92.91,33.03],[-92.91,33.07],[-92.91,33.1],[-92.91,33.13],[-92.91,33.16],[-92.91,33.23],[-92.91,33.26],[-92.91,33.29],[-92.91,33.32],[-92.92,33.35],[-92.97,33.66],[-92.98,33.69],[-92.98,33.71],[-93.02,33.83],[-93.03,33.85],[-93.04,33.88],[-93.05,33.89],[-93.14,34.03],[-93.15,34.05],[-93.16,34.06],[-94.03,35.05],[-94.08,35.1],[-94.14,35.16],[-94.19,35.21],[-94.58,35.6],[-94.63,35.64],[-94.64,35.65],[-94.81,35.76],[-94.96,35.86],[-94.98,35.87],[-95,35.88],[-95.02,35.89],[-95.14,35.93],[-95.16,35.93],[-95.39,35.99],[-95.67,36.04],[-95.7,36.05],[-95.73,36.05],[-95.76,36.05],[-95.79,36.06],[-95.86,36.06],[-95.89,36.06],[-95.92,36.05],[-95.95,36.05],[-95.98,36.05],[-96.37,35.99],[-96.4,35.99],[-96.7,35.94],[-96.73,35.93],[-97.34,35.82],[-97.59,35.77],[-97.62,35.76],[-97.64,35.76],[-97.66,35.75],[-97.69,35.72],[-97.71,35.71],[-97.77,35.66],[-97.83,35.61],[-97.85,35.6],[-97.86,35.58],[-97.87,35.56],[-97.88,35.53],[-97.88,35.5],[-97.88,35.48]]]}},{"type":"Feature","id":"geom_evt_20240608_southern_plains_2024_06_08_rain_d1_hover","properties":{"event_id":"evt_20240608_southern_plains_2024_06_08_rain","day_index":1,"geometry_role":"hover_geometry"},"geometry":{"type":"Polygon","coordinates":[[[-94.62,37.44],[-94.62,37.41],[-94.62,37.38],[-94.62,37.35],[-94.61,37.32],[-94.61,37.29],[-94.57,37.18],[-94.56,37.15],[-94.55,37.13],[-94.54,37.11],[-94.51,37.08],[-94.5,37.06],[-94.39,36.92],[-94.38,36.91],[-94.37,36.89],[-94.35,36.88],[-94.34,36.87],[-94.32,36.86],[-94.3,36.85],[-94.27,36.84],[-94.24,36.84],[-93.97,36.79],[-93.94,36.78],[-92.3,36.62],[-91.69,36.55],[-91.69,36.55],[-91.43,36.61],[-91.4,36.62],[-91.38,36.63],[-91.36,36.64],[-91.35,36.65],[-91.33,36.66],[-91.31,36.68],[-91.3,36.69],[-91.26,36.73],[-91.25,36.75],[-91.22,36.78],[-91.21,36.79],[-91.2,36.81],[-91.16,36.89],[-91.16,36.91],[-91.15,36.94],[-91.14,36.96],[-91.14,36.99],[-91.11,37.17],[-91.11,37.19],[-91.11,37.21],[-91.12,37.22],[-91.14,37.28],[-91.15,37.29],[-91.15,37.31],[-91.17,37.33],[-91.19,37.36],[-91.2,37.37],[-91.26,37.43],[-91.32,37.48],[-91.33,37.49],[-91.36,37.52],[-91.38,37.53],[-91.4,37.54],[-91.89,37.76],[-91.99,37.81],[-92.01,37.82],[-92.15,37.86],[-92.18,37.87],[-92.21,37.87],[-93.18,38.03],[-93.21,38.04],[-93.24,38.04],[-93.27,38.05],[-93.3,38.05],[-93.37,38.05],[-93.44,38.05],[-93.61,38.05],[-93.72,38.05],[-93.78,38.05],[-93.82,38.05],[-93.85,38.04],[-93.88,38.04],[-93.91,38.04],[-94.16,37.98],[-94.19,37.98],[-94.21,37.97],[-94.23,37.96],[-94.26,37.94],[-94.37,37.88],[-94.38,37.86],[-94.4,37.85],[-94.44,37.81],[-94.5,37.76],[-94.51,37.74],[-94.54,37.71],[-94.55,37.7],[-94.56,37.68],[-94.57,37.66],[-94.6,37.6],[-94.6,37.58],[-94.61,37.56],[-94.62,37.53],[-94.62,37.5],[-94.62,37.47],[-94.62,37.44]]]}},{"type":"Feature","id":"geom_evt_20240618_gulf_coast_2024_06_18_rain_d1_hover","properties":{"event_id":"evt_20240618_gulf_coast_2024_06_18_rain","day_index":1,"geometry_role":"hover_geometry"},"geometry":{"type":"Polygon","coordinates":[[[-97.22,28.09],[-97.22,28.06],[-97.22,28.03],[-97.22,28],[-97.21,27.97],[-97.2,27.95],[-97.19,27.94],[-97.18,27.92],[-97.17,27.91],[-97.16,27.9],[-97.14,27.9],[-97.13,27.89],[-97.04,27.88],[-97.02,27.88],[-97,27.89],[-96.99,27.89],[-96.97,27.9],[-93.75,29.71],[-93.73,29.72],[-93.72,29.73],[-93.72,29.74],[-93.73,29.75],[-93.73,29.76],[-93.74,29.77],[-93.75,29.79],[-93.85,29.87],[-93.87,29.89],[-93.89,29.9],[-93.92,29.91],[-94.03,29.95],[-94.06,29.96],[-94.09,29.96],[-94.12,29.97],[-94.16,29.97],[-94.23,29.97],[-94.3,29.97],[-94.91,29.97],[-94.98,29.97],[-95.05,29.97],[-95.09,29.97],[-95.12,29.97],[-95.15,29.96],[-95.18,29.96],[-95.21,29.95],[-95.41,29.9],[-95.43,29.9],[-95.55,29.86],[-95.57,29.85],[-95.6,29.84],[-95.61,29.83],[-95.65,29.8],[-95.66,29.79],[-95.78,29.69],[-95.8,29.68],[-97.15,28.29],[-97.17,28.28],[-97.18,28.26],[-97.19,28.24],[-97.2,28.23],[-97.21,28.2],[-97.22,28.18],[-97.22,28.15],[-97.22,28.12],[-97.22,28.09]]]}},{"type":"Feature","id":"geom_evt_20240619_gulf_coast_2024_06_19_rain_d1_hover","properties":{"event_id":"evt_20240618_gulf_coast_2024_06_18_rain","day_index":2,"geometry_role":"hover_geometry"},"geometry":{"type":"Polygon","coordinates":[[[-100.29,28.1],[-100.29,28.09],[-100.28,28.07],[-100.27,28.04],[-100.26,28.02],[-100.25,28],[-99.37,26.52],[-99.36,26.51],[-99.35,26.49],[-99.32,26.46],[-99.31,26.44],[-99.3,26.43],[-99.26,26.39],[-99.2,26.33],[-99.19,26.32],[-99.15,26.3],[-99.14,26.28],[-99.12,26.27],[-99.03,26.23],[-99,26.22],[-98.75,26.12],[-98.28,25.94],[-98.14,25.9],[-98.11,25.89],[-97.28,25.69],[-97.26,25.68],[-97.25,25.68],[-97.23,25.69],[-97.21,25.69],[-97.18,25.71],[-97.17,25.72],[-97.15,25.73],[-97.14,25.74],[-97.13,25.76],[-97.12,25.79],[-96.42,28.36],[-96.42,28.37],[-96.42,28.42],[-96.42,28.44],[-96.45,28.63],[-96.45,28.64],[-96.45,28.64],[-96.45,28.64],[-96.66,28.74],[-96.68,28.75],[-96.81,28.8],[-96.91,28.84],[-96.94,28.85],[-96.97,28.86],[-97,28.86],[-97.04,28.86],[-97.07,28.87],[-97.14,28.87],[-97.21,28.86],[-97.24,28.86],[-97.28,28.86],[-97.31,28.86],[-97.7,28.8],[-97.73,28.8],[-97.95,28.74],[-100.22,28.18],[-100.24,28.18],[-100.26,28.17],[-100.27,28.15],[-100.28,28.14],[-100.29,28.13],[-100.29,28.12],[-100.29,28.1]]]}},{"type":"Feature","id":"geom_evt_20240620_upper_midwest_2024_06_20_rain_d1_hover","properties":{"event_id":"evt_20240620_upper_midwest_2024_06_20_rain","day_index":1,"geometry_role":"hover_geometry"},"geometry":{"type":"Polygon","coordinates":[[[-100.04,43.44],[-100.04,43.41],[-100.04,43.38],[-100.03,43.36],[-100.02,43.33],[-100.01,43.32],[-100,43.3],[-99.98,43.28],[-99.97,43.27],[-99.95,43.26],[-99.94,43.25],[-99.86,43.21],[-99.62,43.09],[-99.53,43.05],[-99.5,43.04],[-99.09,42.89],[-99.07,42.88],[-97.67,42.65],[-97.64,42.65],[-97.61,42.64],[-97.57,42.64],[-97.54,42.64],[-97.47,42.64],[-97.32,42.64],[-97,42.64],[-96.88,42.71],[-96.6,42.87],[-96.58,42.88],[-96.56,42.89],[-96.52,42.93],[-96.32,43.1],[-96.31,43.11],[-96.3,43.12],[-96.13,43.32],[-96.09,43.36],[-95.82,43.7],[-95.81,43.72],[-95.8,43.74],[-95.79,43.76],[-95.74,43.87],[-95.74,43.9],[-95.69,44.05],[-95.68,44.07],[-95.68,44.1],[-95.68,44.13],[-95.67,44.16],[-95.67,44.19],[-95.67,44.22],[-95.68,44.25],[-95.68,44.28],[-95.69,44.3],[-95.7,44.33],[-95.71,44.35],[-95.72,44.36],[-95.73,44.38],[-95.75,44.39],[-95.76,44.4],[-95.78,44.41],[-95.85,44.45],[-95.87,44.46],[-95.97,44.5],[-95.99,44.51],[-96.14,44.56],[-96.16,44.56],[-96.19,44.57],[-96.22,44.57],[-96.26,44.57],[-96.29,44.58],[-96.36,44.58],[-96.46,44.58],[-96.6,44.58],[-96.7,44.58],[-96.77,44.57],[-96.8,44.57],[-96.84,44.57],[-97.39,44.51],[-97.42,44.51],[-97.45,44.51],[-97.76,44.46],[-98.09,44.4],[-98.11,44.39],[-98.67,44.28],[-98.69,44.28],[-98.71,44.27],[-98.79,44.24],[-99.33,44.01],[-99.36,44],[-99.8,43.78],[-99.82,43.77],[-99.85,43.74],[-99.87,43.73],[-99.93,43.68],[-99.97,43.64],[-99.98,43.62],[-99.99,43.6],[-100.01,43.57],[-100.02,43.55],[-100.03,43.53],[-100.04,43.5],[-100.04,43.47],[-100.04,43.44]]]}},{"type":"Feature","id":"geom_evt_20240621_upper_midwest_2024_06_21_rain_d1_hover","properties":{"event_id":"evt_20240620_upper_midwest_2024_06_20_rain","day_index":2,"geometry_role":"hover_geometry"},"geometry":{"type":"Polygon","coordinates":[[[-99.22,43.49],[-99.22,43.45],[-99.22,43.42],[-99.21,43.39],[-99.21,43.36],[-99.2,43.33],[-99.2,43.3],[-99.19,43.28],[-99.04,43.01],[-99.03,42.99],[-98.88,42.75],[-98.87,42.74],[-98.86,42.72],[-98.75,42.61],[-98.54,42.43],[-98.52,42.42],[-98.47,42.38],[-98.27,42.23],[-98.25,42.22],[-98.24,42.21],[-98.14,42.16],[-98.12,42.16],[-97.79,42.04],[-97.76,42.03],[-97.66,42],[-97.63,42],[-97.59,41.99],[-97.55,41.98],[-97.51,41.98],[-97.47,41.98],[-97.44,41.98],[-97.39,41.98],[-96.32,42.03],[-96.28,42.04],[-96.25,42.04],[-91.11,42.7],[-91.08,42.71],[-90.4,42.83],[-90.38,42.83],[-90.24,42.87],[-90.07,42.93],[-90.05,42.93],[-89.91,42.98],[-89.89,43],[-89.87,43.01],[-89.84,43.03],[-89.66,43.16],[-89.65,43.17],[-89.62,43.2],[-89.61,43.21],[-89.52,43.32],[-89.51,43.33],[-89.49,43.36],[-89.49,43.39],[-89.48,43.42],[-89.48,43.45],[-89.48,43.48],[-89.47,43.52],[-89.47,43.59],[-89.47,43.62],[-89.48,43.66],[-89.48,43.69],[-89.48,43.72],[-89.49,43.75],[-89.5,43.78],[-89.51,43.8],[-89.54,43.88],[-89.55,43.89],[-89.66,44.06],[-89.7,44.11],[-89.71,44.12],[-89.76,44.18],[-89.82,44.23],[-89.88,44.29],[-89.89,44.3],[-89.93,44.32],[-89.95,44.33],[-89.97,44.34],[-90,44.34],[-90.52,44.45],[-90.55,44.46],[-90.58,44.46],[-90.62,44.46],[-91.56,44.52],[-91.59,44.52],[-91.63,44.52],[-91.7,44.52],[-91.84,44.52],[-91.94,44.52],[-92.01,44.52],[-92.04,44.52],[-98.41,44.13],[-98.44,44.13],[-98.47,44.13],[-98.5,44.12],[-98.53,44.11],[-98.67,44.07],[-98.7,44.06],[-98.79,44.02],[-98.81,44.01],[-98.9,43.96],[-98.92,43.95],[-99.01,43.9],[-99.03,43.89],[-99.04,43.88],[-99.07,43.85],[-99.08,43.84],[-99.1,43.82],[-99.15,43.74],[-99.16,43.72],[-99.18,43.68],[-99.19,43.67],[-99.2,43.64],[-99.21,43.61],[-99.21,43.58],[-99.21,43.55],[-99.22,43.52],[-99.22,43.49]]]}},{"type":"Feature","id":"geom_evt_20240622_mid_atlantic_2024_06_22_rain_d1_hover","properties":{"event_id":"evt_20240622_mid_atlantic_2024_06_22_rain","day_index":1,"geometry_role":"hover_geometry"},"geometry":{"type":"Polygon","coordinates":[[[-92.19,43.06],[-92.19,43.03],[-92.18,43],[-92.18,42.97],[-92.17,42.94],[-92.16,42.92],[-92.15,42.91],[-92.14,42.89],[-92.12,42.88],[-92.11,42.86],[-92.07,42.82],[-92.05,42.81],[-92.02,42.78],[-92.01,42.77],[-91.99,42.76],[-91.9,42.71],[-91.88,42.7],[-91.78,42.66],[-91.75,42.65],[-91.72,42.65],[-91.48,42.6],[-91.45,42.59],[-91.14,42.54],[-91.11,42.54],[-91.08,42.53],[-91.05,42.53],[-90.98,42.53],[-89.28,42.47],[-89.26,42.47],[-89.26,42.47],[-88.45,42.59],[-88.42,42.6],[-88.4,42.61],[-88.14,42.71],[-88.12,42.72],[-88.1,42.73],[-88.08,42.74],[-88.07,42.75],[-88.05,42.76],[-88.04,42.78],[-87.99,42.82],[-87.98,42.83],[-87.96,42.86],[-87.95,42.88],[-87.93,42.9],[-87.93,42.92],[-87.89,42.99],[-87.88,43.02],[-87.88,43.04],[-87.87,43.07],[-87.85,43.18],[-87.85,43.2],[-87.85,43.22],[-87.85,43.23],[-87.86,43.25],[-87.87,43.28],[-87.89,43.29],[-87.9,43.31],[-87.92,43.33],[-87.94,43.35],[-87.95,43.36],[-87.99,43.38],[-88,43.39],[-88.03,43.4],[-88.17,43.45],[-88.19,43.46],[-88.34,43.5],[-88.36,43.51],[-88.39,43.52],[-88.7,43.57],[-88.73,43.57],[-88.76,43.58],[-88.79,43.58],[-88.83,43.58],[-88.9,43.58],[-88.97,43.58],[-90.39,43.58],[-90.47,43.58],[-90.54,43.58],[-90.6,43.58],[-91.38,43.52],[-91.41,43.52],[-91.45,43.52],[-91.48,43.51],[-91.5,43.5],[-92.01,43.35],[-92.03,43.34],[-92.05,43.33],[-92.07,43.32],[-92.09,43.31],[-92.1,43.3],[-92.11,43.28],[-92.13,43.26],[-92.14,43.25],[-92.16,43.19],[-92.17,43.17],[-92.18,43.14],[-92.18,43.12],[-92.19,43.09],[-92.19,43.06]]]}},{"type":"Feature","id":"geom_evt_2024_al01_alberto_d1_hover","properties":{"event_id":"evt_2024_al01_alberto","day_index":1,"geometry_role":"hover_geometry"},"geometry":{"type":"Polygon","coordinates":[[[-94.9,19.9],[-94.61,18.97],[-93.8,18.28],[-92.7,18.03],[-91.6,18.28],[-90.79,18.96],[-90.5,19.9],[-90.79,20.83],[-91.6,21.52],[-92.7,21.77],[-93.8,21.52],[-94.61,20.83],[-94.9,19.9]]]}},{"type":"Feature","id":"geom_evt_2024_al01_alberto_d2_hover","properties":{"event_id":"evt_2024_al01_alberto","day_index":2,"geometry_role":"hover_geometry"},"geometry":{"type":"Polygon","coordinates":[[[-94.8,22],[-94.51,21.07],[-93.7,20.38],[-92.6,20.13],[-91.5,20.38],[-90.69,21.07],[-90.4,22],[-90.69,22.94],[-91.5,23.62],[-92.6,23.87],[-93.7,23.62],[-94.51,22.94],[-94.8,22]]]}},{"type":"Feature","id":"geom_evt_2024_al01_alberto_d3_hover","properties":{"event_id":"evt_2024_al01_alberto","day_index":3,"geometry_role":"hover_geometry"},"geometry":{"type":"Polygon","coordinates":[[[-97,21.8],[-96.71,20.87],[-95.9,20.18],[-94.8,19.93],[-93.7,20.18],[-92.89,20.87],[-92.6,21.8],[-92.89,22.74],[-93.7,23.42],[-94.8,23.67],[-95.9,23.42],[-96.71,22.74],[-97,21.8]]]}},{"type":"Feature","id":"geom_evt_2024_al01_alberto_d4_hover","properties":{"event_id":"evt_2024_al01_alberto","day_index":4,"geometry_role":"hover_geometry"},"geometry":{"type":"Polygon","coordinates":[[[-101,22.4],[-100.71,21.47],[-99.9,20.78],[-98.8,20.53],[-97.7,20.78],[-96.89,21.46],[-96.6,22.4],[-96.89,23.33],[-97.7,24.02],[-98.8,24.27],[-99.9,24.02],[-100.71,23.33],[-101,22.4]]]}},{"type":"Feature","id":"geom_evt_20240617_desert_southwest_2024_06_17_winter_d1_hover","properties":{"event_id":"evt_20240617_desert_southwest_2024_06_17_winter","day_index":1,"geometry_role":"hover_geometry"},"geometry":{"type":"Polygon","coordinates":[[[-116.34,45.26],[-116.3,45.11],[-116.14,45.11],[-114.69,45.2],[-112.69,45.62],[-112.2,45.75],[-112.17,47],[-112.19,47.11],[-112.2,47.13],[-112.68,48.07],[-113.32,49],[-114.74,49],[-116.22,45.87],[-116.34,45.26]]]}},{"type":"Feature","id":"geom_evt_20240618_desert_southwest_2024_06_18_winter_d1_hover","properties":{"event_id":"evt_20240617_desert_southwest_2024_06_17_winter","day_index":2,"geometry_role":"hover_geometry"},"geometry":{"type":"Polygon","coordinates":[[[-114.6,46.67],[-114.57,45.77],[-114.56,45.56],[-113.45,44.98],[-113.41,44.98],[-113.32,44.99],[-112.85,45.13],[-111.75,46.09],[-111.74,46.1],[-111.62,46.25],[-111.61,46.3],[-111.61,46.32],[-111.66,46.42],[-111.67,46.44],[-111.79,46.57],[-113.14,47.6],[-114.02,47.6],[-114.56,46.74],[-114.6,46.67]]]}},{"type":"Feature","id":"geom_evt_20240601_central_plains_2024_06_01_severe_d1_hover","properties":{"event_id":"evt_20240601_central_plains_2024_06_01_severe","day_index":1,"geometry_role":"hover_geometry"},"geometry":{"type":"Polygon","coordinates":[[[-101.86,36.58],[-101.38,36],[-100.48,35.78],[-99.63,36.03],[-99.15,36.96],[-99.41,38.41],[-99.8,38.69],[-100.35,38.78],[-101.26,38.12],[-101.8,37.15],[-101.86,36.58]]]}},{"type":"Feature","id":"geom_evt_20240608_central_plains_2024_06_08_severe_d1_hover","properties":{"event_id":"evt_20240608_central_plains_2024_06_08_severe","day_index":1,"geometry_role":"hover_geometry"},"geometry":{"type":"Polygon","coordinates":[[[-103.82,40.56],[-103.69,39.59],[-102.84,38.49],[-102.01,37.98],[-101.07,37.68],[-100.12,37.39],[-99.27,37.33],[-98.72,37.51],[-98.54,38.12],[-98.75,38.72],[-99.41,39.14],[-103.03,40.61],[-103.82,40.56]]]}},{"type":"Feature","id":"geom_evt_20240602_upper_midwest_2024_06_02_severe_d1_hover","properties":{"event_id":"evt_20240602_upper_midwest_2024_06_02_severe","day_index":1,"geometry_role":"hover_geometry"},"geometry":{"type":"Polygon","coordinates":[[[-102.71,40.95],[-102.48,39.97],[-101.55,38.97],[-99.26,38.97],[-97.19,40.05],[-97,41.05],[-96.96,42.37],[-98.18,42.95],[-99.12,42.98],[-100.15,42.99],[-101.32,42.25],[-102.71,40.95]]]}},{"type":"Feature","id":"geom_evt_20240607_upper_midwest_2024_06_07_severe_d1_hover","properties":{"event_id":"evt_20240607_upper_midwest_2024_06_07_severe","day_index":1,"geometry_role":"hover_geometry"},"geometry":{"type":"Polygon","coordinates":[[[-100.49,41.96],[-99.93,41.24],[-96.63,39.08],[-95.37,38.52],[-94.65,38.63],[-94.51,39.5],[-94.8,40.33],[-95.84,41.13],[-97.33,42.08],[-98.97,42.9],[-100.19,42.91],[-100.49,41.96]]]}},{"type":"Feature","id":"geom_evt_20240612_upper_midwest_2024_06_12_severe_d1_hover","properties":{"event_id":"evt_20240612_upper_midwest_2024_06_12_severe","day_index":1,"geometry_role":"hover_geometry"},"geometry":{"type":"Polygon","coordinates":[[[-94.85,46.63],[-94.64,46.13],[-93.18,45.83],[-90.9,46.03],[-90.47,46.56],[-89.39,47.99],[-90.83,48.28],[-92.61,48.55],[-92.92,48.59],[-94.57,47.3],[-94.85,46.63]]]}},{"type":"Feature","id":"geom_evt_20240613_upper_midwest_2024_06_13_severe_d1_hover","properties":{"event_id":"evt_20240612_upper_midwest_2024_06_12_severe","day_index":2,"geometry_role":"hover_geometry"},"geometry":{"type":"Polygon","coordinates":[[[-95.26,39.51],[-95.13,39.17],[-94.67,38.9],[-91.73,39.34],[-90.32,39.65],[-89.41,39.91],[-88.97,40.14],[-88.68,40.41],[-88.48,40.92],[-88.41,41.29],[-88.68,41.56],[-89.16,41.85],[-89.61,41.93],[-90.67,41.86],[-92,41.65],[-93.12,41.33],[-93.99,41.04],[-95.04,40.11],[-95.26,39.51]]]}},{"type":"Feature","id":"geom_evt_20240624_upper_midwest_2024_06_24_severe_d1_hover","properties":{"event_id":"evt_20240624_upper_midwest_2024_06_24_severe","day_index":1,"geometry_role":"hover_geometry"},"geometry":{"type":"Polygon","coordinates":[[[-93.37,45.12],[-93.31,44.64],[-92.34,43.61],[-90.6,42.62],[-89.13,42.28],[-87.66,42.19],[-87.65,42.69],[-87.69,43.36],[-89.02,44.52],[-90.51,45.05],[-92.38,45.3],[-93.37,45.12]]]}},{"type":"Feature","id":"geom_evt_20240625_upper_midwest_2024_06_25_severe_d1_hover","properties":{"event_id":"evt_20240624_upper_midwest_2024_06_24_severe","day_index":2,"geometry_role":"hover_geometry"},"geometry":{"type":"Polygon","coordinates":[[[-102.64,44.22],[-102.28,43.32],[-95.06,37.46],[-94.32,36.93],[-93.29,36.75],[-92.03,36.78],[-90.23,37.14],[-87.44,37.84],[-85.36,38.43],[-83.35,39.04],[-82.5,39.67],[-82.39,40.21],[-87.93,41.97],[-101.51,44.69],[-102.64,44.22]]]}},{"type":"Feature","id":"geom_evt_20240603_southern_plains_2024_06_03_severe_d1_hover","properties":{"event_id":"evt_20240603_southern_plains_2024_06_03_severe","day_index":1,"geometry_role":"hover_geometry"},"geometry":{"type":"Polygon","coordinates":[[[-101.2,35.73],[-100.21,33.58],[-99.4,32.83],[-95.31,30.92],[-92.34,30.86],[-90.48,31.08],[-89.69,32.73],[-87.95,43.28],[-88.09,43.79],[-88.45,44.12],[-89.38,44.14],[-90.34,43.56],[-101.03,36.27],[-101.2,35.73]]]}},{"type":"Feature","id":"geom_evt_20240604_southern_plains_2024_06_04_severe_d1_hover","properties":{"event_id":"evt_20240603_southern_plains_2024_06_03_severe","day_index":2,"geometry_role":"hover_geometry"},"geometry":{"type":"Polygon","coordinates":[[[-97.67,35.29],[-96.9,34.41],[-95.97,34.22],[-95.28,34.55],[-95.12,35.32],[-95.5,35.92],[-96.76,36.07],[-97.44,35.85],[-97.66,35.61],[-97.67,35.29]]]}},{"type":"Feature","id":"geom_evt_20240627_northern_plains_2024_06_27_severe_d1_hover","properties":{"event_id":"evt_20240627_northern_plains_2024_06_27_severe","day_index":1,"geometry_role":"hover_geometry"},"geometry":{"type":"Polygon","coordinates":[[[-108.05,46.52],[-102.97,41.31],[-101.62,40.08],[-100.96,40.07],[-100.27,40.56],[-99.7,42.29],[-100.51,48.99],[-105.6,49.01],[-106.11,49],[-108.04,46.8],[-108.05,46.52]]]}},{"type":"Feature","id":"geom_evt_20240623_great_lakes_2024_06_23_severe_d1_hover","properties":{"event_id":"evt_20240623_great_lakes_2024_06_23_severe","day_index":1,"geometry_role":"hover_geometry"},"geometry":{"type":"Polygon","coordinates":[[[-73.94,43.6],[-73.84,42.68],[-73.48,42.07],[-72.62,42.03],[-71.61,42.26],[-71.29,42.47],[-70.53,43.46],[-70.4,43.88],[-70.97,44.73],[-71.69,45.02],[-73.22,45.02],[-73.94,43.6]]]}},{"type":"Feature","id":"geom_evt_20240630_great_lakes_2024_06_30_severe_d1_hover","properties":{"event_id":"evt_20240630_great_lakes_2024_06_30_severe","day_index":1,"geometry_role":"hover_geometry"},"geometry":{"type":"Polygon","coordinates":[[[-75.58,39.67],[-75.48,39.35],[-74.93,38.97],[-74.4,38.99],[-74.08,39.2],[-70.69,41.75],[-70.6,42.05],[-71.15,42.72],[-72.39,42.72],[-74.76,41.39],[-75.41,40.65],[-75.58,39.67]]]}},{"type":"Feature","id":"geom_evt_2024_al03_three_d1_hover","properties":{"event_id":"evt_2024_al03_three","day_index":1,"geometry_role":"hover_geometry"},"geometry":{"type":"Polygon","coordinates":[[[-96.9,19.7],[-96.7,19.06],[-96.15,18.6],[-95.4,18.43],[-94.65,18.6],[-94.1,19.06],[-93.9,19.7],[-94.1,20.34],[-94.65,20.8],[-95.4,20.98],[-96.15,20.8],[-96.7,20.34],[-96.9,19.7]]]}},{"type":"Feature","id":"geom_evt_20240616_upper_midwest_2024_06_16_severe_d1_hover","properties":{"event_id":"evt_20240616_upper_midwest_2024_06_16_severe","day_index":1,"geometry_role":"hover_geometry"},"geometry":{"type":"Polygon","coordinates":[[[-104.68,42.92],[-104.52,41.55],[-103.82,41.07],[-101.37,39.52],[-100.59,39.46],[-99.83,39.49],[-88.61,41.09],[-87.91,41.21],[-87.49,41.47],[-87.43,41.84],[-87.25,46.74],[-87.92,47.33],[-89.35,47.84],[-90.7,48.15],[-91.03,48.23],[-92.61,48.55],[-93.31,48.64],[-93.97,48.63],[-103.46,44.13],[-104.68,42.92]]]}},{"type":"Feature","id":"geom_evt_20240617_upper_midwest_2024_06_17_severe_d1_hover","properties":{"event_id":"evt_20240616_upper_midwest_2024_06_16_severe","day_index":2,"geometry_role":"hover_geometry"},"geometry":{"type":"Polygon","coordinates":[[[-106.95,45.53],[-106.68,44.47],[-103.07,40.37],[-102.26,39.5],[-101.28,39.45],[-90.09,43.79],[-87.77,44.7],[-86.62,45.78],[-86.89,46.3],[-87.7,46.5],[-96.55,47.73],[-98.77,47.69],[-105.88,46.61],[-106.53,46.44],[-106.95,45.53]]]}},{"type":"Feature","id":"geom_evt_20240618_upper_midwest_2024_06_18_severe_d1_hover","properties":{"event_id":"evt_20240616_upper_midwest_2024_06_16_severe","day_index":3,"geometry_role":"hover_geometry"},"geometry":{"type":"Polygon","coordinates":[[[-102.83,35.63],[-102.78,34.68],[-102.67,34.29],[-102.25,34.15],[-101.77,34.13],[-101.49,34.24],[-95.07,40.58],[-90.57,45.47],[-89.57,46.96],[-89.13,48.07],[-92.61,48.55],[-93.33,48.64],[-94.39,48.74],[-101.5,38.41],[-102.4,36.86],[-102.83,35.63]]]}},{"type":"Feature","id":"geom_evt_20240628_upper_midwest_2024_06_28_severe_d1_hover","properties":{"event_id":"evt_20240628_upper_midwest_2024_06_28_severe","day_index":1,"geometry_role":"hover_geometry"},"geometry":{"type":"Polygon","coordinates":[[[-104.82,40.46],[-104.48,40.03],[-103.13,39.26],[-101.58,38.5],[-100.19,38.29],[-94.81,37.62],[-93.79,37.54],[-93.05,37.95],[-91.89,38.71],[-91.25,42.56],[-91.42,43.07],[-92.14,43.47],[-93.15,43.49],[-93.88,43.4],[-103.98,41.85],[-104.65,41.23],[-104.82,40.46]]]}},{"type":"Feature","id":"geom_evt_20240609_southern_plains_2024_06_09_severe_d1_hover","properties":{"event_id":"evt_20240609_southern_plains_2024_06_09_severe","day_index":1,"geometry_role":"hover_geometry"},"geometry":{"type":"Polygon","coordinates":[[[-94.09,35.48],[-92.69,34.64],[-91.02,33.91],[-88.43,33.02],[-87.62,33.21],[-87.53,34.49],[-88.04,35.05],[-91.59,36.19],[-93.14,36.38],[-93.76,35.99],[-94.09,35.48]]]}},{"type":"Feature","id":"geom_evt_20240610_southern_plains_2024_06_10_severe_d1_hover","properties":{"event_id":"evt_20240609_southern_plains_2024_06_09_severe","day_index":2,"geometry_role":"hover_geometry"},"geometry":{"type":"Polygon","coordinates":[[[-106.74,44.37],[-106.58,43.45],[-102.91,32.22],[-102.5,31.17],[-101.56,30.33],[-80.95,31.13],[-78.93,32.93],[-78.83,33.24],[-102.04,46.01],[-103,46.19],[-103.76,45.94],[-106.74,44.37]]]}},{"type":"Feature","id":"geom_evt_20240606_southeast_2024_06_06_severe_d1_hover","properties":{"event_id":"evt_20240606_southeast_2024_06_06_severe","day_index":1,"geometry_role":"hover_geometry"},"geometry":{"type":"Polygon","coordinates":[[[-101.54,35.79],[-101.48,35.08],[-100.91,34.78],[-80.61,26.15],[-79.76,27.03],[-73.84,39.53],[-73.83,39.56],[-75.8,39.42],[-99.08,36.46],[-100.77,36.13],[-101.54,35.79]]]}},{"type":"Feature","id":"geom_evt_20240619_southeast_2024_06_19_severe_d1_hover","properties":{"event_id":"evt_20240619_southeast_2024_06_19_severe","day_index":1,"geometry_role":"hover_geometry"},"geometry":{"type":"Polygon","coordinates":[[[-98.15,26.04],[-97.4,25.82],[-96.75,25.95],[-82.32,41.08],[-81.51,42.1],[-82.48,42.65],[-83.77,42.16],[-84.36,41.68],[-97.5,28.16],[-97.98,27.3],[-98.15,26.04]]]}},{"type":"Feature","id":"geom_evt_20240611_gulf_coast_2024_06_11_severe_d1_hover","properties":{"event_id":"evt_20240611_gulf_coast_2024_06_11_severe","day_index":1,"geometry_role":"hover_geometry"},"geometry":{"type":"Polygon","coordinates":[[[-101.26,30.28],[-100.89,29.29],[-100.63,28.89],[-100.53,28.77],[-100.14,28.64],[-99.22,28.63],[-98.79,28.94],[-98.53,29.78],[-98.55,30.17],[-99.13,30.69],[-100.59,30.71],[-101.26,30.28]]]}},{"type":"Feature","id":"geom_evt_20240614_mid_atlantic_2024_06_14_severe_d1_hover","properties":{"event_id":"evt_20240614_mid_atlantic_2024_06_14_severe","day_index":1,"geometry_role":"hover_geometry"},"geometry":{"type":"Polygon","coordinates":[[[-105.49,38.55],[-104.58,36.95],[-103.63,36.68],[-78.11,39.08],[-76.98,39.2],[-76.09,39.37],[-74.97,39.71],[-73.5,40.51],[-72.1,41.36],[-71.26,42.14],[-69.29,44.29],[-69.29,44.73],[-69.94,44.8],[-102.36,42.46],[-103.48,42.28],[-104.74,41.08],[-105.36,39.12],[-105.49,38.55]]]}},{"type":"Feature","id":"geom_evt_20240622_mid_atlantic_2024_06_22_severe_d1_hover","properties":{"event_id":"evt_20240622_mid_atlantic_2024_06_22_severe","day_index":1,"geometry_role":"hover_geometry"},"geometry":{"type":"Polygon","coordinates":[[[-94.09,40.9],[-93.71,40.02],[-92.69,39.56],[-72.51,41.47],[-71.57,41.63],[-71.68,42.25],[-72.97,42.99],[-82.34,44.11],[-87.51,43.74],[-89.95,43.56],[-92.69,42.96],[-93.92,42.06],[-94.09,40.9]]]}},{"type":"Feature","id":"geom_evt_20240626_mid_atlantic_2024_06_26_severe_d1_hover","properties":{"event_id":"evt_20240626_mid_atlantic_2024_06_26_severe","day_index":1,"geometry_role":"hover_geometry"},"geometry":{"type":"Polygon","coordinates":[[[-104.88,41.82],[-104.32,36.89],[-103.68,35.64],[-96.01,32.09],[-94.62,31.73],[-92.43,31.77],[-90.84,32.08],[-74.72,38.36],[-69.66,41.02],[-69.49,41.2],[-69.44,41.72],[-69.48,41.99],[-71.67,42.47],[-75.14,42.65],[-104.05,42.95],[-104.88,41.82]]]}},{"type":"Feature","id":"geom_evt_20240629_mid_atlantic_2024_06_29_severe_d1_hover","properties":{"event_id":"evt_20240629_mid_atlantic_2024_06_29_severe","day_index":1,"geometry_role":"hover_geometry"},"geometry":{"type":"Polygon","coordinates":[[[-104.96,35.85],[-96.4,35.88],[-95.38,35.91],[-91.66,36.34],[-89.83,36.71],[-78.01,39.13],[-76.74,39.65],[-75.75,40.52],[-75.38,42.02],[-75.9,42.73],[-77.73,43.63],[-78.6,43.66],[-104.03,37.94],[-104.33,37.28],[-104.96,35.85]]]}},{"type":"Feature","id":"geom_evt_20240615_northern_plains_2024_06_15_severe_d1_hover","properties":{"event_id":"evt_20240615_northern_plains_2024_06_15_severe","day_index":1,"geometry_role":"hover_geometry"},"geometry":{"type":"Polygon","coordinates":[[[-108.25,47.05],[-108.16,46.42],[-97.98,39.65],[-97.18,39.43],[-95.56,39.67],[-93.77,40.77],[-93.47,43.13],[-97.98,49],[-99.69,49],[-105.6,49.01],[-106.12,49],[-106.85,48.45],[-107.77,47.75],[-108.25,47.05]]]}},{"type":"Feature","id":"geom_evt_20240621_northern_plains_2024_06_21_severe_d1_hover","properties":{"event_id":"evt_20240621_northern_plains_2024_06_21_severe","day_index":1,"geometry_role":"hover_geometry"},"geometry":{"type":"Polygon","coordinates":[[[-112.64,48.16],[-112.13,37.6],[-111.66,36.45],[-110.51,36.3],[-88.86,43.13],[-88.73,43.82],[-89.62,44.3],[-108.53,48.6],[-111.17,48.77],[-112.64,48.16]]]}},{"type":"Feature","id":"geom_evt_20240620_great_lakes_2024_06_20_severe_d1_hover","properties":{"event_id":"evt_20240620_great_lakes_2024_06_20_severe","day_index":1,"geometry_role":"hover_geometry"},"geometry":{"type":"Polygon","coordinates":[[[-105.66,42.64],[-104.92,41.35],[-104.06,40.77],[-102.23,40.81],[-70.83,42.04],[-69.96,42.6],[-68.33,43.82],[-68.08,44.21],[-68.79,44.83],[-70,45.44],[-70.72,45.52],[-99.64,44.04],[-104.3,43.24],[-105.66,42.64]]]}}]}