{"type":"FeatureCollection","features":[{"type":"Feature","id":"geom_evt_20241209_southern_california_2024_12_09_fire_d1_hover","properties":{"event_id":"evt_20241209_southern_california_2024_12_09_fire","day_index":1,"geometry_role":"hover_geometry"},"geometry":{"type":"Polygon","coordinates":[[[-119.23,34.46],[-119.21,34.32],[-119.15,34.25],[-119.07,34.16],[-116.96,32.59],[-116.84,32.58],[-116.54,32.62],[-116.52,32.78],[-116.71,33.99],[-116.77,34.19],[-116.88,34.3],[-118.25,34.65],[-118.62,34.72],[-119.02,34.69],[-119.22,34.58],[-119.23,34.46]]]}},{"type":"Feature","id":"geom_evt_20241210_southern_california_2024_12_10_fire_d1_hover","properties":{"event_id":"evt_20241209_southern_california_2024_12_09_fire","day_index":2,"geometry_role":"hover_geometry"},"geometry":{"type":"Polygon","coordinates":[[[-119.32,34.33],[-119.25,34.2],[-119.15,34.13],[-116.88,32.6],[-116.42,32.67],[-116.63,33.76],[-116.85,34.13],[-117.11,34.33],[-118.53,34.72],[-118.93,34.74],[-119.16,34.67],[-119.31,34.5],[-119.32,34.33]]]}},{"type":"Feature","id":"geom_evt_20241228_gulf_coast_2024_12_28_severe_d1_hover","properties":{"event_id":"evt_20241228_gulf_coast_2024_12_28_severe","day_index":1,"geometry_role":"hover_geometry"},"geometry":{"type":"Polygon","coordinates":[[[-94.33,31.46],[-94.24,31.08],[-93.61,30.7],[-92.66,30.58],[-90.98,30.79],[-88.8,31.17],[-88.47,31.24],[-88.09,31.51],[-87.94,31.99],[-87.93,32.48],[-88.17,32.87],[-88.58,33.32],[-89.55,33.78],[-90.69,33.64],[-92.7,32.69],[-94.33,31.46]]]}},{"type":"Feature","id":"geom_evt_20241217_southern_california_2024_12_17_fire_d1_hover","properties":{"event_id":"evt_20241217_southern_california_2024_12_17_fire","day_index":1,"geometry_role":"hover_geometry"},"geometry":{"type":"Polygon","coordinates":[[[-119.22,34.36],[-118.96,34.1],[-118.61,34.12],[-118.18,34.33],[-118.25,34.58],[-118.58,34.64],[-118.96,34.59],[-119.22,34.36]]]}},{"type":"Feature","id":"geom_evt_20241218_southern_california_2024_12_18_fire_d1_hover","properties":{"event_id":"evt_20241217_southern_california_2024_12_17_fire","day_index":2,"geometry_role":"hover_geometry"},"geometry":{"type":"Polygon","coordinates":[[[-119.22,34.36],[-118.96,34.1],[-118.61,34.12],[-118.18,34.33],[-118.25,34.58],[-118.58,34.64],[-118.96,34.59],[-119.22,34.36]]]}},{"type":"Feature","id":"geom_evt_20241230_central_plains_2024_12_30_fire_d1_hover","properties":{"event_id":"evt_20241230_central_plains_2024_12_30_fire","day_index":1,"geometry_role":"hover_geometry"},"geometry":{"type":"Polygon","coordinates":[[[-105.55,31.63],[-104.44,29.98],[-103.69,29.72],[-102.7,29.62],[-102.22,29.78],[-102.19,29.79],[-102.13,30],[-101.53,32.44],[-100.91,35.01],[-100.97,35.88],[-101.33,36.72],[-102.2,37.16],[-103.27,36.99],[-104.58,36.44],[-104.66,36.21],[-105.52,32.68],[-105.55,31.63]]]}},{"type":"Feature","id":"geom_evt_20241202_mid_atlantic_2024_12_02_winter_d1_hover","properties":{"event_id":"evt_20241202_mid_atlantic_2024_12_02_winter","day_index":1,"geometry_role":"hover_geometry"},"geometry":{"type":"Polygon","coordinates":[[[-86.82,41.76],[-86.52,41.43],[-86.47,41.43],[-86.06,41.48],[-85.76,41.79],[-85.54,42.42],[-85.54,42.66],[-85.55,42.77],[-86.04,44.17],[-86.26,44.18],[-86.39,44.18],[-86.5,44.08],[-86.51,44.07],[-86.52,44.06],[-86.82,41.76]]]}},{"type":"Feature","id":"geom_evt_20241204_mid_atlantic_2024_12_04_winter_d1_hover","properties":{"event_id":"evt_20241204_mid_atlantic_2024_12_04_winter","day_index":1,"geometry_role":"hover_geometry"},"geometry":{"type":"Polygon","coordinates":[[[-86.54,43.61],[-86.36,42.24],[-86.22,42.07],[-85.29,42.07],[-83.19,45.03],[-83.19,45.04],[-83.47,45.99],[-83.48,46],[-83.58,46.09],[-84.13,46.53],[-84.96,46.77],[-85.01,46.77],[-85.24,46.76],[-85.87,46.24],[-86.52,44.06],[-86.54,43.67],[-86.54,43.61]]]}},{"type":"Feature","id":"geom_evt_20241205_mid_atlantic_2024_12_05_winter_d1_hover","properties":{"event_id":"evt_20241204_mid_atlantic_2024_12_04_winter","day_index":2,"geometry_role":"hover_geometry"},"geometry":{"type":"Polygon","coordinates":[[[-86.82,41.76],[-80.36,38.11],[-79.8,38.26],[-79.5,38.53],[-79.32,38.84],[-79.28,38.91],[-79.36,38.97],[-85.29,42.07],[-86.22,42.24],[-86.37,42.24],[-86.49,42.12],[-86.82,41.76]]]}},{"type":"Feature","id":"geom_evt_20241211_mid_atlantic_2024_12_11_winter_d1_hover","properties":{"event_id":"evt_20241211_mid_atlantic_2024_12_11_winter","day_index":1,"geometry_role":"hover_geometry"},"geometry":{"type":"Polygon","coordinates":[[[-90.42,46.56],[-86.22,42.07],[-85.29,42.07],[-85.07,42.42],[-83.4,45.21],[-83.38,45.26],[-83.38,45.27],[-83.4,45.29],[-83.49,45.36],[-88.43,48.19],[-88.44,48.19],[-88.57,48.17],[-88.61,48.16],[-88.64,48.15],[-89.18,47.94],[-89.21,47.92],[-89.25,47.88],[-90.42,46.57],[-90.42,46.56]]]}},{"type":"Feature","id":"geom_evt_20241219_mid_atlantic_2024_12_19_winter_d1_hover","properties":{"event_id":"evt_20241219_mid_atlantic_2024_12_19_winter","day_index":1,"geometry_role":"hover_geometry"},"geometry":{"type":"Polygon","coordinates":[[[-88.89,43.63],[-88.4,43.54],[-87.79,43.54],[-87.7,43.68],[-86.81,45.41],[-86.81,45.43],[-86.83,45.43],[-88.31,45.37],[-88.74,44.59],[-88.89,44.24],[-88.89,43.63]]]}},{"type":"Feature","id":"geom_evt_20241220_mid_atlantic_2024_12_20_winter_d1_hover","properties":{"event_id":"evt_20241219_mid_atlantic_2024_12_19_winter","day_index":2,"geometry_role":"hover_geometry"},"geometry":{"type":"Polygon","coordinates":[[[-83.67,36.6],[-82.9,35.94],[-82.82,35.92],[-82.55,35.96],[-82.08,36.1],[-82.03,36.12],[-81.71,36.34],[-81.61,36.62],[-81.61,36.64],[-81.8,37.01],[-81.84,37.07],[-81.89,37.13],[-81.9,37.14],[-82.55,37.2],[-82.57,37.2],[-82.71,37.13],[-82.73,37.12],[-83.67,36.61],[-83.67,36.6]]]}},{"type":"Feature","id":"geom_evt_20241204_upper_midwest_2024_12_04_winter_d1_hover","properties":{"event_id":"evt_20241204_upper_midwest_2024_12_04_winter","day_index":1,"geometry_role":"hover_geometry"},"geometry":{"type":"Polygon","coordinates":[[[-99.85,48.02],[-99.81,47.85],[-98.44,46.63],[-96.17,46.63],[-96.07,47.15],[-96.07,47.5],[-96.41,49],[-99.53,49],[-99.85,48.37],[-99.85,48.02]]]}},{"type":"Feature","id":"geom_evt_20241208_upper_midwest_2024_12_08_winter_d1_hover","properties":{"event_id":"evt_20241208_upper_midwest_2024_12_08_winter","day_index":1,"geometry_role":"hover_geometry"},"geometry":{"type":"Polygon","coordinates":[[[-94.43,48.37],[-94.42,47.85],[-91.81,46.93],[-91.78,46.94],[-89.57,47.96],[-89.49,48],[-89.48,48.01],[-92.95,48.63],[-94.28,48.71],[-94.42,48.71],[-94.43,48.7],[-94.43,48.37]]]}},{"type":"Feature","id":"geom_evt_20241218_upper_midwest_2024_12_18_winter_d1_hover","properties":{"event_id":"evt_20241218_upper_midwest_2024_12_18_winter","day_index":1,"geometry_role":"hover_geometry"},"geometry":{"type":"Polygon","coordinates":[[[-100.28,48.37],[-100.24,48.02],[-100.2,47.85],[-100.03,47.33],[-99.45,46.63],[-98.44,46.63],[-98.44,46.98],[-98.47,47.33],[-98.5,47.59],[-99.53,49],[-100.18,49],[-100.28,48.54],[-100.28,48.37]]]}},{"type":"Feature","id":"geom_evt_20241219_upper_midwest_2024_12_19_winter_d1_hover","properties":{"event_id":"evt_20241218_upper_midwest_2024_12_18_winter","day_index":2,"geometry_role":"hover_geometry"},"geometry":{"type":"Polygon","coordinates":[[[-99.85,48.02],[-99.81,47.85],[-98.01,45.94],[-96.25,45.76],[-95.76,45.76],[-90.92,46.15],[-89.48,48.01],[-97.23,49],[-99.53,49],[-99.85,48.37],[-99.85,48.02]]]}},{"type":"Feature","id":"geom_evt_20241204_great_lakes_2024_12_04_winter_d1_hover","properties":{"event_id":"evt_20241204_great_lakes_2024_12_04_winter","day_index":1,"geometry_role":"hover_geometry"},"geometry":{"type":"Polygon","coordinates":[[[-81.97,41.35],[-81.65,40.91],[-79.41,39.73],[-79.39,39.72],[-78.81,39.72],[-74.71,42.52],[-74.12,43.1],[-74.05,43.77],[-74.05,43.8],[-74.28,44.12],[-75.83,44.39],[-75.85,44.39],[-76,44.35],[-76.15,44.29],[-81.97,41.51],[-81.97,41.35]]]}},{"type":"Feature","id":"geom_evt_20241205_great_lakes_2024_12_05_winter_d1_hover","properties":{"event_id":"evt_20241204_great_lakes_2024_12_04_winter","day_index":2,"geometry_role":"hover_geometry"},"geometry":{"type":"Polygon","coordinates":[[[-80.23,39.11],[-80.07,38.95],[-79.28,38.91],[-72.93,42.74],[-72.82,43.26],[-72.82,43.3],[-73,43.31],[-73.25,43.31],[-78.49,42.87],[-78.86,42.78],[-79.03,42.7],[-79.05,42.69],[-79.76,42.27],[-80.23,39.17],[-80.23,39.11]]]}},{"type":"Feature","id":"geom_evt_20241211_great_lakes_2024_12_11_winter_d1_hover","properties":{"event_id":"evt_20241211_great_lakes_2024_12_11_winter","day_index":1,"geometry_role":"hover_geometry"},"geometry":{"type":"Polygon","coordinates":[[[-81,41.77],[-79.61,41.85],[-78.31,42],[-77.96,42.66],[-77.91,42.95],[-77.9,43.02],[-77.9,43.04],[-77.91,43.13],[-78.47,43.13],[-79,43.06],[-81,41.86],[-81,41.77]]]}},{"type":"Feature","id":"geom_evt_20241212_great_lakes_2024_12_12_winter_d1_hover","properties":{"event_id":"evt_20241211_great_lakes_2024_12_11_winter","day_index":2,"geometry_role":"hover_geometry"},"geometry":{"type":"Polygon","coordinates":[[[-76.62,43.41],[-76.61,43.26],[-76.6,43.25],[-76.48,43.23],[-76.28,43.2],[-75.93,43.16],[-75.88,43.16],[-74.32,43.21],[-74.22,43.22],[-74.14,43.25],[-74.05,43.77],[-74.05,43.8],[-74.61,44.73],[-76,44.35],[-76.15,44.29],[-76.3,44.19],[-76.31,44.18],[-76.37,44.11],[-76.62,43.42],[-76.62,43.41]]]}},{"type":"Feature","id":"geom_evt_20241215_great_lakes_2024_12_15_winter_d1_hover","properties":{"event_id":"evt_20241215_great_lakes_2024_12_15_winter","day_index":1,"geometry_role":"hover_geometry"},"geometry":{"type":"Polygon","coordinates":[[[-79.69,39.02],[-79.51,38.97],[-79.28,38.91],[-78.78,39.72],[-78.35,40.72],[-78.38,40.73],[-78.51,40.73],[-78.81,40.72],[-79.33,40],[-79.4,39.9],[-79.48,39.72],[-79.69,39.02]]]}},{"type":"Feature","id":"geom_evt_20241201_pacific_northwest_2024_12_01_winter_d1_hover","properties":{"event_id":"evt_20241201_pacific_northwest_2024_12_01_winter","day_index":1,"geometry_role":"hover_geometry"},"geometry":{"type":"Polygon","coordinates":[[[-137.94,58.79],[-137.93,58.78],[-134.34,55.84],[-134.32,55.83],[-132.21,55.64],[-132.16,55.64],[-130.16,55.78],[-130.07,55.84],[-130.03,55.89],[-130.02,55.91],[-130.01,55.99],[-130.01,56],[-130.03,56.04],[-130.1,56.12],[-133.38,58.43],[-135.23,59.7],[-135.48,59.8],[-136.19,59.64],[-136.35,59.6],[-137.94,58.8],[-137.94,58.79]]]}},{"type":"Feature","id":"geom_evt_20241212_pacific_northwest_2024_12_12_winter_d1_hover","properties":{"event_id":"evt_20241212_pacific_northwest_2024_12_12_winter","day_index":1,"geometry_role":"hover_geometry"},"geometry":{"type":"Polygon","coordinates":[[[-166.85,68.33],[-165.82,68.08],[-165.38,68.03],[-164.91,68.03],[-141,69.5],[-141,69.65],[-141.08,69.67],[-142.68,70.03],[-143.23,70.15],[-156.44,71.39],[-156.47,71.39],[-159.59,70.81],[-161.88,70.33],[-162.03,70.29],[-162.1,70.27],[-162.34,70.2],[-166.22,68.88],[-166.85,68.34],[-166.85,68.33]]]}},{"type":"Feature","id":"geom_evt_20241226_pacific_northwest_2024_12_26_winter_d1_hover","properties":{"event_id":"evt_20241226_pacific_northwest_2024_12_26_winter","day_index":1,"geometry_role":"hover_geometry"},"geometry":{"type":"Polygon","coordinates":[[[-124.32,48],[-124.31,47.9],[-122.53,44.94],[-122.51,44.92],[-122.4,44.88],[-121.73,44.89],[-121.71,44.9],[-121.48,45.26],[-120.43,48.25],[-120.75,48.94],[-120.77,48.96],[-120.85,49],[-122.09,49],[-124.26,48.11],[-124.32,48]]]}},{"type":"Feature","id":"geom_evt_20241229_pacific_northwest_2024_12_29_winter_d1_hover","properties":{"event_id":"evt_20241229_pacific_northwest_2024_12_29_winter","day_index":1,"geometry_role":"hover_geometry"},"geometry":{"type":"Polygon","coordinates":[[[-122.71,46.69],[-122.69,46.25],[-122.53,44.94],[-122.51,44.92],[-122.4,44.88],[-121.73,44.89],[-114.59,46.63],[-114.12,46.78],[-113.98,47.14],[-114.38,47.35],[-115.8,48.06],[-115.94,48.12],[-116.05,48.14],[-121,48.3],[-122.11,48.3],[-122.71,46.7],[-122.71,46.69]]]}},{"type":"Feature","id":"geom_evt_20241214_northern_rockies_2024_12_14_winter_d1_hover","properties":{"event_id":"evt_20241214_northern_rockies_2024_12_14_winter","day_index":1,"geometry_role":"hover_geometry"},"geometry":{"type":"Polygon","coordinates":[[[-112.19,44.53],[-111.73,42],[-110.86,41.83],[-110.63,41.82],[-108.87,42.37],[-108.68,42.44],[-108.63,42.5],[-109.93,44.94],[-110,45.04],[-110.01,45.05],[-111.09,45.11],[-111.11,45.11],[-111.13,45.1],[-112.18,44.54],[-112.19,44.53]]]}},{"type":"Feature","id":"geom_evt_20241215_northern_rockies_2024_12_15_winter_d1_hover","properties":{"event_id":"evt_20241214_northern_rockies_2024_12_14_winter","day_index":2,"geometry_role":"hover_geometry"},"geometry":{"type":"Polygon","coordinates":[[[-108.89,47.73],[-107.94,46.87],[-107.9,46.85],[-105.24,46.54],[-104.98,46.54],[-104.86,46.57],[-104.73,46.61],[-104.61,46.66],[-104.6,46.83],[-104.6,46.86],[-104.97,48.65],[-105.06,49],[-108.24,49],[-108.89,47.92],[-108.89,47.73]]]}},{"type":"Feature","id":"geom_evt_20241226_northern_rockies_2024_12_26_winter_d1_hover","properties":{"event_id":"evt_20241226_northern_rockies_2024_12_26_winter","day_index":1,"geometry_role":"hover_geometry"},"geometry":{"type":"Polygon","coordinates":[[[-112.19,41.99],[-111.83,39.76],[-111.82,39.74],[-111.8,39.72],[-111.71,39.71],[-111.68,39.71],[-111.59,39.74],[-110.03,40.54],[-109.98,40.57],[-109.83,44.7],[-109.83,44.72],[-109.93,44.94],[-110,45.04],[-110.01,45.05],[-111.09,45.11],[-111.11,45.11],[-111.13,45.1],[-112.18,44.54],[-112.19,44.53],[-112.19,41.99]]]}},{"type":"Feature","id":"geom_evt_20241228_northern_rockies_2024_12_28_winter_d1_hover","properties":{"event_id":"evt_20241228_northern_rockies_2024_12_28_winter","day_index":1,"geometry_role":"hover_geometry"},"geometry":{"type":"Polygon","coordinates":[[[-111.15,45.05],[-111.05,42.25],[-110.9,41.85],[-110.86,41.83],[-110.63,41.82],[-108.87,42.37],[-108.68,42.44],[-108.53,42.53],[-108.52,42.54],[-108.52,42.55],[-108.82,43.85],[-109.26,45.01],[-111.09,45.11],[-111.11,45.11],[-111.13,45.1],[-111.15,45.06],[-111.15,45.05]]]}},{"type":"Feature","id":"geom_evt_20241229_northern_rockies_2024_12_29_winter_d1_hover","properties":{"event_id":"evt_20241228_northern_rockies_2024_12_28_winter","day_index":2,"geometry_role":"hover_geometry"},"geometry":{"type":"Polygon","coordinates":[[[-112.31,44.8],[-112.23,44.55],[-112.22,44.54],[-112.19,44.53],[-112.11,44.52],[-111.83,44.51],[-111.12,44.49],[-111.09,44.49],[-109.24,45.01],[-109.22,45.03],[-108.85,46.75],[-108.88,46.9],[-109.01,47.24],[-109.02,47.26],[-110.51,47.58],[-110.63,47.57],[-110.75,47.54],[-111.9,46.93],[-111.91,46.92],[-111.92,46.9],[-112.23,45.57],[-112.31,44.8]]]}},{"type":"Feature","id":"geom_evt_20241214_northern_california_2024_12_14_winter_d1_hover","properties":{"event_id":"evt_20241214_northern_california_2024_12_14_winter","day_index":1,"geometry_role":"hover_geometry"},"geometry":{"type":"Polygon","coordinates":[[[-123.72,41.59],[-123.66,41.38],[-123.38,41.15],[-123.25,41.08],[-123.04,41],[-122.94,40.99],[-122.93,40.99],[-121.45,41.18],[-115.09,43.07],[-114.55,43.4],[-114.51,43.46],[-114.51,43.49],[-114.52,43.98],[-114.69,45.2],[-116.34,45.27],[-116.69,45.27],[-123.52,42],[-123.64,41.89],[-123.65,41.88],[-123.7,41.83],[-123.72,41.61],[-123.72,41.59]]]}},{"type":"Feature","id":"geom_evt_20241216_northern_california_2024_12_16_winter_d1_hover","properties":{"event_id":"evt_20241216_northern_california_2024_12_16_winter","day_index":1,"geometry_role":"hover_geometry"},"geometry":{"type":"Polygon","coordinates":[[[-122.91,43.67],[-122.88,43.62],[-122.84,43.56],[-122.74,43.44],[-122.15,43.44],[-119.9,43.61],[-118.23,44.04],[-117.61,44.99],[-117.61,45],[-117.84,45.21],[-118.08,45.3],[-118.47,45.44],[-118.53,45.46],[-118.61,45.48],[-119.06,45.53],[-121.44,45.56],[-122.53,44.94],[-122.57,44.85],[-122.64,44.65],[-122.91,43.68],[-122.91,43.67]]]}},{"type":"Feature","id":"geom_evt_20241226_northern_california_2024_12_26_winter_d1_hover","properties":{"event_id":"evt_20241226_northern_california_2024_12_26_winter","day_index":1,"geometry_role":"hover_geometry"},"geometry":{"type":"Polygon","coordinates":[[[-123.72,41.59],[-123.66,41.38],[-123.38,41.15],[-123.25,41.08],[-123.04,41],[-122.94,40.99],[-122.93,40.99],[-121.45,41.18],[-115.09,43.07],[-114.55,43.4],[-114.51,43.46],[-114.51,43.49],[-114.52,43.98],[-114.69,45.2],[-116.34,45.27],[-116.69,45.27],[-122.53,44.94],[-122.57,44.85],[-123.7,41.83],[-123.72,41.61],[-123.72,41.59]]]}},{"type":"Feature","id":"geom_evt_20241205_northeast_2024_12_05_winter_d1_hover","properties":{"event_id":"evt_20241205_northeast_2024_12_05_winter","day_index":1,"geometry_role":"hover_geometry"},"geometry":{"type":"Polygon","coordinates":[[[-70.02,46.57],[-69.78,45.54],[-69.66,45.1],[-69.62,45.01],[-69.52,45.02],[-68.86,45.14],[-67.81,45.68],[-67.78,45.73],[-67.76,45.82],[-67.75,45.91],[-67.75,45.92],[-67.79,47.07],[-67.95,47.2],[-68.15,47.33],[-68.23,47.36],[-69.17,47.46],[-69.22,47.46],[-69.28,47.41],[-69.73,46.97],[-70,46.7],[-70.02,46.57]]]}},{"type":"Feature","id":"geom_evt_20241214_southern_california_2024_12_14_winter_d1_hover","properties":{"event_id":"evt_20241214_southern_california_2024_12_14_winter","day_index":1,"geometry_role":"hover_geometry"},"geometry":{"type":"Polygon","coordinates":[[[-119.89,37.98],[-119.88,37.89],[-119.87,37.78],[-119.85,37.74],[-118.82,36.04],[-118.41,36.34],[-118.41,36.34],[-118.26,36.48],[-118.24,36.49],[-118.24,36.49],[-118.24,36.51],[-118.24,36.52],[-118.37,36.91],[-118.44,37.06],[-118.76,37.46],[-119.33,38.07],[-119.35,38.08],[-119.35,38.09],[-119.5,38.16],[-119.59,38.18],[-119.59,38.18],[-119.59,38.18],[-119.59,38.18],[-119.59,38.18],[-119.83,38.09],[-119.83,38.09],[-119.84,38.09],[-119.84,38.08],[-119.86,38.07],[-119.87,38.06],[-119.87,38.05],[-119.87,38.05],[-119.88,38.03],[-119.88,38.03],[-119.89,37.98],[-119.89,37.98]]]}},{"type":"Feature","id":"geom_evt_20241214_desert_southwest_2024_12_14_winter_d1_hover","properties":{"event_id":"evt_20241214_desert_southwest_2024_12_14_winter","day_index":1,"geometry_role":"hover_geometry"},"geometry":{"type":"Polygon","coordinates":[[[-115.28,43.24],[-115.11,43.2],[-114.28,43.2],[-112.95,43.28],[-112.52,43.43],[-111.86,44.19],[-111.85,44.23],[-111.85,44.32],[-112.19,44.54],[-112.24,44.57],[-114.22,44.88],[-114.23,44.88],[-114.79,44.72],[-114.85,44.6],[-114.86,44.57],[-115.28,43.3],[-115.28,43.24]]]}},{"type":"Feature","id":"geom_evt_20241226_desert_southwest_2024_12_26_winter_d1_hover","properties":{"event_id":"evt_20241226_desert_southwest_2024_12_26_winter","day_index":1,"geometry_role":"hover_geometry"},"geometry":{"type":"Polygon","coordinates":[[[-115.28,43.24],[-114.28,41.99],[-113.34,41.99],[-111.73,42],[-111.72,42.06],[-111.68,42.31],[-111.69,42.42],[-111.99,43.1],[-112.06,43.25],[-113.45,44.46],[-114.22,44.88],[-114.23,44.88],[-114.79,44.72],[-114.85,44.6],[-114.86,44.57],[-115.28,43.3],[-115.28,43.24]]]}},{"type":"Feature","id":"geom_evt_20241215_northern_plains_2024_12_15_winter_d1_hover","properties":{"event_id":"evt_20241215_northern_plains_2024_12_15_winter","day_index":1,"geometry_role":"hover_geometry"},"geometry":{"type":"Polygon","coordinates":[[[-105.41,47.18],[-105.32,46.98],[-105.2,46.92],[-104.6,46.68],[-104.35,46.64],[-104.05,46.64],[-104.04,47.13],[-104.04,48],[-104.05,49],[-105.06,49],[-105.36,47.79],[-105.41,47.53],[-105.41,47.18]]]}},{"type":"Feature","id":"geom_evt_20241218_northern_plains_2024_12_18_winter_d1_hover","properties":{"event_id":"evt_20241218_northern_plains_2024_12_18_winter","day_index":1,"geometry_role":"hover_geometry"},"geometry":{"type":"Polygon","coordinates":[[[-104.05,48.11],[-104.04,47.99],[-104.01,47.97],[-100.67,47.33],[-100.03,47.33],[-100.03,47.67],[-100.18,49],[-104.05,49],[-104.05,48.11]]]}},{"type":"Feature","id":"geom_evt_20241226_gulf_coast_2024_12_26_severe_d1_hover","properties":{"event_id":"evt_20241226_gulf_coast_2024_12_26_severe","day_index":1,"geometry_role":"hover_geometry"},"geometry":{"type":"Polygon","coordinates":[[[-95.73,29.77],[-95.24,29.52],[-94.72,29.71],[-93.69,30.37],[-93.46,31.09],[-93.78,31.56],[-94.37,31.59],[-94.87,31.41],[-95.21,31.07],[-95.61,30.47],[-95.73,29.77]]]}},{"type":"Feature","id":"geom_evt_20241210_southeast_2024_12_10_severe_d1_hover","properties":{"event_id":"evt_20241210_southeast_2024_12_10_severe","day_index":1,"geometry_role":"hover_geometry"},"geometry":{"type":"Polygon","coordinates":[[[-87.18,32.52],[-86.8,31.98],[-85.79,31.85],[-85.08,31.89],[-83.87,32.44],[-83.5,33.14],[-84.16,33.53],[-86.68,33.14],[-87.17,33.02],[-87.18,32.52]]]}},{"type":"Feature","id":"geom_evt_20241229_southeast_2024_12_29_severe_d1_hover","properties":{"event_id":"evt_20241229_southeast_2024_12_29_severe","day_index":1,"geometry_role":"hover_geometry"},"geometry":{"type":"Polygon","coordinates":[[[-79.73,36.72],[-79.54,32.54],[-77.68,33.62],[-77.43,34.08],[-77.16,35.54],[-77.71,36.43],[-78.06,36.7],[-79.23,36.94],[-79.61,36.93],[-79.73,36.72]]]}},{"type":"Feature","id":"geom_evt_20241211_mid_atlantic_2024_12_11_severe_d1_hover","properties":{"event_id":"evt_20241211_mid_atlantic_2024_12_11_severe","day_index":1,"geometry_role":"hover_geometry"},"geometry":{"type":"Polygon","coordinates":[[[-78.97,32.91],[-76.26,34.38],[-75.28,34.98],[-69.49,41.2],[-69.44,41.72],[-69.47,41.89],[-71.55,41.94],[-72.95,41.46],[-74.91,39.66],[-78.71,34.26],[-78.97,32.91]]]}},{"type":"Feature","id":"geom_evt_20241224_gulf_coast_2024_12_24_severe_d1_hover","properties":{"event_id":"evt_20241224_gulf_coast_2024_12_24_severe","day_index":1,"geometry_role":"hover_geometry"},"geometry":{"type":"Polygon","coordinates":[[[-97.74,29.69],[-97.25,29.46],[-95.73,30.33],[-94.42,31.5],[-94.85,32.34],[-95.97,32.42],[-97.51,31.77],[-97.74,29.69]]]}}]}