{"type":"FeatureCollection","features":[{"type":"Feature","id":"geom_evt_2024_al02_beryl_d1_hover","properties":{"event_id":"evt_2024_al02_beryl","day_index":1,"geometry_role":"hover_geometry"},"geometry":{"type":"Polygon","coordinates":[[[-65.3,12.8],[-64.9,11.53],[-63.8,10.59],[-62.3,10.25],[-60.8,10.59],[-59.7,11.53],[-59.3,12.8],[-59.7,14.08],[-60.8,15.01],[-62.3,15.35],[-63.8,15.01],[-64.9,14.08],[-65.3,12.8]]]}},{"type":"Feature","id":"geom_evt_2024_al02_beryl_d2_hover","properties":{"event_id":"evt_2024_al02_beryl","day_index":2,"geometry_role":"hover_geometry"},"geometry":{"type":"Polygon","coordinates":[[[-72.9,15.6],[-72.5,14.33],[-71.4,13.39],[-69.9,13.05],[-68.4,13.39],[-67.3,14.33],[-66.9,15.6],[-67.3,16.88],[-68.4,17.81],[-69.9,18.15],[-71.4,17.81],[-72.5,16.88],[-72.9,15.6]]]}},{"type":"Feature","id":"geom_evt_2024_al02_beryl_d3_hover","properties":{"event_id":"evt_2024_al02_beryl","day_index":3,"geometry_role":"hover_geometry"},"geometry":{"type":"Polygon","coordinates":[[[-79.8,17.3],[-79.4,16.03],[-78.3,15.09],[-76.8,14.75],[-75.3,15.09],[-74.2,16.02],[-73.8,17.3],[-74.2,18.58],[-75.3,19.51],[-76.8,19.85],[-78.3,19.51],[-79.4,18.58],[-79.8,17.3]]]}},{"type":"Feature","id":"geom_evt_2024_al02_beryl_d4_hover","properties":{"event_id":"evt_2024_al02_beryl","day_index":4,"geometry_role":"hover_geometry"},"geometry":{"type":"Polygon","coordinates":[[[-86.4,19.3],[-86,18.03],[-84.9,17.09],[-83.4,16.75],[-81.9,17.09],[-80.8,18.02],[-80.4,19.3],[-80.8,20.58],[-81.9,21.51],[-83.4,21.85],[-84.9,21.51],[-86,20.58],[-86.4,19.3]]]}},{"type":"Feature","id":"geom_evt_2024_al02_beryl_d5_hover","properties":{"event_id":"evt_2024_al02_beryl","day_index":5,"geometry_role":"hover_geometry"},"geometry":{"type":"Polygon","coordinates":[[[-91,20.9],[-90.71,19.97],[-89.9,19.28],[-88.8,19.03],[-87.7,19.28],[-86.89,19.96],[-86.6,20.9],[-86.89,21.83],[-87.7,22.52],[-88.8,22.77],[-89.9,22.52],[-90.71,21.83],[-91,20.9]]]}},{"type":"Feature","id":"geom_evt_2024_al02_beryl_d6_hover","properties":{"event_id":"evt_2024_al02_beryl","day_index":6,"geometry_role":"hover_geometry"},"geometry":{"type":"Polygon","coordinates":[[[-94.9,23.6],[-94.61,22.67],[-93.8,21.98],[-92.7,21.73],[-91.6,21.98],[-90.79,22.67],[-90.5,23.6],[-90.79,24.54],[-91.6,25.22],[-92.7,25.47],[-93.8,25.22],[-94.61,24.54],[-94.9,23.6]]]}},{"type":"Feature","id":"geom_evt_2024_al02_beryl_d7_hover","properties":{"event_id":"evt_2024_al02_beryl","day_index":7,"geometry_role":"hover_geometry"},"geometry":{"type":"Polygon","coordinates":[[[-97.6,26.3],[-97.31,25.37],[-96.5,24.68],[-95.4,24.43],[-94.3,24.68],[-93.49,25.37],[-93.2,26.3],[-93.49,27.24],[-94.3,27.92],[-95.4,28.17],[-96.5,27.92],[-97.31,27.24],[-97.6,26.3]]]}},{"type":"Feature","id":"geom_evt_2024_al02_beryl_d8_hover","properties":{"event_id":"evt_2024_al02_beryl","day_index":8,"geometry_role":"hover_geometry"},"geometry":{"type":"Polygon","coordinates":[[[-97.8,30.7],[-97.51,29.77],[-96.7,29.08],[-95.6,28.83],[-94.5,29.08],[-93.69,29.76],[-93.4,30.7],[-93.69,31.64],[-94.5,32.32],[-95.6,32.57],[-96.7,32.32],[-97.51,31.64],[-97.8,30.7]]]}},{"type":"Feature","id":"geom_evt_2024_al02_beryl_d9_hover","properties":{"event_id":"evt_2024_al02_beryl","day_index":9,"geometry_role":"hover_geometry"},"geometry":{"type":"Polygon","coordinates":[[[-91.8,36.9],[-91.6,36.26],[-91.05,35.8],[-90.3,35.63],[-89.55,35.8],[-89,36.26],[-88.8,36.9],[-89,37.54],[-89.55,38],[-90.3,38.17],[-91.05,38],[-91.6,37.54],[-91.8,36.9]]]}},{"type":"Feature","id":"geom_evt_2024_al02_beryl_d10_hover","properties":{"event_id":"evt_2024_al02_beryl","day_index":10,"geometry_role":"hover_geometry"},"geometry":{"type":"Polygon","coordinates":[[[-84.4,42.2],[-84.2,41.56],[-83.65,41.1],[-82.9,40.93],[-82.15,41.1],[-81.6,41.56],[-81.4,42.2],[-81.6,42.84],[-82.15,43.3],[-82.9,43.48],[-83.65,43.3],[-84.2,42.84],[-84.4,42.2]]]}},{"type":"Feature","id":"geom_evt_2024_al02_beryl_d11_hover","properties":{"event_id":"evt_2024_al02_beryl","day_index":11,"geometry_role":"hover_geometry"},"geometry":{"type":"Polygon","coordinates":[[[-80.1,43.1],[-79.9,42.46],[-79.35,42],[-78.6,41.83],[-77.85,42],[-77.3,42.46],[-77.1,43.1],[-77.3,43.74],[-77.85,44.2],[-78.6,44.38],[-79.35,44.2],[-79.9,43.74],[-80.1,43.1]]]}},{"type":"Feature","id":"geom_evt_20240703_desert_southwest_2024_07_03_fire_d1_hover","properties":{"event_id":"evt_20240703_desert_southwest_2024_07_03_fire","day_index":1,"geometry_role":"hover_geometry"},"geometry":{"type":"Polygon","coordinates":[[[-116.42,43.48],[-116.4,43.17],[-113.07,37.11],[-112.84,36.75],[-112.28,36.73],[-111.38,36.97],[-109.28,40.11],[-109.06,40.76],[-113.48,43.12],[-113.98,43.36],[-116.07,43.6],[-116.42,43.48]]]}},{"type":"Feature","id":"geom_evt_20240706_northern_california_2024_07_06_fire_d1_hover","properties":{"event_id":"evt_20240706_northern_california_2024_07_06_fire","day_index":1,"geometry_role":"hover_geometry"},"geometry":{"type":"Polygon","coordinates":[[[-117.78,42.39],[-117.68,42.09],[-117.22,41.85],[-116.42,41.62],[-115.33,41.59],[-114.44,41.62],[-113.2,42.06],[-112.76,42.32],[-112.62,42.78],[-112.61,43.26],[-112.88,43.54],[-116.05,43.75],[-116.58,43.78],[-116.78,43.62],[-117.68,42.63],[-117.78,42.39]]]}},{"type":"Feature","id":"geom_evt_20240712_northern_california_2024_07_12_fire_d1_hover","properties":{"event_id":"evt_20240712_northern_california_2024_07_12_fire","day_index":1,"geometry_role":"hover_geometry"},"geometry":{"type":"Polygon","coordinates":[[[-120.4,42.17],[-120.17,41.64],[-119.7,41.48],[-119.08,41.54],[-113.58,42.52],[-112.43,42.76],[-111.83,43.17],[-111.95,43.84],[-112.59,44.19],[-119.33,43.1],[-120.08,42.8],[-120.4,42.17]]]}},{"type":"Feature","id":"geom_evt_20240707_southwest_2024_07_07_fire_d1_hover","properties":{"event_id":"evt_20240707_southwest_2024_07_07_fire","day_index":1,"geometry_role":"hover_geometry"},"geometry":{"type":"Polygon","coordinates":[[[-112.86,37.41],[-112.68,37.1],[-112.19,37.02],[-110.38,37.09],[-109.88,37.16],[-109.71,37.36],[-109.67,38.67],[-109.82,39.16],[-110.3,39.51],[-110.59,39.58],[-110.89,39.54],[-112.26,38.72],[-112.49,38.49],[-112.86,37.65],[-112.86,37.41]]]}},{"type":"Feature","id":"geom_evt_20240701_southeast_2024_07_01_rain_d1_hover","properties":{"event_id":"evt_20240701_southeast_2024_07_01_rain","day_index":1,"geometry_role":"hover_geometry"},"geometry":{"type":"Polygon","coordinates":[[[-81.28,31.97],[-81.28,31.95],[-81.28,31.92],[-81.28,31.89],[-81.27,31.87],[-81.26,31.85],[-81.24,31.82],[-81.23,31.8],[-81.12,31.64],[-81.12,31.63],[-81.11,31.63],[-81.11,31.63],[-81.09,31.63],[-81.07,31.63],[-79.27,33.08],[-79.25,33.09],[-79.24,33.1],[-79.23,33.12],[-79.22,33.13],[-79.22,33.15],[-79.21,33.16],[-79.21,33.18],[-79.22,33.19],[-79.23,33.2],[-79.24,33.21],[-79.27,33.22],[-79.29,33.23],[-79.32,33.23],[-79.36,33.24],[-79.39,33.24],[-79.42,33.24],[-79.49,33.24],[-79.56,33.24],[-79.6,33.24],[-79.63,33.23],[-79.66,33.23],[-79.69,33.22],[-79.72,33.22],[-79.86,33.17],[-79.89,33.16],[-79.98,33.11],[-80.64,32.73],[-80.66,32.72],[-80.93,32.55],[-80.95,32.53],[-80.98,32.51],[-80.99,32.5],[-81.1,32.38],[-81.11,32.36],[-81.17,32.28],[-81.2,32.23],[-81.21,32.22],[-81.23,32.19],[-81.23,32.17],[-81.27,32.05],[-81.28,32.03],[-81.28,32],[-81.28,31.97]]]}},{"type":"Feature","id":"geom_evt_20240702_upper_midwest_2024_07_02_rain_d1_hover","properties":{"event_id":"evt_20240702_upper_midwest_2024_07_02_rain","day_index":1,"geometry_role":"hover_geometry"},"geometry":{"type":"Polygon","coordinates":[[[-95.23,41.26],[-95.23,41.23],[-95.23,41.2],[-95.22,41.17],[-95.21,41.15],[-95.2,41.13],[-95.19,41.11],[-95.17,41.1],[-95,40.94],[-94.94,40.88],[-94.92,40.87],[-94.89,40.85],[-94.88,40.84],[-94.64,40.71],[-94.55,40.67],[-94.53,40.66],[-94.43,40.62],[-93.97,40.44],[-93.83,40.39],[-93.8,40.39],[-93.77,40.38],[-93.38,40.32],[-93.35,40.32],[-93.32,40.32],[-93.25,40.32],[-93.14,40.31],[-92.58,40.32],[-92.07,40.5],[-92.05,40.51],[-92.03,40.52],[-91.48,40.9],[-91.44,40.93],[-91.43,40.94],[-91.42,40.95],[-91.39,40.98],[-91.37,41],[-91.29,41.1],[-91.27,41.12],[-91.26,41.14],[-91.25,41.16],[-91.21,41.28],[-91.2,41.3],[-91.2,41.33],[-91.2,41.35],[-91.2,41.38],[-91.2,41.41],[-91.21,41.43],[-91.22,41.45],[-91.22,41.47],[-91.23,41.49],[-91.26,41.52],[-91.31,41.61],[-91.32,41.62],[-91.33,41.64],[-91.37,41.69],[-91.54,41.88],[-91.55,41.89],[-91.57,41.91],[-91.76,42.07],[-91.78,42.08],[-91.81,42.11],[-91.82,42.12],[-92.06,42.24],[-92.15,42.29],[-92.18,42.29],[-92.21,42.3],[-92.46,42.35],[-92.49,42.36],[-92.52,42.36],[-92.55,42.36],[-92.59,42.36],[-92.69,42.36],[-93.11,42.36],[-93.18,42.36],[-93.25,42.36],[-93.32,42.36],[-93.35,42.36],[-93.38,42.35],[-93.41,42.35],[-93.99,42.24],[-94.02,42.24],[-94.05,42.23],[-94.19,42.19],[-94.22,42.18],[-94.47,42.07],[-94.49,42.06],[-94.51,42.05],[-94.66,41.96],[-94.82,41.85],[-94.84,41.83],[-94.89,41.8],[-94.94,41.74],[-95,41.69],[-95.01,41.67],[-95.03,41.64],[-95.05,41.62],[-95.2,41.39],[-95.21,41.37],[-95.22,41.34],[-95.23,41.31],[-95.23,41.28],[-95.23,41.26]]]}},{"type":"Feature","id":"geom_evt_20240707_gulf_coast_2024_07_07_rain_d1_hover","properties":{"event_id":"evt_20240707_gulf_coast_2024_07_07_rain","day_index":1,"geometry_role":"hover_geometry"},"geometry":{"type":"Polygon","coordinates":[[[-96.95,28.54],[-96.95,28.51],[-96.94,28.48],[-96.94,28.44],[-96.94,28.41],[-96.93,28.38],[-96.89,28.27],[-96.88,28.25],[-96.86,28.22],[-96.85,28.21],[-96.78,28.15],[-96.77,28.14],[-96.76,28.13],[-96.75,28.12],[-96.73,28.12],[-96.72,28.13],[-96.69,28.14],[-96.67,28.14],[-96.65,28.15],[-96.63,28.16],[-95.53,28.78],[-95.25,28.94],[-95.18,28.98],[-95.16,28.99],[-94.89,29.22],[-94.88,29.23],[-94.86,29.25],[-94.86,29.27],[-94.85,29.3],[-94.85,29.33],[-94.84,29.36],[-94.84,29.66],[-94.84,29.67],[-94.84,29.68],[-94.85,29.69],[-94.85,29.69],[-94.85,29.69],[-94.99,29.8],[-95.01,29.82],[-95.03,29.83],[-95.06,29.84],[-95.09,29.85],[-95.12,29.86],[-95.36,29.89],[-95.38,29.9],[-95.4,29.9],[-95.42,29.9],[-95.44,29.89],[-95.55,29.86],[-95.57,29.85],[-95.6,29.84],[-95.69,29.8],[-95.71,29.79],[-95.82,29.73],[-95.93,29.68],[-96.02,29.63],[-96.04,29.62],[-96.42,29.39],[-96.44,29.38],[-96.47,29.36],[-96.49,29.35],[-96.63,29.24],[-96.64,29.23],[-96.66,29.21],[-96.77,29.07],[-96.78,29.06],[-96.8,29.02],[-96.81,29.01],[-96.82,28.98],[-96.89,28.83],[-96.93,28.73],[-96.93,28.7],[-96.94,28.67],[-96.94,28.64],[-96.95,28.61],[-96.95,28.58],[-96.95,28.54]]]}},{"type":"Feature","id":"geom_evt_20240708_gulf_coast_2024_07_08_rain_d1_hover","properties":{"event_id":"evt_20240707_gulf_coast_2024_07_07_rain","day_index":2,"geometry_role":"hover_geometry"},"geometry":{"type":"Polygon","coordinates":[[[-96.22,30.84],[-96.22,30.81],[-96.21,30.79],[-96.21,30.76],[-96.17,30.65],[-96.16,30.62],[-96.15,30.6],[-96.11,30.5],[-96.1,30.49],[-96.09,30.47],[-96.06,30.44],[-96.05,30.43],[-96.04,30.41],[-96.01,30.38],[-95.99,30.37],[-95.98,30.36],[-95.94,30.34],[-95.93,30.33],[-94.55,29.65],[-94.53,29.65],[-94.45,29.61],[-94.42,29.6],[-94.38,29.59],[-94.34,29.59],[-94.3,29.59],[-94.27,29.58],[-94.23,29.58],[-94.18,29.58],[-93.98,29.71],[-93.96,29.72],[-93.93,29.75],[-93.91,29.76],[-93.87,29.8],[-93.86,29.82],[-93.85,29.83],[-93.82,29.87],[-93.81,29.88],[-93.81,29.91],[-93.8,29.94],[-93.79,29.97],[-93.25,34.03],[-93.25,34.05],[-93.25,34.08],[-93.25,34.1],[-93.25,34.13],[-93.26,34.15],[-93.27,34.17],[-93.3,34.25],[-93.31,34.27],[-93.36,34.36],[-93.37,34.38],[-93.38,34.39],[-93.42,34.44],[-93.47,34.5],[-93.53,34.55],[-93.57,34.59],[-93.59,34.6],[-93.61,34.61],[-93.63,34.62],[-93.68,34.65],[-93.7,34.65],[-93.73,34.66],[-93.76,34.67],[-93.79,34.67],[-93.82,34.67],[-93.85,34.67],[-93.88,34.67],[-93.91,34.67],[-93.94,34.67],[-93.96,34.66],[-93.99,34.65],[-94.09,34.61],[-94.11,34.6],[-94.2,34.55],[-94.22,34.54],[-94.55,34.32],[-94.71,34.21],[-94.73,34.2],[-94.77,34.16],[-94.83,34.11],[-94.89,34.05],[-94.94,34],[-95,33.94],[-95.01,33.92],[-95.04,33.88],[-95.21,33.66],[-95.32,33.49],[-95.33,33.47],[-95.61,32.97],[-95.65,32.88],[-95.76,32.66],[-95.77,32.63],[-95.87,32.38],[-95.99,32.11],[-95.99,32.08],[-96.04,31.94],[-96.05,31.92],[-96.1,31.7],[-96.11,31.67],[-96.15,31.5],[-96.15,31.49],[-96.22,30.9],[-96.22,30.87],[-96.22,30.84]]]}},{"type":"Feature","id":"geom_evt_20240724_gulf_coast_2024_07_24_rain_d1_hover","properties":{"event_id":"evt_20240724_gulf_coast_2024_07_24_rain","day_index":1,"geometry_role":"hover_geometry"},"geometry":{"type":"Polygon","coordinates":[[[-95.06,29.23],[-95.06,29.21],[-95.06,29.19],[-95.05,29.18],[-95.04,29.17],[-95.03,29.16],[-95.02,29.15],[-95.01,29.15],[-94.99,29.15],[-94.98,29.16],[-92.92,29.71],[-92.9,29.72],[-92.88,29.73],[-92.87,29.74],[-92.86,29.75],[-92.84,29.77],[-92.82,29.8],[-92.81,29.82],[-92.8,29.85],[-92.79,29.87],[-92.76,29.99],[-92.75,30.01],[-92.75,30.04],[-92.75,30.07],[-92.75,30.09],[-92.76,30.12],[-92.8,30.23],[-92.81,30.25],[-92.82,30.27],[-92.84,30.29],[-92.85,30.3],[-92.91,30.35],[-92.93,30.36],[-92.97,30.38],[-92.98,30.39],[-93.01,30.4],[-93.04,30.41],[-93.07,30.41],[-93.52,30.47],[-93.54,30.47],[-93.56,30.47],[-93.59,30.47],[-93.62,30.46],[-93.65,30.46],[-93.69,30.45],[-93.72,30.44],[-93.83,30.41],[-93.86,30.4],[-93.88,30.39],[-94.27,30.17],[-94.28,30.16],[-94.32,30.13],[-94.33,30.12],[-94.57,29.94],[-94.6,29.91],[-94.61,29.9],[-94.65,29.86],[-94.67,29.84],[-94.68,29.83],[-94.7,29.79],[-95.04,29.3],[-95.05,29.28],[-95.06,29.27],[-95.06,29.25],[-95.06,29.23]]]}},{"type":"Feature","id":"geom_evt_20240725_gulf_coast_2024_07_25_rain_d1_hover","properties":{"event_id":"evt_20240724_gulf_coast_2024_07_24_rain","day_index":2,"geometry_role":"hover_geometry"},"geometry":{"type":"Polygon","coordinates":[[[-97.28,27.64],[-97.28,27.62],[-97.28,27.61],[-97.27,27.6],[-97.27,27.6],[-97.27,27.6],[-97.26,27.59],[-97.25,27.59],[-97.22,27.59],[-93.3,29.77],[-93.28,29.79],[-93.26,29.81],[-93.25,29.83],[-93.03,30.66],[-93.03,30.69],[-93.02,30.72],[-93.02,30.75],[-93.02,30.78],[-93.02,30.8],[-93.03,30.83],[-93.04,30.86],[-93.05,30.88],[-93.08,30.89],[-93.1,30.9],[-93.13,30.91],[-93.16,30.91],[-93.19,30.92],[-93.23,30.92],[-93.26,30.92],[-93.3,30.92],[-93.33,30.92],[-93.37,30.91],[-93.4,30.91],[-93.43,30.91],[-93.46,30.9],[-93.49,30.89],[-93.51,30.88],[-96.32,29.12],[-96.33,29.11],[-96.38,29.07],[-96.57,28.91],[-96.59,28.89],[-96.6,28.88],[-96.81,28.62],[-96.82,28.6],[-96.93,28.46],[-97.03,28.31],[-97.04,28.29],[-97.19,28],[-97.2,27.98],[-97.21,27.96],[-97.28,27.69],[-97.28,27.68],[-97.28,27.66],[-97.28,27.64]]]}},{"type":"Feature","id":"geom_evt_20240710_great_lakes_2024_07_10_rain_d1_hover","properties":{"event_id":"evt_20240710_great_lakes_2024_07_10_rain","day_index":1,"geometry_role":"hover_geometry"},"geometry":{"type":"Polygon","coordinates":[[[-76.19,43.98],[-76.19,43.96],[-76.18,43.93],[-76.17,43.91],[-76.14,43.84],[-76.13,43.82],[-76.08,43.73],[-76.07,43.71],[-76.06,43.7],[-76.03,43.67],[-76.02,43.65],[-76.01,43.64],[-75.98,43.61],[-75.96,43.6],[-75.94,43.59],[-75.85,43.54],[-75.41,43.32],[-75.39,43.31],[-75.29,43.27],[-75.27,43.26],[-75.24,43.26],[-75.2,43.25],[-74.67,43.19],[-74.66,43.19],[-74.65,43.19],[-74.07,43.28],[-73.22,43.45],[-72.54,43.65],[-71.52,43.99],[-71.38,44.04],[-71.19,44.11],[-71.18,44.11],[-71.17,44.12],[-71.15,44.13],[-71.14,44.15],[-71.13,44.16],[-71.12,44.18],[-71.11,44.2],[-71.08,44.32],[-71.07,44.34],[-71.07,44.37],[-71.07,44.39],[-71.07,44.58],[-71.07,44.6],[-71.08,44.62],[-71.11,44.8],[-71.12,44.83],[-71.13,44.85],[-71.14,44.88],[-71.15,44.89],[-71.17,44.9],[-71.22,44.94],[-71.24,44.95],[-71.25,44.96],[-71.33,44.99],[-71.35,45],[-71.38,45.01],[-71.41,45.01],[-71.44,45.02],[-71.82,45.06],[-71.84,45.06],[-72.24,45.07],[-72.99,45.07],[-74.18,45.07],[-74.47,45.06],[-74.5,45.06],[-74.53,45.06],[-74.55,45.06],[-74.8,45.01],[-74.82,45.01],[-74.85,45],[-75.02,44.95],[-75.05,44.95],[-75.07,44.94],[-75.43,44.78],[-75.46,44.77],[-75.47,44.76],[-75.85,44.5],[-75.86,44.49],[-75.89,44.46],[-75.9,44.45],[-75.92,44.44],[-76.11,44.18],[-76.13,44.17],[-76.14,44.15],[-76.15,44.13],[-76.17,44.08],[-76.18,44.06],[-76.18,44.03],[-76.19,44.01],[-76.19,43.98]]]}},{"type":"Feature","id":"geom_evt_20240715_mid_atlantic_2024_07_15_rain_d1_hover","properties":{"event_id":"evt_20240715_mid_atlantic_2024_07_15_rain","day_index":1,"geometry_role":"hover_geometry"},"geometry":{"type":"Polygon","coordinates":[[[-89.41,42.02],[-89.41,41.99],[-89.41,41.97],[-89.4,41.94],[-89.39,41.93],[-89.37,41.89],[-89.36,41.88],[-89.31,41.79],[-89.3,41.77],[-89.28,41.76],[-89.27,41.74],[-89.26,41.73],[-89.24,41.71],[-89.23,41.7],[-89.21,41.69],[-89.2,41.68],[-89.18,41.67],[-89.16,41.66],[-89.13,41.65],[-89.02,41.61],[-88.99,41.6],[-88.71,41.55],[-88.43,41.49],[-88.4,41.49],[-88.02,41.43],[-87.99,41.43],[-87.95,41.43],[-87.89,41.42],[-87.8,41.42],[-87.71,41.42],[-87.54,41.42],[-87.22,41.49],[-87.2,41.49],[-87.17,41.51],[-87.16,41.52],[-87.15,41.53],[-87.14,41.54],[-87.13,41.55],[-87.13,41.56],[-87.13,41.57],[-87.14,41.58],[-87.81,42.4],[-87.82,42.41],[-87.83,42.42],[-87.84,42.43],[-87.88,42.45],[-87.89,42.45],[-87.92,42.46],[-87.95,42.47],[-87.98,42.47],[-88.02,42.47],[-88.05,42.48],[-88.09,42.48],[-88.16,42.48],[-89.03,42.48],[-89.1,42.48],[-89.13,42.48],[-89.17,42.47],[-89.2,42.47],[-89.23,42.47],[-89.26,42.46],[-89.29,42.45],[-89.3,42.44],[-89.32,42.42],[-89.33,42.41],[-89.35,42.39],[-89.36,42.37],[-89.37,42.35],[-89.4,42.24],[-89.41,42.22],[-89.41,42.2],[-89.41,42.18],[-89.41,42.04],[-89.41,42.02]]]}},{"type":"Feature","id":"geom_evt_2024_al03_chris_d1_hover","properties":{"event_id":"evt_2024_al03_chris","day_index":1,"geometry_role":"hover_geometry"},"geometry":{"type":"Polygon","coordinates":[[[-98.5,19.8],[-98.3,19.16],[-97.75,18.7],[-97,18.53],[-96.25,18.7],[-95.7,19.16],[-95.5,19.8],[-95.7,20.44],[-96.25,20.9],[-97,21.08],[-97.75,20.9],[-98.3,20.44],[-98.5,19.8]]]}},{"type":"Feature","id":"geom_evt_20240713_northern_plains_2024_07_13_severe_d1_hover","properties":{"event_id":"evt_20240713_northern_plains_2024_07_13_severe","day_index":1,"geometry_role":"hover_geometry"},"geometry":{"type":"Polygon","coordinates":[[[-106.81,47.97],[-106.41,47.01],[-103.59,45.56],[-102,45.13],[-100.32,45.2],[-100.04,45.76],[-101.22,46.48],[-105.59,48.27],[-106.81,47.97]]]}},{"type":"Feature","id":"geom_evt_20240702_upper_midwest_2024_07_02_severe_d1_hover","properties":{"event_id":"evt_20240702_upper_midwest_2024_07_02_severe","day_index":1,"geometry_role":"hover_geometry"},"geometry":{"type":"Polygon","coordinates":[[[-96.74,39.43],[-96.05,39.11],[-94.66,39.17],[-92.12,39.58],[-91.59,39.92],[-91.34,40.43],[-91.05,41.26],[-91.42,42.06],[-91.88,42.16],[-92.71,42.12],[-93.65,41.9],[-95.44,40.73],[-96.35,39.93],[-96.74,39.43]]]}},{"type":"Feature","id":"geom_evt_20240703_upper_midwest_2024_07_03_severe_d1_hover","properties":{"event_id":"evt_20240702_upper_midwest_2024_07_02_severe","day_index":2,"geometry_role":"hover_geometry"},"geometry":{"type":"Polygon","coordinates":[[[-106.64,44.3],[-103.62,38.71],[-101.76,38.29],[-93.73,36.55],[-89.9,36.68],[-83.07,38.82],[-82.36,39.71],[-82.7,40.45],[-83.08,40.63],[-104.02,44.99],[-105.95,45.02],[-106.62,44.73],[-106.64,44.3]]]}},{"type":"Feature","id":"geom_evt_20240731_upper_midwest_2024_07_31_severe_d1_hover","properties":{"event_id":"evt_20240731_upper_midwest_2024_07_31_severe","day_index":1,"geometry_role":"hover_geometry"},"geometry":{"type":"Polygon","coordinates":[[[-99.44,44.58],[-98.27,40.19],[-97.63,40.03],[-96.48,40.12],[-92.45,40.7],[-91.8,41.03],[-91.88,41.64],[-93.17,43.32],[-94.03,44.3],[-95.18,45.38],[-96.5,45.79],[-98.18,45.76],[-99.14,45.1],[-99.44,44.58]]]}},{"type":"Feature","id":"geom_evt_20240706_southern_plains_2024_07_06_severe_d1_hover","properties":{"event_id":"evt_20240706_southern_plains_2024_07_06_severe","day_index":1,"geometry_role":"hover_geometry"},"geometry":{"type":"Polygon","coordinates":[[[-102.52,38.05],[-102.5,36.97],[-102.23,36.64],[-101.35,36.59],[-100.7,36.78],[-99.7,37.33],[-95.96,40.06],[-95.74,40.65],[-96.11,41.82],[-96.63,42.41],[-97.29,42.64],[-98.33,42.57],[-99.82,41.97],[-101.32,41.04],[-102,40.23],[-102.34,39.33],[-102.52,38.05]]]}},{"type":"Feature","id":"geom_evt_20240707_southern_plains_2024_07_07_severe_d1_hover","properties":{"event_id":"evt_20240706_southern_plains_2024_07_06_severe","day_index":2,"geometry_role":"hover_geometry"},"geometry":{"type":"Polygon","coordinates":[[[-104.77,37.86],[-104.48,36.54],[-96.42,27.94],[-92.88,29.32],[-93.22,29.94],[-96.19,35.09],[-103.98,40.14],[-104.5,39.84],[-104.77,37.86]]]}},{"type":"Feature","id":"geom_evt_20240708_southern_plains_2024_07_08_severe_d1_hover","properties":{"event_id":"evt_20240706_southern_plains_2024_07_06_severe","day_index":3,"geometry_role":"hover_geometry"},"geometry":{"type":"Polygon","coordinates":[[[-94.63,31.45],[-94.5,31.13],[-94.21,31.03],[-93.81,31.02],[-93.49,31.27],[-93.11,31.78],[-92.88,32.34],[-92.73,32.85],[-92.83,33.32],[-93.53,33.46],[-93.96,33.38],[-94.18,33.05],[-94.56,31.98],[-94.63,31.45]]]}},{"type":"Feature","id":"geom_evt_20240730_southern_plains_2024_07_30_severe_d1_hover","properties":{"event_id":"evt_20240730_southern_plains_2024_07_30_severe","day_index":1,"geometry_role":"hover_geometry"},"geometry":{"type":"Polygon","coordinates":[[[-98.18,42.15],[-98.14,41.69],[-90.09,37.74],[-89.28,37.42],[-88.7,37.43],[-88.37,37.54],[-88.1,37.89],[-88.58,38.84],[-89.18,39.37],[-90.07,40.08],[-91.77,41.27],[-95.95,42.66],[-97.38,42.64],[-98.18,42.15]]]}},{"type":"Feature","id":"geom_evt_20240709_mid_atlantic_2024_07_09_severe_d1_hover","properties":{"event_id":"evt_20240709_mid_atlantic_2024_07_09_severe","day_index":1,"geometry_role":"hover_geometry"},"geometry":{"type":"Polygon","coordinates":[[[-88.09,37.86],[-87.99,37.47],[-87.44,37.01],[-86.7,37.03],[-85.17,37.79],[-84.54,38.36],[-84.43,38.8],[-84.89,39.14],[-85.54,39.21],[-86.17,39.11],[-87.87,38.26],[-88.09,37.86]]]}},{"type":"Feature","id":"geom_evt_20240715_mid_atlantic_2024_07_15_severe_d1_hover","properties":{"event_id":"evt_20240715_mid_atlantic_2024_07_15_severe","day_index":1,"geometry_role":"hover_geometry"},"geometry":{"type":"Polygon","coordinates":[[[-93.25,41.55],[-92.92,40.98],[-92.15,40.68],[-88.47,40.18],[-86.84,40.17],[-85.96,40.37],[-84.35,41.48],[-84.36,42.07],[-84.59,42.56],[-85.19,42.79],[-87.83,43.03],[-91.89,42.68],[-92.83,42.28],[-93.25,41.55]]]}},{"type":"Feature","id":"geom_evt_20240710_great_lakes_2024_07_10_severe_d1_hover","properties":{"event_id":"evt_20240710_great_lakes_2024_07_10_severe","day_index":1,"geometry_role":"hover_geometry"},"geometry":{"type":"Polygon","coordinates":[[[-78.16,42.49],[-77.94,42.32],[-77.29,42.28],[-75.35,42.42],[-74.77,42.55],[-74.31,42.86],[-73.76,43.45],[-74,44.2],[-75.28,44.02],[-77.67,43.11],[-78.13,42.72],[-78.16,42.49]]]}},{"type":"Feature","id":"geom_evt_20240716_great_lakes_2024_07_16_severe_d1_hover","properties":{"event_id":"evt_20240716_great_lakes_2024_07_16_severe","day_index":1,"geometry_role":"hover_geometry"},"geometry":{"type":"Polygon","coordinates":[[[-77.17,42.72],[-76.45,42.48],[-73.98,42.44],[-72.61,42.83],[-72.42,43.64],[-73.25,44.22],[-74.69,44.18],[-75.99,43.84],[-77.06,43.28],[-77.17,42.72]]]}},{"type":"Feature","id":"geom_evt_20240717_great_lakes_2024_07_17_severe_d1_hover","properties":{"event_id":"evt_20240716_great_lakes_2024_07_16_severe","day_index":2,"geometry_role":"hover_geometry"},"geometry":{"type":"Polygon","coordinates":[[[-103.76,40.4],[-103.09,38.87],[-102.71,38.29],[-76.22,37.05],[-75.44,37.2],[-70.23,42.43],[-70.04,43.02],[-69.82,43.69],[-71.99,43.61],[-102.66,41.14],[-103.55,40.99],[-103.76,40.4]]]}},{"type":"Feature","id":"geom_evt_20240719_central_plains_2024_07_19_severe_d1_hover","properties":{"event_id":"evt_20240719_central_plains_2024_07_19_severe","day_index":1,"geometry_role":"hover_geometry"},"geometry":{"type":"Polygon","coordinates":[[[-102.27,39.24],[-101.8,37.53],[-101.56,37.04],[-100.96,37.03],[-100.14,37.18],[-99.27,38.13],[-98.43,40.6],[-98.84,40.89],[-100.67,41.13],[-101.97,41.01],[-102.2,39.99],[-102.27,39.24]]]}},{"type":"Feature","id":"geom_evt_20240701_northern_plains_2024_07_01_severe_d1_hover","properties":{"event_id":"evt_20240701_northern_plains_2024_07_01_severe","day_index":1,"geometry_role":"hover_geometry"},"geometry":{"type":"Polygon","coordinates":[[[-106.32,44.06],[-106.09,43.68],[-101.99,39.86],[-100.86,39.82],[-97.66,40.03],[-96.26,40.38],[-95.52,40.7],[-95.12,41.16],[-95.02,41.67],[-95.17,42.66],[-97.81,46.62],[-98.39,47.47],[-99.64,47.85],[-100.7,47.9],[-101.77,47.7],[-105.84,44.72],[-106.32,44.06]]]}},{"type":"Feature","id":"geom_evt_20240714_upper_midwest_2024_07_14_severe_d1_hover","properties":{"event_id":"evt_20240714_upper_midwest_2024_07_14_severe","day_index":1,"geometry_role":"hover_geometry"},"geometry":{"type":"Polygon","coordinates":[[[-109.1,49],[-91.58,41.41],[-86.63,39.37],[-84.51,38.89],[-83.05,38.8],[-82.22,39.21],[-81.89,39.94],[-82.49,40.82],[-95.96,49],[-99.69,49],[-105.6,49.01],[-109.1,49]]]}},{"type":"Feature","id":"geom_evt_20240727_upper_midwest_2024_07_27_severe_d1_hover","properties":{"event_id":"evt_20240727_upper_midwest_2024_07_27_severe","day_index":1,"geometry_role":"hover_geometry"},"geometry":{"type":"Polygon","coordinates":[[[-101.47,46.8],[-101.01,46.46],[-99.99,46.27],[-96.96,45.99],[-95.31,46.34],[-93.57,47.46],[-92.25,48.43],[-94.88,49.36],[-95.19,49.34],[-99.9,49],[-100.63,48.33],[-101.33,47.42],[-101.47,46.8]]]}},{"type":"Feature","id":"geom_evt_20240728_upper_midwest_2024_07_28_severe_d1_hover","properties":{"event_id":"evt_20240727_upper_midwest_2024_07_27_severe","day_index":2,"geometry_role":"hover_geometry"},"geometry":{"type":"Polygon","coordinates":[[[-103.74,44.4],[-101.58,38.89],[-100.88,38.33],[-99.03,38.81],[-94,40.57],[-93.54,40.78],[-94.02,46.04],[-94.08,46.56],[-94.85,46.79],[-102.04,45.36],[-103.48,45.02],[-103.74,44.4]]]}},{"type":"Feature","id":"geom_evt_20240729_upper_midwest_2024_07_29_severe_d1_hover","properties":{"event_id":"evt_20240727_upper_midwest_2024_07_27_severe","day_index":3,"geometry_role":"hover_geometry"},"geometry":{"type":"Polygon","coordinates":[[[-103.36,45.09],[-101.65,42.37],[-100.87,41.57],[-86.49,36.83],[-85.26,36.68],[-84.18,36.79],[-83.75,37.68],[-83.93,38.51],[-84.37,39.08],[-85.48,39.79],[-97.63,47],[-98.94,47.7],[-101.26,47.97],[-102.17,47.7],[-102.99,46.86],[-103.32,45.9],[-103.36,45.09]]]}},{"type":"Feature","id":"geom_evt_20240704_southern_plains_2024_07_04_severe_d1_hover","properties":{"event_id":"evt_20240704_southern_plains_2024_07_04_severe","day_index":1,"geometry_role":"hover_geometry"},"geometry":{"type":"Polygon","coordinates":[[[-99.89,34.41],[-98.47,34.06],[-97.29,34.07],[-83.44,37.51],[-82.54,37.82],[-82.29,38.23],[-82.23,38.98],[-82.93,39.47],[-89.9,44.15],[-91.05,44.77],[-93.73,44.66],[-95.06,44],[-99.76,35.06],[-99.89,34.41]]]}},{"type":"Feature","id":"geom_evt_20240724_southern_plains_2024_07_24_severe_d1_hover","properties":{"event_id":"evt_20240724_southern_plains_2024_07_24_severe","day_index":1,"geometry_role":"hover_geometry"},"geometry":{"type":"Polygon","coordinates":[[[-113.1,33.07],[-113.02,31.92],[-111.1,31.32],[-110.79,31.32],[-76.03,42.06],[-74.6,42.56],[-74.27,43.31],[-74.52,43.85],[-75.21,43.92],[-112.36,33.74],[-112.86,33.58],[-113.1,33.07]]]}},{"type":"Feature","id":"geom_evt_20240705_mid_atlantic_2024_07_05_severe_d1_hover","properties":{"event_id":"evt_20240705_mid_atlantic_2024_07_05_severe","day_index":1,"geometry_role":"hover_geometry"},"geometry":{"type":"Polygon","coordinates":[[[-83.83,37.03],[-83.19,36.4],[-82.3,36.15],[-80.93,36.35],[-79.99,37.47],[-79.73,38.47],[-80.12,39.19],[-80.87,39.49],[-82.87,39],[-83.65,38.17],[-83.83,37.03]]]}},{"type":"Feature","id":"geom_evt_20240711_southwest_2024_07_11_severe_d1_hover","properties":{"event_id":"evt_20240711_southwest_2024_07_11_severe","day_index":1,"geometry_role":"hover_geometry"},"geometry":{"type":"Polygon","coordinates":[[[-112.52,31.77],[-111.1,31.32],[-110.73,31.32],[-110.08,31.33],[-109.42,32.07],[-109.35,32.55],[-109.63,32.84],[-111.26,33.36],[-111.59,33.17],[-112.08,32.68],[-112.37,32.21],[-112.52,31.77]]]}},{"type":"Feature","id":"geom_evt_20240718_southeast_2024_07_18_severe_d1_hover","properties":{"event_id":"evt_20240718_southeast_2024_07_18_severe","day_index":1,"geometry_role":"hover_geometry"},"geometry":{"type":"Polygon","coordinates":[[[-79.93,36.09],[-79.43,35.24],[-79.11,34.93],[-78.62,34.72],[-77.74,34.6],[-76.97,34.6],[-75.76,34.83],[-75.43,34.93],[-75.28,34.98],[-75.17,35.24],[-75.12,35.65],[-75.64,36.89],[-76.66,37],[-79.33,36.58],[-79.93,36.09]]]}},{"type":"Feature","id":"geom_evt_20240725_northern_rockies_2024_07_25_severe_d1_hover","properties":{"event_id":"evt_20240725_northern_rockies_2024_07_25_severe","day_index":1,"geometry_role":"hover_geometry"},"geometry":{"type":"Polygon","coordinates":[[[-110.68,46.87],[-108.53,46.64],[-107.25,47.02],[-106.38,47.57],[-105.85,48.32],[-105.49,49.01],[-105.6,49.01],[-108.41,48.99],[-110.67,47.4],[-110.68,46.87]]]}}]}