{"type":"FeatureCollection","features":[{"type":"Feature","id":"geom_evt_2024_al18_rafael_d1_hover","properties":{"event_id":"evt_2024_al18_rafael","day_index":1,"geometry_role":"hover_geometry"},"geometry":{"type":"Polygon","coordinates":[[[-78.5,12.7],[-78.3,12.06],[-77.75,11.6],[-77,11.43],[-76.25,11.6],[-75.7,12.06],[-75.5,12.7],[-75.7,13.34],[-76.25,13.8],[-77,13.98],[-77.75,13.8],[-78.3,13.34],[-78.5,12.7]]]}},{"type":"Feature","id":"geom_evt_2024_al18_rafael_d2_hover","properties":{"event_id":"evt_2024_al18_rafael","day_index":2,"geometry_role":"hover_geometry"},"geometry":{"type":"Polygon","coordinates":[[[-78.6,15.1],[-78.31,14.17],[-77.5,13.48],[-76.4,13.23],[-75.3,13.48],[-74.49,14.17],[-74.2,15.1],[-74.49,16.04],[-75.3,16.72],[-76.4,16.97],[-77.5,16.72],[-78.31,16.04],[-78.6,15.1]]]}},{"type":"Feature","id":"geom_evt_2024_al18_rafael_d3_hover","properties":{"event_id":"evt_2024_al18_rafael","day_index":3,"geometry_role":"hover_geometry"},"geometry":{"type":"Polygon","coordinates":[[[-81.3,18.5],[-81.01,17.57],[-80.2,16.88],[-79.1,16.63],[-78,16.88],[-77.19,17.56],[-76.9,18.5],[-77.19,19.43],[-78,20.12],[-79.1,20.37],[-80.2,20.12],[-81.01,19.43],[-81.3,18.5]]]}},{"type":"Feature","id":"geom_evt_2024_al18_rafael_d4_hover","properties":{"event_id":"evt_2024_al18_rafael","day_index":4,"geometry_role":"hover_geometry"},"geometry":{"type":"Polygon","coordinates":[[[-85.7,22.7],[-85.3,21.43],[-84.2,20.49],[-82.7,20.15],[-81.2,20.49],[-80.1,21.42],[-79.7,22.7],[-80.1,23.98],[-81.2,24.91],[-82.7,25.25],[-84.2,24.91],[-85.3,23.98],[-85.7,22.7]]]}},{"type":"Feature","id":"geom_evt_2024_al18_rafael_d5_hover","properties":{"event_id":"evt_2024_al18_rafael","day_index":5,"geometry_role":"hover_geometry"},"geometry":{"type":"Polygon","coordinates":[[[-88.7,24.6],[-88.3,23.33],[-87.2,22.39],[-85.7,22.05],[-84.2,22.39],[-83.1,23.33],[-82.7,24.6],[-83.1,25.88],[-84.2,26.81],[-85.7,27.15],[-87.2,26.81],[-88.3,25.88],[-88.7,24.6]]]}},{"type":"Feature","id":"geom_evt_2024_al18_rafael_d6_hover","properties":{"event_id":"evt_2024_al18_rafael","day_index":6,"geometry_role":"hover_geometry"},"geometry":{"type":"Polygon","coordinates":[[[-92.1,24.6],[-91.7,23.33],[-90.6,22.39],[-89.1,22.05],[-87.6,22.39],[-86.5,23.33],[-86.1,24.6],[-86.5,25.88],[-87.6,26.81],[-89.1,27.15],[-90.6,26.81],[-91.7,25.88],[-92.1,24.6]]]}},{"type":"Feature","id":"geom_evt_2024_al18_rafael_d7_hover","properties":{"event_id":"evt_2024_al18_rafael","day_index":7,"geometry_role":"hover_geometry"},"geometry":{"type":"Polygon","coordinates":[[[-93.7,25.3],[-93.41,24.37],[-92.6,23.68],[-91.5,23.43],[-90.4,23.68],[-89.59,24.37],[-89.3,25.3],[-89.59,26.24],[-90.4,26.92],[-91.5,27.17],[-92.6,26.92],[-93.41,26.24],[-93.7,25.3]]]}},{"type":"Feature","id":"geom_evt_2024_al18_rafael_d8_hover","properties":{"event_id":"evt_2024_al18_rafael","day_index":8,"geometry_role":"hover_geometry"},"geometry":{"type":"Polygon","coordinates":[[[-94.1,26.1],[-93.81,25.17],[-93,24.48],[-91.9,24.23],[-90.8,24.48],[-89.99,25.17],[-89.7,26.1],[-89.99,27.04],[-90.8,27.72],[-91.9,27.97],[-93,27.72],[-93.81,27.04],[-94.1,26.1]]]}},{"type":"Feature","id":"geom_evt_20241109_gulf_coast_2024_11_09_rain_d1_hover","properties":{"event_id":"evt_20241109_gulf_coast_2024_11_09_rain","day_index":1,"geometry_role":"hover_geometry"},"geometry":{"type":"Polygon","coordinates":[[[-94.52,29.88],[-94.52,29.85],[-94.52,29.81],[-94.51,29.78],[-94.51,29.75],[-94.51,29.72],[-94.5,29.69],[-94.49,29.66],[-94.48,29.65],[-94.46,29.63],[-94.45,29.62],[-94.43,29.61],[-94.41,29.6],[-94.38,29.59],[-94.35,29.59],[-94.32,29.59],[-94.29,29.59],[-92.55,29.7],[-92.52,29.7],[-92.49,29.7],[-92.46,29.71],[-92.43,29.71],[-92.29,29.76],[-92.26,29.77],[-92.12,29.82],[-92.1,29.83],[-92.08,29.84],[-92.05,29.86],[-92.04,29.87],[-92.02,29.89],[-91.98,29.93],[-91.92,29.98],[-91.87,30.04],[-91.83,30.09],[-91.82,30.1],[-91.6,30.43],[-91.59,30.45],[-91.54,30.54],[-91.53,30.56],[-91.49,30.66],[-91.48,30.68],[-91.48,30.71],[-91.47,30.74],[-91.47,30.77],[-91.47,30.8],[-91.47,30.83],[-91.47,30.86],[-91.48,30.89],[-91.48,30.92],[-91.49,30.94],[-91.53,31.04],[-91.54,31.06],[-91.59,31.15],[-91.6,31.17],[-91.64,31.24],[-91.65,31.26],[-91.93,31.67],[-91.98,31.73],[-92.03,31.79],[-92.04,31.81],[-92.05,31.82],[-92.07,31.84],[-92.35,32.02],[-92.36,32.02],[-92.38,32.02],[-92.4,32.02],[-92.43,32.01],[-92.46,32.01],[-92.62,31.96],[-92.65,31.96],[-92.67,31.95],[-92.74,31.91],[-92.76,31.9],[-92.78,31.89],[-94.12,30.71],[-94.14,30.68],[-94.16,30.67],[-94.33,30.46],[-94.37,30.41],[-94.38,30.39],[-94.39,30.38],[-94.44,30.28],[-94.45,30.26],[-94.49,30.12],[-94.5,30.09],[-94.51,30.06],[-94.51,30.02],[-94.51,29.99],[-94.52,29.95],[-94.52,29.88]]]}},{"type":"Feature","id":"geom_evt_20241120_northern_california_2024_11_20_rain_d1_hover","properties":{"event_id":"evt_20241120_northern_california_2024_11_20_rain","day_index":1,"geometry_role":"hover_geometry"},"geometry":{"type":"Polygon","coordinates":[[[-124.25,40.17],[-124.25,40.16],[-124.25,40.14],[-123.75,38.9],[-123.74,38.88],[-123.73,38.87],[-123.72,38.85],[-123.71,38.84],[-123.69,38.82],[-123.67,38.8],[-123.65,38.78],[-123.64,38.77],[-123.36,38.55],[-123.33,38.52],[-123.31,38.51],[-123.29,38.5],[-123.27,38.49],[-123.15,38.45],[-123.12,38.45],[-122.78,38.38],[-122.52,38.49],[-122.49,38.5],[-122.47,38.52],[-122.46,38.53],[-122.45,38.55],[-122.44,38.57],[-122.42,38.6],[-122.41,38.62],[-122.4,38.65],[-122.4,38.68],[-122.4,38.71],[-122.39,38.74],[-122.39,38.77],[-122.39,38.8],[-122.4,38.83],[-122.4,38.86],[-122.66,40.56],[-122.67,40.57],[-122.68,40.58],[-122.7,40.58],[-122.72,40.59],[-122.98,40.63],[-123.5,40.69],[-123.69,40.7],[-123.71,40.7],[-123.74,40.69],[-123.76,40.69],[-123.79,40.69],[-123.81,40.68],[-123.82,40.67],[-123.84,40.66],[-123.86,40.65],[-123.87,40.64],[-123.93,40.58],[-123.99,40.53],[-124.04,40.47],[-124.1,40.41],[-124.15,40.36],[-124.19,40.31],[-124.2,40.29],[-124.21,40.28],[-124.22,40.26],[-124.24,40.21],[-124.25,40.19],[-124.25,40.17]]]}},{"type":"Feature","id":"geom_evt_20241121_northern_california_2024_11_21_rain_d1_hover","properties":{"event_id":"evt_20241120_northern_california_2024_11_20_rain","day_index":2,"geometry_role":"hover_geometry"},"geometry":{"type":"Polygon","coordinates":[[[-124.41,42.26],[-124.41,40.43],[-124.41,40.41],[-124.4,40.4],[-124.39,40.33],[-124.39,40.31],[-124.38,40.28],[-124.37,40.26],[-123.68,38.82],[-123.67,38.81],[-123.66,38.8],[-123.65,38.78],[-123.64,38.77],[-123.61,38.75],[-123.33,38.52],[-123.32,38.51],[-123.3,38.5],[-123.28,38.49],[-123.22,38.46],[-123.2,38.45],[-123.17,38.45],[-123.14,38.44],[-123.11,38.44],[-123.08,38.43],[-123.04,38.43],[-123.01,38.43],[-122.94,38.43],[-122.9,38.43],[-122.87,38.43],[-122.84,38.44],[-122.8,38.44],[-122.77,38.45],[-122.75,38.45],[-122.73,38.46],[-122.67,38.49],[-122.66,38.5],[-121.03,39.56],[-121.01,39.57],[-120.98,39.59],[-120.97,39.61],[-120.96,39.62],[-120.95,39.64],[-120.94,39.65],[-120.93,39.66],[-120.93,39.68],[-120.93,39.7],[-120.93,39.71],[-120.95,39.83],[-120.96,39.86],[-120.96,39.88],[-120.97,39.91],[-121.02,40.07],[-121.03,40.1],[-121.04,40.12],[-121.24,40.5],[-121.36,40.71],[-121.37,40.73],[-121.48,40.9],[-121.69,41.18],[-121.71,41.2],[-121.74,41.24],[-121.8,41.3],[-121.84,41.34],[-121.85,41.35],[-121.87,41.37],[-121.9,41.39],[-121.92,41.4],[-124,42.47],[-124,42.47],[-124.02,42.47],[-124.04,42.47],[-124.07,42.47],[-124.1,42.46],[-124.13,42.45],[-124.19,42.43],[-124.21,42.42],[-124.24,42.41],[-124.26,42.4],[-124.28,42.39],[-124.33,42.35],[-124.38,42.31],[-124.39,42.3],[-124.4,42.29],[-124.41,42.27],[-124.41,42.26]]]}},{"type":"Feature","id":"geom_evt_20241122_northern_california_2024_11_22_rain_d1_hover","properties":{"event_id":"evt_20241120_northern_california_2024_11_20_rain","day_index":3,"geometry_role":"hover_geometry"},"geometry":{"type":"Polygon","coordinates":[[[-123.47,38.72],[-123.46,38.7],[-123.45,38.67],[-123.45,38.66],[-123.44,38.64],[-123.43,38.62],[-123.42,38.61],[-123.39,38.58],[-122.97,38.08],[-122.96,38.08],[-122.95,38.07],[-122.93,38.07],[-122.92,38.07],[-122.9,38.07],[-122.74,38.11],[-122.72,38.11],[-122.69,38.12],[-120.67,38.89],[-120.64,38.9],[-120.62,38.91],[-120.58,38.94],[-120.56,38.95],[-120.55,38.96],[-120.54,38.97],[-120.54,38.99],[-120.53,39.01],[-120.52,39.15],[-120.52,39.17],[-120.52,39.2],[-120.52,39.22],[-120.52,39.25],[-120.53,39.27],[-120.53,39.3],[-120.57,39.44],[-120.58,39.47],[-120.59,39.49],[-120.6,39.51],[-120.69,39.66],[-120.71,39.68],[-120.81,39.8],[-121.95,41.15],[-121.97,41.15],[-122,41.15],[-122.03,41.15],[-122.06,41.14],[-122.09,41.14],[-122.12,41.13],[-122.15,41.12],[-122.18,41.1],[-122.2,41.09],[-122.22,41.08],[-122.23,41.06],[-122.25,41.03],[-122.26,41.02],[-123.46,38.74],[-123.47,38.73],[-123.47,38.72]]]}},{"type":"Feature","id":"geom_evt_20241106_southern_california_2024_11_06_fire_d1_hover","properties":{"event_id":"evt_20241106_southern_california_2024_11_06_fire","day_index":1,"geometry_role":"hover_geometry"},"geometry":{"type":"Polygon","coordinates":[[[-119.32,34.27],[-119.23,34.11],[-117.01,32.54],[-116.62,32.55],[-115.93,32.6],[-115.94,32.94],[-116.23,33.38],[-116.81,33.89],[-117.99,34.57],[-118.38,34.7],[-118.8,34.76],[-119.02,34.68],[-119.17,34.51],[-119.32,34.27]]]}},{"type":"Feature","id":"geom_evt_20241107_southern_california_2024_11_07_fire_d1_hover","properties":{"event_id":"evt_20241106_southern_california_2024_11_06_fire","day_index":2,"geometry_role":"hover_geometry"},"geometry":{"type":"Polygon","coordinates":[[[-119.22,34.21],[-119.16,34.1],[-118.81,33.99],[-118.67,34.03],[-117.97,34.35],[-117.98,34.53],[-118.15,34.71],[-118.44,34.71],[-118.87,34.59],[-119.22,34.32],[-119.22,34.21]]]}},{"type":"Feature","id":"geom_evt_20241104_southern_plains_2024_11_04_rain_d1_hover","properties":{"event_id":"evt_20241104_southern_plains_2024_11_04_rain","day_index":1,"geometry_role":"hover_geometry"},"geometry":{"type":"Polygon","coordinates":[[[-95.43,34.51],[-95.43,34.49],[-95.43,34.47],[-95.42,34.45],[-95.4,34.36],[-95.39,34.33],[-95.37,34.31],[-95.36,34.29],[-95.34,34.27],[-95.32,34.25],[-95.31,34.24],[-95.16,34.14],[-95.14,34.13],[-95.05,34.08],[-95.03,34.07],[-94.94,34.03],[-94.91,34.02],[-94.77,33.97],[-94.74,33.97],[-94.71,33.96],[-94.68,33.96],[-94.65,33.95],[-94.61,33.95],[-94.58,33.95],[-94.51,33.95],[-94.39,33.95],[-94.12,33.95],[-92.38,35.59],[-91.82,36.18],[-91.78,36.23],[-91.77,36.24],[-91.76,36.26],[-91.6,36.52],[-91.49,36.74],[-91.48,36.77],[-91.47,36.79],[-91.43,36.91],[-91.42,36.94],[-91.42,36.97],[-91.41,37],[-91.41,37.03],[-91.41,37.06],[-91.41,37.09],[-91.41,37.13],[-91.41,37.16],[-91.41,37.19],[-91.42,37.22],[-91.42,37.25],[-91.43,37.28],[-91.44,37.3],[-91.45,37.32],[-91.47,37.33],[-91.52,37.39],[-91.54,37.4],[-91.55,37.41],[-91.58,37.42],[-91.6,37.43],[-91.63,37.44],[-91.66,37.44],[-91.69,37.44],[-91.73,37.44],[-91.76,37.44],[-91.79,37.44],[-91.82,37.44],[-91.86,37.44],[-91.89,37.43],[-92.27,37.38],[-92.3,37.37],[-92.33,37.36],[-92.86,37.2],[-92.89,37.2],[-93.49,36.97],[-93.59,36.93],[-93.88,36.81],[-93.98,36.76],[-93.99,36.75],[-94.01,36.74],[-94.21,36.59],[-94.23,36.58],[-94.49,36.37],[-94.5,36.35],[-94.52,36.34],[-94.53,36.33],[-94.54,36.31],[-94.76,36.05],[-94.77,36.04],[-94.88,35.87],[-95.04,35.59],[-95.05,35.58],[-95.1,35.49],[-95.16,35.38],[-95.21,35.26],[-95.22,35.25],[-95.26,35.15],[-95.27,35.13],[-95.38,34.82],[-95.38,34.79],[-95.39,34.76],[-95.43,34.55],[-95.43,34.53],[-95.43,34.51]]]}},{"type":"Feature","id":"geom_evt_20241106_southeast_2024_11_06_rain_d1_hover","properties":{"event_id":"evt_20241106_southeast_2024_11_06_rain","day_index":1,"geometry_role":"hover_geometry"},"geometry":{"type":"Polygon","coordinates":[[[-83.84,31.39],[-83.84,31.29],[-83.83,31.22],[-83.83,31.19],[-83.83,31.16],[-83.82,31.13],[-83.82,31.1],[-83.77,30.95],[-83.76,30.93],[-83.72,30.82],[-83.71,30.79],[-83.7,30.77],[-83.68,30.76],[-83.67,30.75],[-83.65,30.74],[-83.61,30.71],[-83.59,30.7],[-83.55,30.69],[-83.39,30.63],[-83.27,30.7],[-83.25,30.71],[-83.2,30.74],[-83.1,30.81],[-83.08,30.82],[-81.17,32.53],[-81.15,32.54],[-81.14,32.56],[-81.13,32.57],[-81.08,32.64],[-81.07,32.66],[-81.03,32.76],[-81.02,32.79],[-81.02,32.81],[-80.98,33.03],[-80.97,33.06],[-80.97,33.08],[-80.97,33.11],[-80.97,33.14],[-80.98,33.16],[-80.99,33.18],[-81.01,33.24],[-81.02,33.25],[-81.03,33.27],[-81.04,33.29],[-81.08,33.34],[-81.12,33.4],[-81.14,33.42],[-81.15,33.43],[-81.16,33.44],[-81.18,33.45],[-81.2,33.46],[-81.24,33.48],[-81.26,33.49],[-81.28,33.5],[-81.3,33.51],[-81.47,33.55],[-81.5,33.55],[-81.53,33.56],[-81.55,33.56],[-81.58,33.56],[-81.9,33.55],[-81.92,33.54],[-81.94,33.54],[-82.08,33.5],[-82.1,33.49],[-82.24,33.45],[-82.27,33.44],[-82.36,33.39],[-82.38,33.38],[-82.47,33.34],[-82.86,33.11],[-82.87,33.1],[-82.89,33.09],[-82.94,33.05],[-82.99,33],[-83.05,32.95],[-83.1,32.89],[-83.14,32.84],[-83.47,32.43],[-83.49,32.42],[-83.5,32.4],[-83.54,32.33],[-83.7,32.05],[-83.8,31.82],[-83.82,31.8],[-83.82,31.77],[-83.83,31.74],[-83.83,31.71],[-83.83,31.67],[-83.84,31.64],[-83.84,31.61],[-83.84,31.54],[-83.84,31.39]]]}},{"type":"Feature","id":"geom_evt_2024_al17_patty_d1_hover","properties":{"event_id":"evt_2024_al17_patty","day_index":1,"geometry_role":"hover_geometry"},"geometry":{"type":"Polygon","coordinates":[[[-38.7,40.6],[-38.41,39.67],[-37.6,38.98],[-36.5,38.73],[-35.4,38.98],[-34.59,39.67],[-34.3,40.6],[-34.59,41.54],[-35.4,42.22],[-36.5,42.47],[-37.6,42.22],[-38.41,41.54],[-38.7,40.6]]]}},{"type":"Feature","id":"geom_evt_2024_al17_patty_d2_hover","properties":{"event_id":"evt_2024_al17_patty","day_index":2,"geometry_role":"hover_geometry"},"geometry":{"type":"Polygon","coordinates":[[[-33.8,38.4],[-33.51,37.46],[-32.7,36.78],[-31.6,36.53],[-30.5,36.78],[-29.69,37.46],[-29.4,38.4],[-29.69,39.34],[-30.5,40.02],[-31.6,40.27],[-32.7,40.02],[-33.51,39.34],[-33.8,38.4]]]}},{"type":"Feature","id":"geom_evt_2024_al17_patty_d3_hover","properties":{"event_id":"evt_2024_al17_patty","day_index":3,"geometry_role":"hover_geometry"},"geometry":{"type":"Polygon","coordinates":[[[-25.5,37.4],[-25.21,36.46],[-24.4,35.78],[-23.3,35.53],[-22.2,35.78],[-21.39,36.46],[-21.1,37.4],[-21.39,38.34],[-22.2,39.02],[-23.3,39.27],[-24.4,39.02],[-25.21,38.34],[-25.5,37.4]]]}},{"type":"Feature","id":"geom_evt_2024_al17_patty_d4_hover","properties":{"event_id":"evt_2024_al17_patty","day_index":4,"geometry_role":"hover_geometry"},"geometry":{"type":"Polygon","coordinates":[[[-21.4,37.9],[-21.11,36.96],[-20.3,36.28],[-19.2,36.03],[-18.1,36.28],[-17.29,36.96],[-17,37.9],[-17.29,38.84],[-18.1,39.52],[-19.2,39.77],[-20.3,39.52],[-21.11,38.84],[-21.4,37.9]]]}},{"type":"Feature","id":"geom_evt_2024_al19_sara_d1_hover","properties":{"event_id":"evt_2024_al19_sara","day_index":1,"geometry_role":"hover_geometry"},"geometry":{"type":"Polygon","coordinates":[[[-79.9,16.1],[-79.7,15.46],[-79.15,15],[-78.4,14.83],[-77.65,15],[-77.1,15.46],[-76.9,16.1],[-77.1,16.74],[-77.65,17.2],[-78.4,17.38],[-79.15,17.2],[-79.7,16.74],[-79.9,16.1]]]}},{"type":"Feature","id":"geom_evt_2024_al19_sara_d2_hover","properties":{"event_id":"evt_2024_al19_sara","day_index":2,"geometry_role":"hover_geometry"},"geometry":{"type":"Polygon","coordinates":[[[-85.3,15.8],[-85.01,14.87],[-84.2,14.18],[-83.1,13.93],[-82,14.18],[-81.19,14.87],[-80.9,15.8],[-81.19,16.74],[-82,17.42],[-83.1,17.67],[-84.2,17.42],[-85.01,16.74],[-85.3,15.8]]]}},{"type":"Feature","id":"geom_evt_2024_al19_sara_d3_hover","properties":{"event_id":"evt_2024_al19_sara","day_index":3,"geometry_role":"hover_geometry"},"geometry":{"type":"Polygon","coordinates":[[[-88.3,16.1],[-88.01,15.17],[-87.2,14.48],[-86.1,14.23],[-85,14.48],[-84.19,15.17],[-83.9,16.1],[-84.19,17.04],[-85,17.72],[-86.1,17.97],[-87.2,17.72],[-88.01,17.04],[-88.3,16.1]]]}},{"type":"Feature","id":"geom_evt_2024_al19_sara_d4_hover","properties":{"event_id":"evt_2024_al19_sara","day_index":4,"geometry_role":"hover_geometry"},"geometry":{"type":"Polygon","coordinates":[[[-89,16.3],[-88.71,15.37],[-87.9,14.68],[-86.8,14.43],[-85.7,14.68],[-84.89,15.37],[-84.6,16.3],[-84.89,17.24],[-85.7,17.92],[-86.8,18.17],[-87.9,17.92],[-88.71,17.24],[-89,16.3]]]}},{"type":"Feature","id":"geom_evt_2024_al19_sara_d5_hover","properties":{"event_id":"evt_2024_al19_sara","day_index":5,"geometry_role":"hover_geometry"},"geometry":{"type":"Polygon","coordinates":[[[-90.6,17.4],[-90.4,16.76],[-89.85,16.3],[-89.1,16.13],[-88.35,16.3],[-87.8,16.76],[-87.6,17.4],[-87.8,18.04],[-88.35,18.5],[-89.1,18.67],[-89.85,18.5],[-90.4,18.04],[-90.6,17.4]]]}},{"type":"Feature","id":"geom_evt_2024_al19_sara_d6_hover","properties":{"event_id":"evt_2024_al19_sara","day_index":6,"geometry_role":"hover_geometry"},"geometry":{"type":"Polygon","coordinates":[[[-91.7,17.9],[-91.5,17.26],[-90.95,16.8],[-90.2,16.63],[-89.45,16.8],[-88.9,17.26],[-88.7,17.9],[-88.9,18.54],[-89.45,19],[-90.2,19.17],[-90.95,19],[-91.5,18.54],[-91.7,17.9]]]}},{"type":"Feature","id":"geom_evt_20241104_pacific_northwest_2024_11_04_winter_d1_hover","properties":{"event_id":"evt_20241104_pacific_northwest_2024_11_04_winter","day_index":1,"geometry_role":"hover_geometry"},"geometry":{"type":"Polygon","coordinates":[[[-122.32,48.77],[-122.3,48.62],[-121.91,47.18],[-121.85,47.14],[-121.46,47.09],[-115.73,46.37],[-115.72,46.37],[-114.59,46.63],[-114.12,46.78],[-113.98,47.14],[-114.38,47.35],[-115.8,48.06],[-115.94,48.12],[-119.77,49],[-120.44,49],[-120.56,49],[-122.09,49],[-122.23,48.93],[-122.24,48.92],[-122.26,48.9],[-122.31,48.8],[-122.32,48.77]]]}},{"type":"Feature","id":"geom_evt_20241105_pacific_northwest_2024_11_05_winter_d1_hover","properties":{"event_id":"evt_20241104_pacific_northwest_2024_11_04_winter","day_index":2,"geometry_role":"hover_geometry"},"geometry":{"type":"Polygon","coordinates":[[[-173.12,60.66],[-173.07,60.5],[-172.77,60.19],[-158.77,56.34],[-146.34,59.41],[-146.3,59.44],[-146.29,59.45],[-141,69.5],[-141,69.65],[-141.08,69.67],[-142.68,70.03],[-143.23,70.15],[-156.44,71.39],[-156.47,71.39],[-159.59,70.81],[-161.88,70.33],[-162.03,70.29],[-162.1,70.27],[-162.34,70.2],[-166.22,68.88],[-166.85,68.34],[-173.12,60.67],[-173.12,60.66]]]}},{"type":"Feature","id":"geom_evt_20241116_pacific_northwest_2024_11_16_winter_d1_hover","properties":{"event_id":"evt_20241116_pacific_northwest_2024_11_16_winter","day_index":1,"geometry_role":"hover_geometry"},"geometry":{"type":"Polygon","coordinates":[[[-122.71,46.69],[-122.55,46.41],[-122.54,46.4],[-122.47,46.39],[-121.39,46.39],[-119.82,48.18],[-119.8,48.21],[-119.67,48.4],[-119.63,48.48],[-119.6,48.55],[-119.58,48.64],[-119.58,48.74],[-119.6,48.8],[-119.62,48.85],[-119.64,48.89],[-119.77,49],[-120.44,49],[-120.56,49],[-122.09,49],[-122.23,48.93],[-122.24,48.92],[-122.26,48.9],[-122.31,48.8],[-122.32,48.77],[-122.71,46.7],[-122.71,46.69]]]}},{"type":"Feature","id":"geom_evt_20241119_pacific_northwest_2024_11_19_winter_d1_hover","properties":{"event_id":"evt_20241119_pacific_northwest_2024_11_19_winter","day_index":1,"geometry_role":"hover_geometry"},"geometry":{"type":"Polygon","coordinates":[[[-168.95,65.75],[-168.94,65.74],[-168.1,64.96],[-166.38,64.63],[-166.37,64.63],[-158.72,66.28],[-159.97,68.29],[-161.74,69.7],[-162.61,69.9],[-162.82,69.92],[-166.22,68.88],[-166.85,68.34],[-168.95,65.76],[-168.95,65.75]]]}},{"type":"Feature","id":"geom_evt_20241120_pacific_northwest_2024_11_20_winter_d1_hover","properties":{"event_id":"evt_20241119_pacific_northwest_2024_11_19_winter","day_index":2,"geometry_role":"hover_geometry"},"geometry":{"type":"Polygon","coordinates":[[[-121.18,47.9],[-121.13,47.65],[-121.12,47.61],[-121.12,47.61],[-121.11,47.6],[-121.11,47.59],[-121.07,47.55],[-120.92,47.43],[-120.92,47.43],[-120.91,47.43],[-120.56,47.31],[-120.56,47.31],[-120.39,47.26],[-120.07,47.22],[-120,47.22],[-119.62,47.3],[-119.58,47.31],[-118.37,47.83],[-118.36,47.84],[-118.23,48.06],[-118.14,48.25],[-118.1,48.65],[-118.12,48.78],[-118.19,49],[-120.44,49],[-120.56,49],[-120.85,49],[-120.85,49],[-120.86,49],[-120.88,48.97],[-121.06,48.48],[-121.06,48.46],[-121.15,48.04],[-121.18,47.92],[-121.18,47.9]]]}},{"type":"Feature","id":"geom_evt_20241105_northern_rockies_2024_11_05_winter_d1_hover","properties":{"event_id":"evt_20241105_northern_rockies_2024_11_05_winter","day_index":1,"geometry_role":"hover_geometry"},"geometry":{"type":"Polygon","coordinates":[[[-112.05,47.3],[-111.48,46.79],[-111.45,46.78],[-110.85,46.65],[-110.44,46.57],[-108.63,46.75],[-108.31,47.31],[-108.2,47.59],[-108.2,48.1],[-108.71,48.43],[-109.04,48.51],[-109.28,48.55],[-109.38,48.56],[-109.49,48.56],[-109.8,48.48],[-111.92,47.61],[-112.05,47.52],[-112.05,47.3]]]}},{"type":"Feature","id":"geom_evt_20241126_northern_rockies_2024_11_26_winter_d1_hover","properties":{"event_id":"evt_20241126_northern_rockies_2024_11_26_winter","day_index":1,"geometry_role":"hover_geometry"},"geometry":{"type":"Polygon","coordinates":[[[-112.19,41.99],[-111.83,39.76],[-111.82,39.74],[-111.8,39.72],[-111.71,39.71],[-111.68,39.71],[-106.63,39.92],[-105.58,40.16],[-105.54,40.19],[-105.49,40.25],[-105.46,40.3],[-105.36,40.48],[-105.36,40.49],[-105.62,40.88],[-106.16,41.56],[-106.2,41.59],[-106.23,41.6],[-106.56,41.7],[-111.66,42.62],[-111.67,42.62],[-111.68,42.61],[-112.19,42],[-112.19,41.99]]]}},{"type":"Feature","id":"geom_evt_20241121_great_lakes_2024_11_21_winter_d1_hover","properties":{"event_id":"evt_20241121_great_lakes_2024_11_21_winter","day_index":1,"geometry_role":"hover_geometry"},"geometry":{"type":"Polygon","coordinates":[[[-79.95,39.46],[-79.9,39.3],[-79.84,39.13],[-79.79,39.04],[-79.76,39.03],[-79.28,38.91],[-75.29,40.86],[-75.27,40.87],[-75.12,40.96],[-74.97,41.08],[-74.36,41.59],[-74.43,42.35],[-74.65,42.83],[-74.8,42.88],[-75.72,43.16],[-75.76,43.17],[-75.93,43.18],[-75.99,43.18],[-77.66,42.58],[-77.72,42.54],[-78.21,42],[-79.89,39.59],[-79.95,39.46]]]}},{"type":"Feature","id":"geom_evt_20241128_great_lakes_2024_11_28_winter_d1_hover","properties":{"event_id":"evt_20241128_great_lakes_2024_11_28_winter","day_index":1,"geometry_role":"hover_geometry"},"geometry":{"type":"Polygon","coordinates":[[[-75.42,42.04],[-75.41,42.02],[-74.99,41.49],[-74.98,41.48],[-74.9,41.44],[-74.8,41.42],[-74.76,41.42],[-74.48,41.5],[-71.54,42.7],[-70.81,43.23],[-70.03,43.97],[-70,44.12],[-69.99,44.18],[-70.12,44.47],[-70.13,44.49],[-71.77,44.41],[-72.42,44.22],[-75.15,43.31],[-75.4,42.51],[-75.42,42.32],[-75.42,42.04]]]}},{"type":"Feature","id":"geom_evt_20241129_great_lakes_2024_11_29_winter_d1_hover","properties":{"event_id":"evt_20241128_great_lakes_2024_11_28_winter","day_index":2,"geometry_role":"hover_geometry"},"geometry":{"type":"Polygon","coordinates":[[[-81.49,41.57],[-81,41.5],[-80.35,41.48],[-80.13,41.48],[-80,41.49],[-78.96,41.62],[-75.88,43.16],[-75.11,43.61],[-75.11,43.63],[-75.12,43.73],[-75.13,43.81],[-75.16,44.04],[-75.17,44.1],[-75.23,44.13],[-75.8,44.38],[-75.83,44.39],[-75.85,44.39],[-76,44.35],[-76.15,44.29],[-81.36,41.73],[-81.44,41.68],[-81.46,41.66],[-81.49,41.63],[-81.49,41.57]]]}},{"type":"Feature","id":"geom_evt_20241104_southwest_2024_11_04_winter_d1_hover","properties":{"event_id":"evt_20241104_southwest_2024_11_04_winter","day_index":1,"geometry_role":"hover_geometry"},"geometry":{"type":"Polygon","coordinates":[[[-106.1,38.43],[-105.9,35.67],[-105.89,35.64],[-105.87,35.61],[-105.54,35.48],[-105.38,35.43],[-105.37,35.43],[-104.89,35.88],[-104.88,35.89],[-104.83,35.99],[-104.77,36.64],[-104.77,36.65],[-104.88,37.95],[-104.94,38.11],[-104.97,38.15],[-105.24,38.37],[-105.26,38.38],[-105.3,38.4],[-106.03,38.49],[-106.07,38.49],[-106.09,38.48],[-106.1,38.46],[-106.1,38.43]]]}},{"type":"Feature","id":"geom_evt_20241105_southwest_2024_11_05_winter_d1_hover","properties":{"event_id":"evt_20241104_southwest_2024_11_04_winter","day_index":2,"geometry_role":"hover_geometry"},"geometry":{"type":"Polygon","coordinates":[[[-106.1,38.43],[-105.33,37],[-105.22,37],[-105.16,37.04],[-105.15,37.05],[-104.91,37.38],[-104.88,37.94],[-104.88,37.95],[-104.94,38.11],[-104.97,38.15],[-105.24,38.37],[-105.26,38.38],[-105.3,38.4],[-106.03,38.49],[-106.07,38.49],[-106.09,38.48],[-106.1,38.46],[-106.1,38.43]]]}},{"type":"Feature","id":"geom_evt_20241106_southwest_2024_11_06_winter_d1_hover","properties":{"event_id":"evt_20241104_southwest_2024_11_04_winter","day_index":3,"geometry_role":"hover_geometry"},"geometry":{"type":"Polygon","coordinates":[[[-105.9,35.67],[-105.89,35.64],[-105.87,35.61],[-105.54,35.48],[-105.38,35.43],[-105.37,35.43],[-104.89,35.88],[-104.88,35.89],[-104.83,35.99],[-104.77,36.64],[-104.77,36.65],[-104.85,38.74],[-104.91,39.17],[-104.95,39.41],[-105.21,39.91],[-105.44,39.94],[-105.45,39.94],[-105.52,39.93],[-105.55,39.92],[-105.57,39.91],[-105.72,39.77],[-105.73,39.76],[-105.9,35.68],[-105.9,35.67]]]}},{"type":"Feature","id":"geom_evt_20241107_southwest_2024_11_07_winter_d1_hover","properties":{"event_id":"evt_20241104_southwest_2024_11_04_winter","day_index":4,"geometry_role":"hover_geometry"},"geometry":{"type":"Polygon","coordinates":[[[-109.05,33],[-108.99,32.91],[-108.96,32.88],[-108.52,32.53],[-108.47,32.51],[-108.44,32.5],[-105.5,32.46],[-105.48,32.46],[-105.42,32.5],[-105.37,32.54],[-105.35,32.56],[-104.91,33.14],[-104.37,35.73],[-104.35,37.82],[-104.92,39.13],[-105.33,39.13],[-107.14,37.85],[-108.7,35.66],[-108.72,35.61],[-109.05,34.28],[-109.05,33]]]}},{"type":"Feature","id":"geom_evt_20241126_southwest_2024_11_26_winter_d1_hover","properties":{"event_id":"evt_20241126_southwest_2024_11_26_winter","day_index":1,"geometry_role":"hover_geometry"},"geometry":{"type":"Polygon","coordinates":[[[-112.85,38.57],[-108.31,37.21],[-107.45,37.06],[-107.07,37],[-106.87,36.99],[-106.27,36.99],[-105.37,39.1],[-105.33,39.28],[-105.33,39.29],[-105.34,39.52],[-105.38,39.89],[-105.49,40.18],[-105.53,40.19],[-107.15,40.4],[-111.41,40.46],[-111.45,40.46],[-112.23,39.53],[-112.85,38.63],[-112.85,38.57]]]}},{"type":"Feature","id":"geom_evt_20241115_southern_california_2024_11_15_winter_d1_hover","properties":{"event_id":"evt_20241115_southern_california_2024_11_15_winter","day_index":1,"geometry_role":"hover_geometry"},"geometry":{"type":"Polygon","coordinates":[[[-119.89,37.98],[-119.88,37.89],[-119.87,37.78],[-119.85,37.74],[-118.65,35.62],[-118.64,35.61],[-118.63,35.61],[-118.62,35.6],[-118.19,35.54],[-118.11,35.54],[-118.06,35.54],[-118.03,35.56],[-118.02,35.58],[-117.98,35.87],[-117.98,35.93],[-117.99,35.94],[-118.1,36.35],[-118.44,37.06],[-118.76,37.46],[-119.33,38.07],[-119.35,38.08],[-119.35,38.09],[-119.5,38.16],[-119.59,38.18],[-119.59,38.18],[-119.59,38.18],[-119.59,38.18],[-119.59,38.18],[-119.83,38.09],[-119.83,38.09],[-119.84,38.09],[-119.84,38.08],[-119.86,38.07],[-119.87,38.06],[-119.87,38.05],[-119.87,38.05],[-119.88,38.03],[-119.88,38.03],[-119.89,37.98],[-119.89,37.98]]]}},{"type":"Feature","id":"geom_evt_20241123_southern_california_2024_11_23_winter_d1_hover","properties":{"event_id":"evt_20241123_southern_california_2024_11_23_winter","day_index":1,"geometry_role":"hover_geometry"},"geometry":{"type":"Polygon","coordinates":[[[-119.89,37.98],[-119.88,37.89],[-119.87,37.78],[-119.85,37.74],[-118.65,35.62],[-118.64,35.61],[-118.63,35.61],[-118.62,35.6],[-118.19,35.54],[-118.11,35.54],[-118.06,35.54],[-118.03,35.56],[-118.02,35.58],[-117.98,35.87],[-117.98,35.93],[-117.99,35.94],[-118.1,36.35],[-118.44,37.06],[-118.76,37.46],[-119.33,38.07],[-119.35,38.08],[-119.35,38.09],[-119.5,38.16],[-119.59,38.18],[-119.59,38.18],[-119.59,38.18],[-119.59,38.18],[-119.59,38.18],[-119.83,38.09],[-119.83,38.09],[-119.84,38.09],[-119.84,38.08],[-119.86,38.07],[-119.87,38.06],[-119.87,38.05],[-119.87,38.05],[-119.88,38.03],[-119.88,38.03],[-119.89,37.98],[-119.89,37.98]]]}},{"type":"Feature","id":"geom_evt_20241118_northern_california_2024_11_18_winter_d1_hover","properties":{"event_id":"evt_20241118_northern_california_2024_11_18_winter","day_index":1,"geometry_role":"hover_geometry"},"geometry":{"type":"Polygon","coordinates":[[[-123.72,41.59],[-123.66,41.38],[-123.38,41.15],[-123.25,41.08],[-123.04,41],[-122.94,40.99],[-122.93,40.99],[-120.51,41.99],[-120.51,42.3],[-120.52,42.34],[-120.54,42.42],[-121.13,43.62],[-122,43.62],[-123.11,43.54],[-123.7,41.83],[-123.72,41.61],[-123.72,41.59]]]}},{"type":"Feature","id":"geom_evt_20241120_northern_california_2024_11_20_winter_d1_hover","properties":{"event_id":"evt_20241120_northern_california_2024_11_20_winter","day_index":1,"geometry_role":"hover_geometry"},"geometry":{"type":"Polygon","coordinates":[[[-123.72,41.59],[-123.54,39.98],[-122.41,38.96],[-122.38,38.94],[-122.34,38.92],[-120.05,37.81],[-119.94,37.76],[-119.88,37.76],[-119.86,37.77],[-119.6,38.18],[-119.6,38.24],[-119.63,38.35],[-121.69,43.62],[-122,43.62],[-122.03,43.61],[-122.1,43.58],[-122.39,43.44],[-123.7,41.83],[-123.72,41.61],[-123.72,41.59]]]}},{"type":"Feature","id":"geom_evt_20241107_central_plains_2024_11_07_winter_d1_hover","properties":{"event_id":"evt_20241107_central_plains_2024_11_07_winter","day_index":1,"geometry_role":"hover_geometry"},"geometry":{"type":"Polygon","coordinates":[[[-105.43,37],[-105.31,34.35],[-104.89,34.35],[-104.13,34.78],[-102.16,36.06],[-102.03,36.5],[-102.03,36.99],[-102.04,37.64],[-104.05,39.13],[-104.92,39.13],[-104.93,39.11],[-105.39,37.27],[-105.43,37]]]}},{"type":"Feature","id":"geom_evt_20241108_central_plains_2024_11_08_winter_d1_hover","properties":{"event_id":"evt_20241107_central_plains_2024_11_07_winter","day_index":2,"geometry_role":"hover_geometry"},"geometry":{"type":"Polygon","coordinates":[[[-105.12,39.48],[-104.91,39.13],[-104.05,38.52],[-103.23,38.52],[-102.13,38.61],[-102.05,38.62],[-102.04,38.63],[-102.05,39.57],[-102.78,40.44],[-103.47,40.44],[-104.98,40.04],[-105.05,40],[-105.06,39.97],[-105.11,39.63],[-105.12,39.49],[-105.12,39.48]]]}},{"type":"Feature","id":"geom_evt_20241121_mid_atlantic_2024_11_21_winter_d1_hover","properties":{"event_id":"evt_20241121_mid_atlantic_2024_11_21_winter","day_index":1,"geometry_role":"hover_geometry"},"geometry":{"type":"Polygon","coordinates":[[[-80.89,38.08],[-80.8,37.87],[-80.73,37.81],[-80.67,37.76],[-79.73,38.24],[-79.72,38.25],[-79.5,38.53],[-79.32,38.84],[-79.28,38.91],[-79.36,38.97],[-79.82,39.12],[-79.83,39.12],[-80.08,38.95],[-80.09,38.94],[-80.88,38.11],[-80.89,38.08]]]}},{"type":"Feature","id":"geom_evt_20241128_mid_atlantic_2024_11_28_winter_d1_hover","properties":{"event_id":"evt_20241128_mid_atlantic_2024_11_28_winter","day_index":1,"geometry_role":"hover_geometry"},"geometry":{"type":"Polygon","coordinates":[[[-87.12,46.16],[-84.12,46.16],[-84.11,46.17],[-84.1,46.25],[-84.1,46.26],[-84.12,46.52],[-84.13,46.53],[-84.96,46.77],[-85.01,46.77],[-85.24,46.76],[-86.14,46.68],[-87.04,46.53],[-87.08,46.52],[-87.12,46.5],[-87.12,46.16]]]}},{"type":"Feature","id":"geom_evt_20241129_mid_atlantic_2024_11_29_winter_d1_hover","properties":{"event_id":"evt_20241128_mid_atlantic_2024_11_28_winter","day_index":2,"geometry_role":"hover_geometry"},"geometry":{"type":"Polygon","coordinates":[[[-90.42,46.56],[-90.4,46.54],[-90.39,46.53],[-90.11,46.33],[-85.33,44.51],[-84.37,44.51],[-84.37,45.2],[-88.43,48.19],[-88.44,48.19],[-88.57,48.17],[-88.61,48.16],[-88.64,48.15],[-89.18,47.94],[-89.21,47.92],[-89.25,47.88],[-90.42,46.57],[-90.42,46.56]]]}},{"type":"Feature","id":"geom_evt_20241123_desert_southwest_2024_11_23_winter_d1_hover","properties":{"event_id":"evt_20241123_desert_southwest_2024_11_23_winter","day_index":1,"geometry_role":"hover_geometry"},"geometry":{"type":"Polygon","coordinates":[[[-114.73,43.81],[-114.68,43.59],[-114.57,43.5],[-114.51,43.47],[-114.48,43.46],[-113.64,43.45],[-113.63,43.45],[-113.6,43.46],[-113.59,43.47],[-113.56,43.5],[-112.04,47.24],[-111.87,48.39],[-111.85,48.53],[-111.85,48.85],[-111.92,49],[-114.07,49],[-114.73,43.81]]]}},{"type":"Feature","id":"geom_evt_20241119_upper_midwest_2024_11_19_winter_d1_hover","properties":{"event_id":"evt_20241119_upper_midwest_2024_11_19_winter","day_index":1,"geometry_role":"hover_geometry"},"geometry":{"type":"Polygon","coordinates":[[[-100.28,48.37],[-100.24,48.02],[-100.2,47.85],[-98.47,47.24],[-97.96,47.24],[-97.88,47.67],[-97.86,48.19],[-97.86,48.54],[-97.95,49],[-100.18,49],[-100.28,48.54],[-100.28,48.37]]]}},{"type":"Feature","id":"geom_evt_20241103_southern_plains_2024_11_03_severe_d1_hover","properties":{"event_id":"evt_20241103_southern_plains_2024_11_03_severe","day_index":1,"geometry_role":"hover_geometry"},"geometry":{"type":"Polygon","coordinates":[[[-97.94,33.65],[-97.56,33.28],[-96.91,33.26],[-95.43,33.91],[-94.88,34.31],[-94.47,34.86],[-94.44,35.42],[-94.91,35.84],[-96.44,35.16],[-97.86,34.25],[-97.94,33.65]]]}},{"type":"Feature","id":"geom_evt_20241104_southern_plains_2024_11_04_severe_d1_hover","properties":{"event_id":"evt_20241103_southern_plains_2024_11_03_severe","day_index":2,"geometry_role":"hover_geometry"},"geometry":{"type":"Polygon","coordinates":[[[-97.82,33.36],[-96.49,32.77],[-95.22,32.7],[-94.43,33.18],[-93.58,34.67],[-92.07,38.08],[-92.9,38.3],[-96,36.37],[-96.47,36.07],[-96.92,35.41],[-97.82,33.77],[-97.82,33.36]]]}},{"type":"Feature","id":"geom_evt_20241102_central_plains_2024_11_02_severe_d1_hover","properties":{"event_id":"evt_20241102_central_plains_2024_11_02_severe","day_index":1,"geometry_role":"hover_geometry"},"geometry":{"type":"Polygon","coordinates":[[[-103.71,32.77],[-103.69,31.32],[-102.8,31.22],[-101.8,31.62],[-98.28,33.93],[-97.01,35.18],[-97.09,35.58],[-97.46,35.84],[-97.86,35.81],[-101.76,34.15],[-103.71,32.77]]]}},{"type":"Feature","id":"geom_evt_20241107_central_plains_2024_11_07_severe_d1_hover","properties":{"event_id":"evt_20241107_central_plains_2024_11_07_severe","day_index":1,"geometry_role":"hover_geometry"},"geometry":{"type":"Polygon","coordinates":[[[-102.93,31.95],[-102.21,29.78],[-100.78,29.19],[-98.9,31.68],[-98.86,33.1],[-99.14,33.71],[-100.54,33.65],[-102.7,32.67],[-102.93,31.95]]]}},{"type":"Feature","id":"geom_evt_20241117_central_plains_2024_11_17_severe_d1_hover","properties":{"event_id":"evt_20241117_central_plains_2024_11_17_severe","day_index":1,"geometry_role":"hover_geometry"},"geometry":{"type":"Polygon","coordinates":[[[-102.95,31.82],[-102.89,31.17],[-102.44,30.32],[-101.75,29.86],[-100.48,30],[-99.38,30.4],[-98.33,31.42],[-97.66,32.51],[-97.44,34.7],[-97.57,35.15],[-97.84,35.31],[-99.54,34.91],[-100.16,34.54],[-101.19,33.82],[-102.68,32.39],[-102.95,31.82]]]}},{"type":"Feature","id":"geom_evt_20241108_southern_plains_2024_11_08_severe_d1_hover","properties":{"event_id":"evt_20241108_southern_plains_2024_11_08_severe","day_index":1,"geometry_role":"hover_geometry"},"geometry":{"type":"Polygon","coordinates":[[[-98.62,33.41],[-98.47,31.16],[-97.42,31.14],[-96.39,32.03],[-96.24,32.37],[-96.28,32.94],[-97.32,33.62],[-97.9,33.82],[-98.26,33.82],[-98.62,33.41]]]}},{"type":"Feature","id":"geom_evt_20241105_gulf_coast_2024_11_05_severe_d1_hover","properties":{"event_id":"evt_20241105_gulf_coast_2024_11_05_severe","day_index":1,"geometry_role":"hover_geometry"},"geometry":{"type":"Polygon","coordinates":[[[-93.37,30.7],[-92.85,30.04],[-92.18,30.06],[-91.44,31.03],[-91.02,32.15],[-91.01,33.21],[-91.97,33.08],[-93.37,30.7]]]}},{"type":"Feature","id":"geom_evt_20241118_gulf_coast_2024_11_18_severe_d1_hover","properties":{"event_id":"evt_20241118_gulf_coast_2024_11_18_severe","day_index":1,"geometry_role":"hover_geometry"},"geometry":{"type":"Polygon","coordinates":[[[-94.45,30.32],[-94.27,29.22],[-91.08,28.73],[-90.74,28.71],[-90.54,28.71],[-90.1,28.76],[-89.94,28.85],[-92.15,33.12],[-92.46,33.28],[-92.9,33.35],[-93.33,33.22],[-93.89,32.54],[-94.15,31.89],[-94.45,30.32]]]}},{"type":"Feature","id":"geom_evt_20241106_southeast_2024_11_06_severe_d1_hover","properties":{"event_id":"evt_20241106_southeast_2024_11_06_severe","day_index":1,"geometry_role":"hover_geometry"},"geometry":{"type":"Polygon","coordinates":[[[-83.29,24.22],[-82.82,24.17],[-81.78,24.21],[-81.05,24.36],[-80.96,24.39],[-81.28,24.77],[-82.33,25.06],[-83.16,25.01],[-83.24,24.8],[-83.28,24.51],[-83.29,24.22]]]}},{"type":"Feature","id":"geom_evt_20241113_southeast_2024_11_13_severe_d1_hover","properties":{"event_id":"evt_20241113_southeast_2024_11_13_severe","day_index":1,"geometry_role":"hover_geometry"},"geometry":{"type":"Polygon","coordinates":[[[-91.51,30.94],[-91.32,30.48],[-90.55,30.09],[-89.68,29.95],[-88.51,30.39],[-88.4,30.88],[-88.48,31.36],[-89.12,31.63],[-90.47,31.77],[-91.48,31.19],[-91.51,30.94]]]}}]}