{"type":"FeatureCollection","features":[{"type":"Feature","id":"geom_evt_20240804_southeast_2024_08_04_rain_d1_hover","properties":{"event_id":"evt_20240804_southeast_2024_08_04_rain","day_index":1,"geometry_role":"hover_geometry"},"geometry":{"type":"Polygon","coordinates":[[[-84.46,29.96],[-84.45,29.95],[-84.45,29.94],[-82.48,27.11],[-82.47,27.1],[-82.46,27.09],[-82.45,27.08],[-82.44,27.08],[-82.43,27.08],[-82.42,27.08],[-82.41,27.09],[-82.4,27.1],[-82.37,27.15],[-82.36,27.17],[-82.26,27.45],[-82.25,27.48],[-82.24,27.5],[-82.08,28.25],[-82.07,28.28],[-82.02,28.58],[-82.02,28.61],[-82.02,28.64],[-82.01,28.67],[-82.01,28.7],[-82.02,29.11],[-82.02,29.14],[-82.02,29.17],[-82.02,29.2],[-82.07,29.56],[-82.08,29.59],[-82.08,29.62],[-82.13,29.76],[-82.14,29.79],[-82.18,29.88],[-82.19,29.9],[-82.24,29.99],[-82.25,30.01],[-82.26,30.02],[-82.3,30.07],[-82.35,30.13],[-82.41,30.18],[-82.46,30.22],[-82.47,30.23],[-82.49,30.24],[-82.58,30.29],[-82.6,30.3],[-82.69,30.34],[-82.97,30.45],[-82.99,30.46],[-83.02,30.46],[-83.19,30.5],[-83.22,30.51],[-83.25,30.52],[-83.28,30.52],[-83.31,30.52],[-83.38,30.53],[-83.49,30.53],[-83.63,30.53],[-83.7,30.53],[-83.77,30.52],[-83.8,30.52],[-83.84,30.52],[-83.87,30.52],[-83.9,30.51],[-83.92,30.5],[-84.02,30.46],[-84.04,30.45],[-84.13,30.41],[-84.15,30.39],[-84.16,30.38],[-84.21,30.34],[-84.22,30.33],[-84.27,30.29],[-84.32,30.23],[-84.33,30.22],[-84.36,30.18],[-84.37,30.17],[-84.38,30.14],[-84.44,30],[-84.45,29.97],[-84.46,29.96]]]}},{"type":"Feature","id":"geom_evt_20240805_southeast_2024_08_05_rain_d1_hover","properties":{"event_id":"evt_20240804_southeast_2024_08_04_rain","day_index":2,"geometry_role":"hover_geometry"},"geometry":{"type":"Polygon","coordinates":[[[-83.98,30.15],[-83.98,30.13],[-83.97,30.11],[-83.97,30.1],[-82.69,27.46],[-82.48,27.11],[-82.33,26.88],[-82.32,26.86],[-82.31,26.86],[-82.29,26.86],[-82.28,26.86],[-82.27,26.87],[-82.25,26.87],[-82.24,26.88],[-82.18,26.93],[-82.16,26.94],[-82.15,26.95],[-82,27.11],[-81.98,27.12],[-81.97,27.14],[-81.96,27.17],[-79.21,33.15],[-79.21,33.16],[-79.21,33.18],[-79.21,33.2],[-79.21,33.21],[-79.22,33.23],[-79.23,33.24],[-79.24,33.26],[-79.26,33.27],[-79.27,33.28],[-79.29,33.29],[-79.35,33.32],[-79.37,33.33],[-79.39,33.33],[-79.42,33.34],[-79.45,33.34],[-79.91,33.4],[-80.51,33.4],[-80.62,33.4],[-80.69,33.4],[-80.76,33.4],[-81.03,33.39],[-81.06,33.39],[-81.08,33.38],[-81.38,33.32],[-81.39,33.31],[-81.72,33.2],[-81.74,33.2],[-82,33.09],[-82.32,32.93],[-82.33,32.92],[-82.71,32.66],[-82.72,32.65],[-82.75,32.62],[-82.77,32.61],[-82.83,32.56],[-82.88,32.5],[-82.94,32.45],[-83.09,32.27],[-83.37,31.94],[-83.38,31.92],[-83.39,31.9],[-83.43,31.83],[-83.44,31.82],[-83.75,31.22],[-83.76,31.2],[-83.77,31.17],[-83.81,31],[-83.82,30.98],[-83.98,30.17],[-83.98,30.15]]]}},{"type":"Feature","id":"geom_evt_20240806_southeast_2024_08_06_rain_d1_hover","properties":{"event_id":"evt_20240804_southeast_2024_08_04_rain","day_index":3,"geometry_role":"hover_geometry"},"geometry":{"type":"Polygon","coordinates":[[[-82.78,31.92],[-82.78,31.88],[-82.78,31.85],[-82.78,31.82],[-82.77,31.79],[-82.77,31.76],[-82.72,31.62],[-82.71,31.59],[-82.66,31.5],[-82.65,31.48],[-82.64,31.47],[-82.6,31.42],[-82.55,31.37],[-82.49,31.31],[-82.33,31.15],[-82.27,31.09],[-82.22,31.04],[-82.03,30.86],[-82.02,30.85],[-82,30.84],[-81.99,30.82],[-81.97,30.81],[-81.88,30.76],[-81.86,30.75],[-81.77,30.7],[-81.75,30.69],[-81.66,30.65],[-81.64,30.64],[-81.56,30.61],[-81.55,30.6],[-81.53,30.6],[-81.51,30.6],[-81.49,30.6],[-81.48,30.61],[-81.46,30.62],[-76.58,34.76],[-76.57,34.77],[-73.03,40.73],[-73.03,40.74],[-73.03,40.75],[-73.03,40.76],[-73.04,40.77],[-73.05,40.79],[-73.06,40.8],[-73.07,40.81],[-73.1,40.84],[-73.12,40.85],[-73.49,41.07],[-73.51,41.08],[-73.69,41.14],[-73.84,41.18],[-73.87,41.19],[-73.9,41.19],[-74.11,41.23],[-74.8,41.29],[-74.82,41.29],[-75.56,41.25],[-75.59,41.25],[-75.62,41.25],[-76.23,41.17],[-76.24,41.17],[-76.65,41.08],[-76.68,41.07],[-76.79,41.03],[-76.82,41.02],[-76.84,41.01],[-77.07,40.91],[-77.09,40.9],[-77.11,40.89],[-77.12,40.87],[-82.32,33.44],[-82.49,33.16],[-82.5,33.14],[-82.53,33.07],[-82.54,33.05],[-82.55,33.02],[-82.66,32.63],[-82.66,32.6],[-82.72,32.36],[-82.77,32.08],[-82.78,32.05],[-82.78,32.02],[-82.78,31.98],[-82.78,31.95],[-82.78,31.92]]]}},{"type":"Feature","id":"geom_evt_20240807_southeast_2024_08_07_rain_d1_hover","properties":{"event_id":"evt_20240804_southeast_2024_08_04_rain","day_index":4,"geometry_role":"hover_geometry"},"geometry":{"type":"Polygon","coordinates":[[[-80.9,33.29],[-80.9,33.26],[-80.9,33.23],[-80.88,32.96],[-80.88,32.94],[-80.88,32.92],[-80.87,32.9],[-80.84,32.83],[-80.72,32.58],[-80.71,32.56],[-80.69,32.53],[-80.67,32.51],[-80.5,32.36],[-80.5,32.35],[-80.49,32.35],[-80.48,32.35],[-80.47,32.35],[-80.45,32.35],[-80.44,32.35],[-80.43,32.35],[-80.42,32.36],[-79.93,32.65],[-79.66,32.82],[-76.65,34.75],[-76.64,34.76],[-76.63,34.77],[-76.63,34.78],[-76.63,34.79],[-76.63,34.83],[-76.64,34.85],[-76.65,34.87],[-76.65,34.9],[-76.73,35.05],[-76.74,35.06],[-76.76,35.09],[-76.77,35.1],[-76.82,35.16],[-76.87,35.21],[-76.93,35.27],[-76.99,35.32],[-77.03,35.36],[-77.05,35.37],[-77.26,35.53],[-77.27,35.54],[-77.29,35.55],[-77.38,35.59],[-77.41,35.6],[-77.99,35.81],[-78.02,35.82],[-78.05,35.83],[-78.08,35.83],[-78.55,35.88],[-78.58,35.89],[-78.61,35.89],[-78.65,35.89],[-78.68,35.89],[-78.71,35.89],[-78.75,35.89],[-78.78,35.88],[-79,35.86],[-79.01,35.86],[-79.12,35.83],[-79.14,35.82],[-79.17,35.82],[-79.26,35.77],[-79.28,35.76],[-79.61,35.54],[-79.62,35.53],[-79.67,35.49],[-80.04,35.14],[-80.06,35.13],[-80.07,35.11],[-80.12,35.05],[-80.16,34.98],[-80.34,34.74],[-80.39,34.66],[-80.4,34.64],[-80.43,34.61],[-80.44,34.59],[-80.6,34.26],[-80.61,34.24],[-80.77,33.84],[-80.78,33.82],[-80.89,33.41],[-80.89,33.38],[-80.9,33.35],[-80.9,33.32],[-80.9,33.29]]]}},{"type":"Feature","id":"geom_evt_20240808_mid_atlantic_2024_08_08_rain_d1_hover","properties":{"event_id":"evt_20240808_mid_atlantic_2024_08_08_rain","day_index":1,"geometry_role":"hover_geometry"},"geometry":{"type":"Polygon","coordinates":[[[-81.67,35],[-81.67,34.97],[-81.67,34.94],[-81.67,34.91],[-81.67,34.88],[-81.66,34.86],[-81.62,34.69],[-81.61,34.66],[-81.6,34.64],[-81.59,34.62],[-81.57,34.59],[-81.55,34.58],[-81.54,34.56],[-81.52,34.55],[-81.5,34.54],[-81.49,34.53],[-81.46,34.52],[-78.93,33.66],[-78.92,33.66],[-78.9,33.66],[-78.02,33.92],[-77.99,33.93],[-77.97,33.94],[-77.94,33.96],[-77.03,34.68],[-77.02,34.69],[-77.01,34.71],[-76.99,34.73],[-76.99,34.75],[-76.98,34.78],[-76.98,34.81],[-76.98,34.84],[-76.98,34.87],[-76.98,34.9],[-76.98,34.92],[-77.77,39.17],[-77.83,39.45],[-77.83,39.47],[-77.84,39.49],[-77.86,39.54],[-77.87,39.56],[-77.88,39.58],[-78.05,39.85],[-78.06,39.87],[-78.08,39.9],[-78.1,39.91],[-78.15,39.97],[-78.21,40.03],[-78.25,40.07],[-78.27,40.08],[-78.28,40.09],[-78.37,40.14],[-78.38,40.15],[-78.41,40.17],[-78.43,40.17],[-78.44,40.18],[-78.46,40.18],[-78.48,40.17],[-78.59,40.15],[-78.62,40.15],[-78.64,40.14],[-78.66,40.13],[-78.68,40.12],[-78.86,40.02],[-78.88,40.01],[-79.16,39.74],[-79.18,39.73],[-79.2,39.7],[-79.45,39.39],[-79.94,38.68],[-80.16,38.36],[-80.65,37.63],[-80.88,37.25],[-81.1,36.86],[-81.31,36.47],[-81.32,36.45],[-81.5,36.01],[-81.51,35.99],[-81.55,35.87],[-81.55,35.84],[-81.56,35.81],[-81.61,35.57],[-81.61,35.54],[-81.67,35.09],[-81.67,35.06],[-81.67,35.03],[-81.67,35]]]}},{"type":"Feature","id":"geom_evt_2024_al04_debby_d1_hover","properties":{"event_id":"evt_2024_al04_debby","day_index":1,"geometry_role":"hover_geometry"},"geometry":{"type":"Polygon","coordinates":[[[-79,20.6],[-78.8,19.96],[-78.25,19.5],[-77.5,19.33],[-76.75,19.5],[-76.2,19.96],[-76,20.6],[-76.2,21.24],[-76.75,21.7],[-77.5,21.88],[-78.25,21.7],[-78.8,21.24],[-79,20.6]]]}},{"type":"Feature","id":"geom_evt_2024_al04_debby_d2_hover","properties":{"event_id":"evt_2024_al04_debby","day_index":2,"geometry_role":"hover_geometry"},"geometry":{"type":"Polygon","coordinates":[[[-84.8,23.1],[-84.51,22.17],[-83.7,21.48],[-82.6,21.23],[-81.5,21.48],[-80.69,22.17],[-80.4,23.1],[-80.69,24.04],[-81.5,24.72],[-82.6,24.97],[-83.7,24.72],[-84.51,24.04],[-84.8,23.1]]]}},{"type":"Feature","id":"geom_evt_2024_al04_debby_d3_hover","properties":{"event_id":"evt_2024_al04_debby","day_index":3,"geometry_role":"hover_geometry"},"geometry":{"type":"Polygon","coordinates":[[[-86.5,27.3],[-86.21,26.37],[-85.4,25.68],[-84.3,25.43],[-83.2,25.68],[-82.39,26.37],[-82.1,27.3],[-82.39,28.24],[-83.2,28.92],[-84.3,29.17],[-85.4,28.92],[-86.21,28.24],[-86.5,27.3]]]}},{"type":"Feature","id":"geom_evt_2024_al04_debby_d4_hover","properties":{"event_id":"evt_2024_al04_debby","day_index":4,"geometry_role":"hover_geometry"},"geometry":{"type":"Polygon","coordinates":[[[-85.2,30.4],[-84.91,29.47],[-84.1,28.78],[-83,28.53],[-81.9,28.78],[-81.09,29.46],[-80.8,30.4],[-81.09,31.33],[-81.9,32.02],[-83,32.27],[-84.1,32.02],[-84.91,31.33],[-85.2,30.4]]]}},{"type":"Feature","id":"geom_evt_2024_al04_debby_d5_hover","properties":{"event_id":"evt_2024_al04_debby","day_index":5,"geometry_role":"hover_geometry"},"geometry":{"type":"Polygon","coordinates":[[[-83.3,32],[-83.01,31.07],[-82.2,30.38],[-81.1,30.13],[-80,30.38],[-79.19,31.07],[-78.9,32],[-79.19,32.94],[-80,33.62],[-81.1,33.87],[-82.2,33.62],[-83.01,32.94],[-83.3,32]]]}},{"type":"Feature","id":"geom_evt_2024_al04_debby_d6_hover","properties":{"event_id":"evt_2024_al04_debby","day_index":6,"geometry_role":"hover_geometry"},"geometry":{"type":"Polygon","coordinates":[[[-81.4,32.5],[-81.11,31.57],[-80.3,30.88],[-79.2,30.63],[-78.1,30.88],[-77.29,31.57],[-77,32.5],[-77.29,33.44],[-78.1,34.12],[-79.2,34.37],[-80.3,34.12],[-81.11,33.44],[-81.4,32.5]]]}},{"type":"Feature","id":"geom_evt_2024_al04_debby_d7_hover","properties":{"event_id":"evt_2024_al04_debby","day_index":7,"geometry_role":"hover_geometry"},"geometry":{"type":"Polygon","coordinates":[[[-82.5,34.6],[-82.21,33.67],[-81.4,32.98],[-80.3,32.73],[-79.2,32.98],[-78.39,33.67],[-78.1,34.6],[-78.39,35.54],[-79.2,36.22],[-80.3,36.47],[-81.4,36.22],[-82.21,35.54],[-82.5,34.6]]]}},{"type":"Feature","id":"geom_evt_2024_al04_debby_d8_hover","properties":{"event_id":"evt_2024_al04_debby","day_index":8,"geometry_role":"hover_geometry"},"geometry":{"type":"Polygon","coordinates":[[[-78,42.8],[-77.8,42.16],[-77.25,41.7],[-76.5,41.53],[-75.75,41.7],[-75.2,42.16],[-75,42.8],[-75.2,43.44],[-75.75,43.9],[-76.5,44.08],[-77.25,43.9],[-77.8,43.44],[-78,42.8]]]}},{"type":"Feature","id":"geom_evt_2024_al04_debby_d9_hover","properties":{"event_id":"evt_2024_al04_debby","day_index":9,"geometry_role":"hover_geometry"},"geometry":{"type":"Polygon","coordinates":[[[-61.7,50],[-61.41,49.07],[-60.6,48.38],[-59.5,48.13],[-58.4,48.38],[-57.59,49.07],[-57.3,50],[-57.59,50.94],[-58.4,51.62],[-59.5,51.87],[-60.6,51.62],[-61.41,50.94],[-61.7,50]]]}},{"type":"Feature","id":"geom_evt_2024_al05_ernesto_d1_hover","properties":{"event_id":"evt_2024_al05_ernesto","day_index":1,"geometry_role":"hover_geometry"},"geometry":{"type":"Polygon","coordinates":[[[-48.7,14.4],[-48.5,13.76],[-47.95,13.3],[-47.2,13.13],[-46.45,13.3],[-45.9,13.76],[-45.7,14.4],[-45.9,15.04],[-46.45,15.5],[-47.2,15.68],[-47.95,15.5],[-48.5,15.04],[-48.7,14.4]]]}},{"type":"Feature","id":"geom_evt_2024_al05_ernesto_d2_hover","properties":{"event_id":"evt_2024_al05_ernesto","day_index":2,"geometry_role":"hover_geometry"},"geometry":{"type":"Polygon","coordinates":[[[-58.8,15.9],[-58.51,14.97],[-57.7,14.28],[-56.6,14.03],[-55.5,14.28],[-54.69,14.97],[-54.4,15.9],[-54.69,16.84],[-55.5,17.52],[-56.6,17.77],[-57.7,17.52],[-58.51,16.84],[-58.8,15.9]]]}},{"type":"Feature","id":"geom_evt_2024_al05_ernesto_d3_hover","properties":{"event_id":"evt_2024_al05_ernesto","day_index":3,"geometry_role":"hover_geometry"},"geometry":{"type":"Polygon","coordinates":[[[-66.9,18.3],[-66.61,17.37],[-65.8,16.68],[-64.7,16.43],[-63.6,16.68],[-62.79,17.36],[-62.5,18.3],[-62.79,19.24],[-63.6,19.92],[-64.7,20.17],[-65.8,19.92],[-66.61,19.24],[-66.9,18.3]]]}},{"type":"Feature","id":"geom_evt_2024_al05_ernesto_d4_hover","properties":{"event_id":"evt_2024_al05_ernesto","day_index":4,"geometry_role":"hover_geometry"},"geometry":{"type":"Polygon","coordinates":[[[-71,21.1],[-70.6,19.83],[-69.5,18.89],[-68,18.55],[-66.5,18.89],[-65.4,19.83],[-65,21.1],[-65.4,22.38],[-66.5,23.31],[-68,23.65],[-69.5,23.31],[-70.6,22.38],[-71,21.1]]]}},{"type":"Feature","id":"geom_evt_2024_al05_ernesto_d5_hover","properties":{"event_id":"evt_2024_al05_ernesto","day_index":5,"geometry_role":"hover_geometry"},"geometry":{"type":"Polygon","coordinates":[[[-72,25.6],[-71.6,24.33],[-70.5,23.39],[-69,23.05],[-67.5,23.39],[-66.4,24.33],[-66,25.6],[-66.4,26.88],[-67.5,27.81],[-69,28.15],[-70.5,27.81],[-71.6,26.88],[-72,25.6]]]}},{"type":"Feature","id":"geom_evt_2024_al05_ernesto_d6_hover","properties":{"event_id":"evt_2024_al05_ernesto","day_index":6,"geometry_role":"hover_geometry"},"geometry":{"type":"Polygon","coordinates":[[[-69.1,30],[-68.7,28.73],[-67.6,27.79],[-66.1,27.45],[-64.6,27.79],[-63.5,28.73],[-63.1,30],[-63.5,31.28],[-64.6,32.21],[-66.1,32.55],[-67.6,32.21],[-68.7,31.28],[-69.1,30]]]}},{"type":"Feature","id":"geom_evt_2024_al05_ernesto_d7_hover","properties":{"event_id":"evt_2024_al05_ernesto","day_index":7,"geometry_role":"hover_geometry"},"geometry":{"type":"Polygon","coordinates":[[[-67.2,33],[-66.8,31.73],[-65.7,30.79],[-64.2,30.45],[-62.7,30.79],[-61.6,31.73],[-61.2,33],[-61.6,34.28],[-62.7,35.21],[-64.2,35.55],[-65.7,35.21],[-66.8,34.28],[-67.2,33]]]}},{"type":"Feature","id":"geom_evt_2024_al05_ernesto_d8_hover","properties":{"event_id":"evt_2024_al05_ernesto","day_index":8,"geometry_role":"hover_geometry"},"geometry":{"type":"Polygon","coordinates":[[[-65.6,36.4],[-65.2,35.13],[-64.1,34.19],[-62.6,33.85],[-61.1,34.19],[-60,35.13],[-59.6,36.4],[-60,37.67],[-61.1,38.61],[-62.6,38.95],[-64.1,38.61],[-65.2,37.67],[-65.6,36.4]]]}},{"type":"Feature","id":"geom_evt_2024_al05_ernesto_d9_hover","properties":{"event_id":"evt_2024_al05_ernesto","day_index":9,"geometry_role":"hover_geometry"},"geometry":{"type":"Polygon","coordinates":[[[-61.1,42.8],[-60.7,41.53],[-59.6,40.59],[-58.1,40.25],[-56.6,40.59],[-55.5,41.53],[-55.1,42.8],[-55.5,44.08],[-56.6,45.01],[-58.1,45.35],[-59.6,45.01],[-60.7,44.08],[-61.1,42.8]]]}},{"type":"Feature","id":"geom_evt_2024_al05_ernesto_d10_hover","properties":{"event_id":"evt_2024_al05_ernesto","day_index":10,"geometry_role":"hover_geometry"},"geometry":{"type":"Polygon","coordinates":[[[-44.1,49.7],[-43.81,48.77],[-43,48.08],[-41.9,47.83],[-40.8,48.08],[-39.99,48.77],[-39.7,49.7],[-39.99,50.64],[-40.8,51.32],[-41.9,51.57],[-43,51.32],[-43.81,50.64],[-44.1,49.7]]]}},{"type":"Feature","id":"geom_evt_20240812_northern_california_2024_08_12_fire_d1_hover","properties":{"event_id":"evt_20240812_northern_california_2024_08_12_fire","day_index":1,"geometry_role":"hover_geometry"},"geometry":{"type":"Polygon","coordinates":[[[-120.22,40.42],[-120.12,39.98],[-119.71,39.04],[-119.45,38.72],[-119.1,38.62],[-118.65,38.7],[-118.25,38.92],[-117.85,39.25],[-117.65,39.7],[-117.66,40.11],[-117.78,40.61],[-118.06,41.11],[-118.33,41.33],[-118.78,41.38],[-119.29,41.26],[-119.9,40.94],[-120.15,40.72],[-120.22,40.42]]]}},{"type":"Feature","id":"geom_evt_20240817_northern_california_2024_08_17_fire_d1_hover","properties":{"event_id":"evt_20240817_northern_california_2024_08_17_fire","day_index":1,"geometry_role":"hover_geometry"},"geometry":{"type":"Polygon","coordinates":[[[-120.4,42.77],[-120.34,41.85],[-118.81,38.48],[-118.19,37.92],[-117.68,37.55],[-117.06,37.14],[-116.6,37.25],[-116.47,39.74],[-117.38,42.85],[-117.62,43.23],[-117.9,43.4],[-118.14,43.5],[-118.95,43.6],[-119.53,43.64],[-120.03,43.34],[-120.34,43.05],[-120.4,42.77]]]}},{"type":"Feature","id":"geom_evt_20240818_northern_california_2024_08_18_fire_d1_hover","properties":{"event_id":"evt_20240817_northern_california_2024_08_17_fire","day_index":2,"geometry_role":"hover_geometry"},"geometry":{"type":"Polygon","coordinates":[[[-118,38.07],[-117.09,37.34],[-116.78,37.49],[-116.44,37.69],[-116.1,38.24],[-115.7,39.1],[-115.83,40.09],[-116.46,40.2],[-117.14,39.81],[-117.98,38.94],[-118,38.07]]]}},{"type":"Feature","id":"geom_evt_20240822_northern_california_2024_08_22_fire_d1_hover","properties":{"event_id":"evt_20240822_northern_california_2024_08_22_fire","day_index":1,"geometry_role":"hover_geometry"},"geometry":{"type":"Polygon","coordinates":[[[-117.45,37.94],[-117.29,37.51],[-116.64,36.81],[-115.81,36.42],[-115.48,36.42],[-115.3,36.49],[-115.13,36.85],[-114.43,41.23],[-114.54,41.58],[-114.92,41.49],[-115.46,40.96],[-117.23,38.87],[-117.45,37.94]]]}},{"type":"Feature","id":"geom_evt_20240823_desert_southwest_2024_08_23_fire_d1_hover","properties":{"event_id":"evt_20240823_desert_southwest_2024_08_23_fire","day_index":1,"geometry_role":"hover_geometry"},"geometry":{"type":"Polygon","coordinates":[[[-116.82,37.41],[-116.65,36.95],[-116.34,36.6],[-115.56,36.24],[-114.53,36.4],[-114.07,36.89],[-113.32,39.26],[-113.05,40.37],[-113.04,41.77],[-113.16,42.66],[-113.61,43.13],[-114.22,43.22],[-114.8,42.93],[-115.41,41.95],[-115.64,41.54],[-116.82,37.41]]]}},{"type":"Feature","id":"geom_evt_20240824_northern_rockies_2024_08_24_fire_d1_hover","properties":{"event_id":"evt_20240824_northern_rockies_2024_08_24_fire","day_index":1,"geometry_role":"hover_geometry"},"geometry":{"type":"Polygon","coordinates":[[[-115.16,37.66],[-114.9,37.09],[-114.01,36.98],[-113.28,37.39],[-104.9,42.78],[-104.49,43.19],[-104.43,43.89],[-105.13,44.41],[-105.99,44.75],[-108.58,44.38],[-113.24,40.74],[-113.8,40.12],[-114.97,38.14],[-115.16,37.66]]]}},{"type":"Feature","id":"geom_evt_20240809_great_lakes_2024_08_09_rain_d1_hover","properties":{"event_id":"evt_20240809_great_lakes_2024_08_09_rain","day_index":1,"geometry_role":"hover_geometry"},"geometry":{"type":"Polygon","coordinates":[[[-78.17,41.81],[-78.17,41.79],[-78.17,41.77],[-78.16,41.75],[-78.14,41.72],[-78.13,41.7],[-78.12,41.69],[-78.11,41.67],[-78.1,41.66],[-77.85,41.44],[-77.8,41.4],[-77.78,41.39],[-77.77,41.38],[-77.51,41.22],[-77.49,41.21],[-77.4,41.16],[-77.38,41.15],[-77.29,41.11],[-77.27,41.1],[-77.18,41.06],[-76.9,40.95],[-76.87,40.94],[-76.71,40.88],[-76.57,40.83],[-76.54,40.83],[-76.51,40.82],[-76.26,40.77],[-76.23,40.77],[-76.2,40.76],[-76.17,40.76],[-75.81,40.76],[-75.45,40.82],[-75.42,40.83],[-75.39,40.84],[-75.17,40.94],[-75.1,40.98],[-75.08,41],[-75.07,41.01],[-75.05,41.02],[-74.92,41.16],[-74.9,41.18],[-74.72,41.41],[-74.56,41.64],[-74.55,41.65],[-74.39,41.92],[-74.29,42.11],[-74.28,42.13],[-73.51,44.05],[-73.39,44.35],[-73.38,44.37],[-73.36,44.46],[-73.36,44.48],[-73.35,44.49],[-73.33,44.84],[-73.33,44.87],[-73.33,44.89],[-73.33,45.07],[-73.34,45.09],[-73.34,45.11],[-73.35,45.13],[-73.36,45.15],[-73.38,45.16],[-73.41,45.17],[-73.43,45.18],[-73.47,45.18],[-73.5,45.19],[-73.53,45.19],[-73.57,45.19],[-73.64,45.19],[-74.57,45.19],[-74.68,45.19],[-74.75,45.18],[-74.78,45.18],[-74.82,45.18],[-74.85,45.18],[-74.88,45.17],[-74.91,45.16],[-75.21,45.06],[-75.23,45.05],[-75.25,45.04],[-75.5,44.9],[-75.52,44.89],[-75.53,44.88],[-75.58,44.84],[-75.63,44.78],[-76.31,44.11],[-76.32,44.1],[-77.24,43.18],[-77.25,43.17],[-77.29,43.12],[-77.39,43],[-77.79,42.43],[-78,42.12],[-78.02,42.1],[-78.07,42.01],[-78.14,41.89],[-78.16,41.86],[-78.16,41.84],[-78.17,41.83],[-78.17,41.81]]]}},{"type":"Feature","id":"geom_evt_20240806_great_lakes_2024_08_06_severe_d1_hover","properties":{"event_id":"evt_20240806_great_lakes_2024_08_06_severe","day_index":1,"geometry_role":"hover_geometry"},"geometry":{"type":"Polygon","coordinates":[[[-81.21,41.06],[-80.32,40.61],[-76.96,40.13],[-75.37,40.06],[-75.17,40.64],[-75.31,41.02],[-76.62,41.23],[-80.08,41.67],[-80.78,41.51],[-81.21,41.06]]]}},{"type":"Feature","id":"geom_evt_20240828_northern_plains_2024_08_28_severe_d1_hover","properties":{"event_id":"evt_20240828_northern_plains_2024_08_28_severe","day_index":1,"geometry_role":"hover_geometry"},"geometry":{"type":"Polygon","coordinates":[[[-101.07,45.5],[-100.67,45.22],[-99.98,45.18],[-99.28,45.37],[-98.81,45.9],[-98.89,46.66],[-99.1,46.93],[-100.24,47.1],[-100.74,46.97],[-100.96,46.74],[-101.07,45.5]]]}},{"type":"Feature","id":"geom_evt_20240826_upper_midwest_2024_08_26_severe_d1_hover","properties":{"event_id":"evt_20240826_upper_midwest_2024_08_26_severe","day_index":1,"geometry_role":"hover_geometry"},"geometry":{"type":"Polygon","coordinates":[[[-103.25,43.49],[-103.07,43.05],[-98.27,42.62],[-92.19,43.8],[-91.55,44.1],[-91.21,44.61],[-91.04,45.13],[-91.81,45.83],[-93.16,46.21],[-95.27,46.21],[-98.48,45.47],[-100.96,44.68],[-103.15,43.89],[-103.25,43.49]]]}},{"type":"Feature","id":"geom_evt_20240829_upper_midwest_2024_08_29_severe_d1_hover","properties":{"event_id":"evt_20240829_upper_midwest_2024_08_29_severe","day_index":1,"geometry_role":"hover_geometry"},"geometry":{"type":"Polygon","coordinates":[[[-94.62,45.47],[-94.6,44.57],[-94.29,44.06],[-92.71,44.29],[-92.15,44.67],[-92.19,45.58],[-92.81,45.96],[-93.49,46.15],[-94.39,46.12],[-94.62,45.47]]]}},{"type":"Feature","id":"geom_evt_20240801_mid_atlantic_2024_08_01_severe_d1_hover","properties":{"event_id":"evt_20240801_mid_atlantic_2024_08_01_severe","day_index":1,"geometry_role":"hover_geometry"},"geometry":{"type":"Polygon","coordinates":[[[-89.64,38.44],[-89.61,37.79],[-88.53,36.82],[-83.23,36.78],[-81.59,38.36],[-81.27,40.23],[-82.52,40.82],[-83.67,41.02],[-86.84,41.01],[-89.64,38.44]]]}},{"type":"Feature","id":"geom_evt_20240803_mid_atlantic_2024_08_03_severe_d1_hover","properties":{"event_id":"evt_20240803_mid_atlantic_2024_08_03_severe","day_index":1,"geometry_role":"hover_geometry"},"geometry":{"type":"Polygon","coordinates":[[[-97.91,45.66],[-97.9,44.3],[-97.17,43.52],[-80.35,34.66],[-79.39,34.56],[-78.65,34.76],[-78.13,35.16],[-77.43,35.87],[-73.14,40.51],[-73,41.21],[-73.75,41.58],[-93.89,46.62],[-94.83,46.66],[-96.47,46.29],[-97.47,46],[-97.91,45.66]]]}},{"type":"Feature","id":"geom_evt_20240805_mid_atlantic_2024_08_05_severe_d1_hover","properties":{"event_id":"evt_20240805_mid_atlantic_2024_08_05_severe","day_index":1,"geometry_role":"hover_geometry"},"geometry":{"type":"Polygon","coordinates":[[[-95.33,43.77],[-95.08,43.33],[-82.52,27.92],[-82.05,27.58],[-81.58,27.82],[-69.24,43.55],[-69.07,44.24],[-69.64,44.5],[-94.24,44.58],[-95.22,44.18],[-95.33,43.77]]]}},{"type":"Feature","id":"geom_evt_20240808_mid_atlantic_2024_08_08_severe_d1_hover","properties":{"event_id":"evt_20240808_mid_atlantic_2024_08_08_severe","day_index":1,"geometry_role":"hover_geometry"},"geometry":{"type":"Polygon","coordinates":[[[-79.17,37.34],[-78.69,35.28],[-76.84,34.36],[-76.54,34.25],[-76.26,34.38],[-75.28,34.98],[-75.17,35.24],[-75.12,35.65],[-75.63,36.91],[-77.46,39.43],[-78.16,39.68],[-79.02,39.5],[-79.15,38.14],[-79.17,37.34]]]}},{"type":"Feature","id":"geom_evt_20240827_mid_atlantic_2024_08_27_severe_d1_hover","properties":{"event_id":"evt_20240827_mid_atlantic_2024_08_27_severe","day_index":1,"geometry_role":"hover_geometry"},"geometry":{"type":"Polygon","coordinates":[[[-93.75,41.19],[-93.19,40.73],[-91.23,39.93],[-82.24,41.18],[-79.93,41.67],[-79.28,41.93],[-77.61,43.05],[-77.41,43.44],[-77.46,43.62],[-82.36,44.72],[-87.2,45.14],[-88.26,44.87],[-93.54,41.59],[-93.75,41.19]]]}},{"type":"Feature","id":"geom_evt_20240830_mid_atlantic_2024_08_30_severe_d1_hover","properties":{"event_id":"evt_20240830_mid_atlantic_2024_08_30_severe","day_index":1,"geometry_role":"hover_geometry"},"geometry":{"type":"Polygon","coordinates":[[[-84.21,43.51],[-84.19,43.26],[-84.07,42.61],[-83.9,42.15],[-83.25,42.08],[-83.16,42.12],[-82.73,42.36],[-82.48,42.62],[-82.1,43.62],[-82.2,44.15],[-82.21,44.18],[-83.43,44.01],[-84.15,43.74],[-84.21,43.51]]]}},{"type":"Feature","id":"geom_evt_20240804_southeast_2024_08_04_severe_d1_hover","properties":{"event_id":"evt_20240804_southeast_2024_08_04_severe","day_index":1,"geometry_role":"hover_geometry"},"geometry":{"type":"Polygon","coordinates":[[[-109.21,45.84],[-108.54,45.19],[-83.28,24.44],[-81.66,24.92],[-81.11,25.89],[-80.87,27.05],[-80.79,28.96],[-81.39,30.9],[-105.29,46.82],[-108.32,46.81],[-109.21,46.34],[-109.21,45.84]]]}},{"type":"Feature","id":"geom_evt_20240818_southeast_2024_08_18_severe_d1_hover","properties":{"event_id":"evt_20240818_southeast_2024_08_18_severe","day_index":1,"geometry_role":"hover_geometry"},"geometry":{"type":"Polygon","coordinates":[[[-98.47,39.74],[-95.28,35.44],[-94.18,34.31],[-91.58,32.12],[-88.6,30.15],[-86.85,30.24],[-83.15,30.89],[-81.34,31.72],[-78.32,33.88],[-77.22,34.95],[-74.89,38.57],[-74.37,39.97],[-74.38,40.87],[-75.18,41.31],[-97.56,40.01],[-98.47,39.74]]]}},{"type":"Feature","id":"geom_evt_20240809_great_lakes_2024_08_09_severe_d1_hover","properties":{"event_id":"evt_20240809_great_lakes_2024_08_09_severe","day_index":1,"geometry_role":"hover_geometry"},"geometry":{"type":"Polygon","coordinates":[[[-76.39,39.93],[-75.4,39.54],[-74.28,39.66],[-73.77,40.22],[-73.19,41.68],[-72.57,43.7],[-72.54,44.3],[-73.11,44.59],[-73.94,44.62],[-75.58,43.14],[-76.23,42.27],[-76.39,39.93]]]}},{"type":"Feature","id":"geom_evt_20240831_great_lakes_2024_08_31_severe_d1_hover","properties":{"event_id":"evt_20240831_great_lakes_2024_08_31_severe","day_index":1,"geometry_role":"hover_geometry"},"geometry":{"type":"Polygon","coordinates":[[[-81.96,38.64],[-81.37,38.27],[-80.52,37.98],[-79.26,38.03],[-78.42,38.52],[-77.57,39.32],[-76.72,40.54],[-76.62,41.16],[-76.75,42.24],[-77.28,42.6],[-78.08,42.35],[-79.38,41.54],[-81.88,39.55],[-81.96,38.64]]]}},{"type":"Feature","id":"geom_evt_20240807_northern_plains_2024_08_07_severe_d1_hover","properties":{"event_id":"evt_20240807_northern_plains_2024_08_07_severe","day_index":1,"geometry_role":"hover_geometry"},"geometry":{"type":"Polygon","coordinates":[[[-104.81,41.3],[-103.65,40.15],[-102,39.38],[-101,39.32],[-99.82,39.78],[-99.67,40.38],[-99.7,40.93],[-100.17,41.63],[-102.35,41.98],[-104.07,42.09],[-104.74,41.79],[-104.81,41.3]]]}},{"type":"Feature","id":"geom_evt_20240811_northern_plains_2024_08_11_severe_d1_hover","properties":{"event_id":"evt_20240811_northern_plains_2024_08_11_severe","day_index":1,"geometry_role":"hover_geometry"},"geometry":{"type":"Polygon","coordinates":[[[-104.03,43.92],[-103.6,40.51],[-102.92,39.17],[-101.92,39.05],[-101.24,39.49],[-99.78,43.47],[-100.64,44.24],[-104.02,44.45],[-104.03,43.92]]]}},{"type":"Feature","id":"geom_evt_20240813_northern_plains_2024_08_13_severe_d1_hover","properties":{"event_id":"evt_20240813_northern_plains_2024_08_13_severe","day_index":1,"geometry_role":"hover_geometry"},"geometry":{"type":"Polygon","coordinates":[[[-104.08,39.87],[-103.89,39.37],[-103.32,39.25],[-101.93,39.04],[-100.85,39.62],[-100.04,40.28],[-99.97,40.98],[-101.09,41.47],[-102.28,41.4],[-103.64,40.92],[-104.01,40.36],[-104.08,39.87]]]}},{"type":"Feature","id":"geom_evt_20240821_northern_plains_2024_08_21_severe_d1_hover","properties":{"event_id":"evt_20240821_northern_plains_2024_08_21_severe","day_index":1,"geometry_role":"hover_geometry"},"geometry":{"type":"Polygon","coordinates":[[[-109.46,47.06],[-108.88,46.46],[-101.33,43.04],[-100.08,43.71],[-101.38,48.99],[-105.6,49.01],[-106.74,49],[-109.46,47.06]]]}},{"type":"Feature","id":"geom_evt_20240825_northern_plains_2024_08_25_severe_d1_hover","properties":{"event_id":"evt_20240825_northern_plains_2024_08_25_severe","day_index":1,"geometry_role":"hover_geometry"},"geometry":{"type":"Polygon","coordinates":[[[-110.71,38.43],[-110.7,37.55],[-110.07,36.21],[-109.54,36.15],[-108.22,36.75],[-97.8,42.93],[-96.23,44.18],[-94.83,45.55],[-92.3,48.44],[-94.88,49.36],[-95.19,49.34],[-98.29,49],[-109.75,41.8],[-110.45,41],[-110.71,38.43]]]}},{"type":"Feature","id":"geom_evt_20240814_upper_midwest_2024_08_14_severe_d1_hover","properties":{"event_id":"evt_20240814_upper_midwest_2024_08_14_severe","day_index":1,"geometry_role":"hover_geometry"},"geometry":{"type":"Polygon","coordinates":[[[-98.27,39.01],[-97.99,38.35],[-96.56,38.28],[-94.36,38.78],[-93.47,39.43],[-93.23,40.6],[-94.06,41.87],[-95.12,42.08],[-95.98,42.13],[-96.73,41.87],[-97.38,40.95],[-98.27,39.01]]]}},{"type":"Feature","id":"geom_evt_20240815_southern_plains_2024_08_15_severe_d1_hover","properties":{"event_id":"evt_20240815_southern_plains_2024_08_15_severe","day_index":1,"geometry_role":"hover_geometry"},"geometry":{"type":"Polygon","coordinates":[[[-99.1,35.73],[-99.09,35.17],[-97.92,35],[-89.1,36.78],[-88.04,37.38],[-87.16,38.55],[-86.88,40.42],[-87.25,41.75],[-88.18,42.36],[-88.92,42.68],[-89.9,42.54],[-95.47,41.03],[-99.1,35.73]]]}},{"type":"Feature","id":"geom_evt_20240816_southern_plains_2024_08_16_severe_d1_hover","properties":{"event_id":"evt_20240815_southern_plains_2024_08_15_severe","day_index":2,"geometry_role":"hover_geometry"},"geometry":{"type":"Polygon","coordinates":[[[-100.82,38.44],[-100.64,37.47],[-97.79,36.23],[-94.58,35.17],[-93.26,34.95],[-92.38,35.39],[-91.9,36.38],[-98.1,38.89],[-98.98,39.11],[-100.06,39.09],[-100.82,38.44]]]}},{"type":"Feature","id":"geom_evt_20240817_northern_rockies_2024_08_17_severe_d1_hover","properties":{"event_id":"evt_20240817_northern_rockies_2024_08_17_severe","day_index":1,"geometry_role":"hover_geometry"},"geometry":{"type":"Polygon","coordinates":[[[-122.86,42.83],[-112.88,36.75],[-85.77,36.18],[-84.01,36.67],[-82.15,38.13],[-81.93,39.59],[-120.7,46.74],[-121.61,46.77],[-122.13,46.41],[-122.86,42.83]]]}},{"type":"Feature","id":"geom_evt_20240819_northern_rockies_2024_08_19_severe_d1_hover","properties":{"event_id":"evt_20240819_northern_rockies_2024_08_19_severe","day_index":1,"geometry_role":"hover_geometry"},"geometry":{"type":"Polygon","coordinates":[[[-113.24,46.68],[-113.15,46.21],[-104.56,38.24],[-104.19,38.24],[-103.26,38.9],[-102.97,40],[-102.5,43.46],[-102.71,44.36],[-104.42,47.76],[-105.07,48.07],[-109.95,48.99],[-112.18,49],[-113.24,46.68]]]}},{"type":"Feature","id":"geom_evt_20240820_northern_rockies_2024_08_20_severe_d1_hover","properties":{"event_id":"evt_20240819_northern_rockies_2024_08_19_severe","day_index":2,"geometry_role":"hover_geometry"},"geometry":{"type":"Polygon","coordinates":[[[-111.02,46.61],[-110.43,45.74],[-108.45,45.55],[-106.74,46.01],[-105.7,47.54],[-106.92,48.55],[-109.78,47.67],[-111.02,46.61]]]}},{"type":"Feature","id":"geom_evt_20240822_central_plains_2024_08_22_severe_d1_hover","properties":{"event_id":"evt_20240822_central_plains_2024_08_22_severe","day_index":1,"geometry_role":"hover_geometry"},"geometry":{"type":"Polygon","coordinates":[[[-103.65,39.27],[-103.52,38.04],[-103.32,37.92],[-102.02,37.94],[-100.94,38.31],[-99.81,39.36],[-100.02,39.99],[-100.39,40.46],[-101.37,40.83],[-102.61,40.75],[-103.22,40.18],[-103.65,39.27]]]}},{"type":"Feature","id":"geom_evt_20240823_desert_southwest_2024_08_23_severe_d1_hover","properties":{"event_id":"evt_20240823_desert_southwest_2024_08_23_severe","day_index":1,"geometry_role":"hover_geometry"},"geometry":{"type":"Polygon","coordinates":[[[-115.68,48.99],[-115.64,48.35],[-115.41,47.55],[-114.43,46.77],[-113.12,46.72],[-110.97,47.09],[-110.41,47.72],[-110.82,48.99],[-113.12,49],[-115.68,48.99]]]}}]}