{"type":"FeatureCollection","features":[{"type":"Feature","id":"geom_evt_20240506_southern_plains_2024_05_06_severe_d1_hover","properties":{"event_id":"evt_20240506_southern_plains_2024_05_06_severe","day_index":1,"geometry_role":"hover_geometry"},"geometry":{"type":"Polygon","coordinates":[[[-98.88,35.02],[-96.28,35.02],[-96.28,37.65],[-98.88,37.65],[-98.88,35.02]]]}},{"type":"Feature","id":"geom_evt_20240508_mid_atlantic_2024_05_08_severe_d1_hover","properties":{"event_id":"evt_20240508_mid_atlantic_2024_05_08_severe","day_index":1,"geometry_role":"hover_geometry"},"geometry":{"type":"Polygon","coordinates":[[[-93.07,35.55],[-85.17,35.55],[-85.17,38.27],[-93.07,38.27],[-93.07,35.55]]]}},{"type":"Feature","id":"geom_evt_20240519_southern_plains_2024_05_19_severe_d1_hover","properties":{"event_id":"evt_20240519_southern_plains_2024_05_19_severe","day_index":1,"geometry_role":"hover_geometry"},"geometry":{"type":"Polygon","coordinates":[[[-100.92,37.18],[-96.72,37.18],[-96.72,39.11],[-100.92,39.11],[-100.92,37.18]]]}},{"type":"Feature","id":"geom_evt_20240521_upper_midwest_2024_05_21_severe_d1_hover","properties":{"event_id":"evt_20240521_upper_midwest_2024_05_21_severe","day_index":1,"geometry_role":"hover_geometry"},"geometry":{"type":"Polygon","coordinates":[[[-95.66,39.48],[-89.29,39.48],[-89.29,43.79],[-95.66,43.79],[-95.66,39.48]]]}},{"type":"Feature","id":"geom_evt_20240525_southern_plains_2024_05_25_severe_d1_hover","properties":{"event_id":"evt_20240525_southern_plains_2024_05_25_severe","day_index":1,"geometry_role":"hover_geometry"},"geometry":{"type":"Polygon","coordinates":[[[-99.26,34.24],[-93.99,34.24],[-93.99,39.04],[-99.26,39.04],[-99.26,34.24]]]}},{"type":"Feature","id":"geom_evt_20240501_southern_plains_2024_05_01_severe_d1_hover","properties":{"event_id":"evt_20240501_southern_plains_2024_05_01_severe","day_index":1,"geometry_role":"hover_geometry"},"geometry":{"type":"Polygon","coordinates":[[[-102.02,30.35],[-98.31,30.35],[-98.31,36.87],[-102.02,36.87],[-102.02,30.35]]]}},{"type":"Feature","id":"geom_evt_20240503_central_plains_2024_05_03_severe_d1_hover","properties":{"event_id":"evt_20240503_central_plains_2024_05_03_severe","day_index":1,"geometry_role":"hover_geometry"},"geometry":{"type":"Polygon","coordinates":[[[-101.57,30.86],[-99.49,30.86],[-99.49,33.74],[-101.57,33.74],[-101.57,30.86]]]}},{"type":"Feature","id":"geom_evt_20240504_central_plains_2024_05_04_severe_d1_hover","properties":{"event_id":"evt_20240504_central_plains_2024_05_04_severe","day_index":1,"geometry_role":"hover_geometry"},"geometry":{"type":"Polygon","coordinates":[[[-103.44,29.76],[-98.98,29.76],[-98.98,32.8],[-103.44,32.8],[-103.44,29.76]]]}},{"type":"Feature","id":"geom_evt_20240507_mid_atlantic_2024_05_07_severe_d1_hover","properties":{"event_id":"evt_20240507_mid_atlantic_2024_05_07_severe","day_index":1,"geometry_role":"hover_geometry"},"geometry":{"type":"Polygon","coordinates":[[[-87.59,37.27],[-82.16,37.27],[-82.16,41.76],[-87.59,41.76],[-87.59,37.27]]]}},{"type":"Feature","id":"geom_evt_20240509_southeast_2024_05_09_severe_d1_hover","properties":{"event_id":"evt_20240509_southeast_2024_05_09_severe","day_index":1,"geometry_role":"hover_geometry"},"geometry":{"type":"Polygon","coordinates":[[[-98.86,29.98],[-79.99,29.98],[-79.99,33.81],[-98.86,33.81],[-98.86,29.98]]]}},{"type":"Feature","id":"geom_evt_20240510_southeast_2024_05_10_severe_d1_hover","properties":{"event_id":"evt_20240510_southeast_2024_05_10_severe","day_index":1,"geometry_role":"hover_geometry"},"geometry":{"type":"Polygon","coordinates":[[[-82.64,29.27],[-80.72,29.27],[-80.72,31],[-82.64,31],[-82.64,29.27]]]}},{"type":"Feature","id":"geom_evt_20240513_gulf_coast_2024_05_13_severe_d1_hover","properties":{"event_id":"evt_20240513_gulf_coast_2024_05_13_severe","day_index":1,"geometry_role":"hover_geometry"},"geometry":{"type":"Polygon","coordinates":[[[-99.18,28.12],[-85.08,28.12],[-85.08,31.67],[-99.18,31.67],[-99.18,28.12]]]}},{"type":"Feature","id":"geom_evt_20240515_southern_plains_2024_05_15_severe_d1_hover","properties":{"event_id":"evt_20240515_southern_plains_2024_05_15_severe","day_index":1,"geometry_role":"hover_geometry"},"geometry":{"type":"Polygon","coordinates":[[[-103.26,34.66],[-95.77,34.66],[-95.77,37.55],[-103.26,37.55],[-103.26,34.66]]]}},{"type":"Feature","id":"geom_evt_20240516_gulf_coast_2024_05_16_severe_d1_hover","properties":{"event_id":"evt_20240516_gulf_coast_2024_05_16_severe","day_index":1,"geometry_role":"hover_geometry"},"geometry":{"type":"Polygon","coordinates":[[[-100.66,29.63],[-92.27,29.63],[-92.27,32.5],[-100.66,32.5],[-100.66,29.63]]]}},{"type":"Feature","id":"geom_evt_20240520_northern_plains_2024_05_20_severe_d1_hover","properties":{"event_id":"evt_20240520_northern_plains_2024_05_20_severe","day_index":1,"geometry_role":"hover_geometry"},"geometry":{"type":"Polygon","coordinates":[[[-103.65,39.74],[-98.94,39.74],[-98.94,41.69],[-103.65,41.69],[-103.65,39.74]]]}},{"type":"Feature","id":"geom_evt_20240522_southern_plains_2024_05_22_severe_d1_hover","properties":{"event_id":"evt_20240522_southern_plains_2024_05_22_severe","day_index":1,"geometry_role":"hover_geometry"},"geometry":{"type":"Polygon","coordinates":[[[-100.48,30.54],[-91.86,30.54],[-91.86,35.19],[-100.48,35.19],[-100.48,30.54]]]}},{"type":"Feature","id":"geom_evt_20240523_upper_midwest_2024_05_23_severe_d1_hover","properties":{"event_id":"evt_20240523_upper_midwest_2024_05_23_severe","day_index":1,"geometry_role":"hover_geometry"},"geometry":{"type":"Polygon","coordinates":[[[-100.31,39.29],[-95.09,39.29],[-95.09,42.3],[-100.31,42.3],[-100.31,39.29]]]}},{"type":"Feature","id":"geom_evt_20240524_southern_plains_2024_05_24_severe_d1_hover","properties":{"event_id":"evt_20240524_southern_plains_2024_05_24_severe","day_index":1,"geometry_role":"hover_geometry"},"geometry":{"type":"Polygon","coordinates":[[[-98.72,30.91],[-88.67,30.91],[-88.67,42.44],[-98.72,42.44],[-98.72,30.91]]]}},{"type":"Feature","id":"geom_evt_20240526_mid_atlantic_2024_05_26_severe_d1_hover","properties":{"event_id":"evt_20240526_mid_atlantic_2024_05_26_severe","day_index":1,"geometry_role":"hover_geometry"},"geometry":{"type":"Polygon","coordinates":[[[-92.67,35.58],[-82.54,35.58],[-82.54,40.52],[-92.67,40.52],[-92.67,35.58]]]}},{"type":"Feature","id":"geom_evt_20240528_gulf_coast_2024_05_28_severe_d1_hover","properties":{"event_id":"evt_20240528_gulf_coast_2024_05_28_severe","day_index":1,"geometry_role":"hover_geometry"},"geometry":{"type":"Polygon","coordinates":[[[-102.13,28.53],[-93.31,28.53],[-93.31,34.14],[-102.13,34.14],[-102.13,28.53]]]}},{"type":"Feature","id":"geom_evt_20240530_central_plains_2024_05_30_severe_d1_hover","properties":{"event_id":"evt_20240530_central_plains_2024_05_30_severe","day_index":1,"geometry_role":"hover_geometry"},"geometry":{"type":"Polygon","coordinates":[[[-102.54,31.74],[-98.77,31.74],[-98.77,34.21],[-102.54,34.21],[-102.54,31.74]]]}},{"type":"Feature","id":"geom_evt_20240502_southern_plains_2024_05_02_severe_d1_hover","properties":{"event_id":"evt_20240502_southern_plains_2024_05_02_severe","day_index":1,"geometry_role":"hover_geometry"},"geometry":{"type":"Polygon","coordinates":[[[-100.72,31.09],[-97.11,31.09],[-97.11,34.14],[-100.72,34.14],[-100.72,31.09]]]}},{"type":"Feature","id":"geom_evt_20240505_gulf_coast_2024_05_05_severe_d1_hover","properties":{"event_id":"evt_20240505_gulf_coast_2024_05_05_severe","day_index":1,"geometry_role":"hover_geometry"},"geometry":{"type":"Polygon","coordinates":[[[-101.36,27.95],[-96.64,27.95],[-96.64,30.16],[-101.36,30.16],[-101.36,27.95]]]}},{"type":"Feature","id":"geom_evt_20240511_central_plains_2024_05_11_severe_d1_hover","properties":{"event_id":"evt_20240511_central_plains_2024_05_11_severe","day_index":1,"geometry_role":"hover_geometry"},"geometry":{"type":"Polygon","coordinates":[[[-104.41,29.16],[-101.5,29.16],[-101.5,31.76],[-104.41,31.76],[-104.41,29.16]]]}},{"type":"Feature","id":"geom_evt_20240512_gulf_coast_2024_05_12_severe_d1_hover","properties":{"event_id":"evt_20240512_gulf_coast_2024_05_12_severe","day_index":1,"geometry_role":"hover_geometry"},"geometry":{"type":"Polygon","coordinates":[[[-100.77,29.31],[-91.79,29.31],[-91.79,32.68],[-100.77,32.68],[-100.77,29.31]]]}},{"type":"Feature","id":"geom_evt_20240514_southeast_2024_05_14_severe_d1_hover","properties":{"event_id":"evt_20240514_southeast_2024_05_14_severe","day_index":1,"geometry_role":"hover_geometry"},"geometry":{"type":"Polygon","coordinates":[[[-87.52,27.02],[-79.79,27.02],[-79.79,36.99],[-87.52,36.99],[-87.52,27.02]]]}},{"type":"Feature","id":"geom_evt_20240517_southern_plains_2024_05_17_severe_d1_hover","properties":{"event_id":"evt_20240517_southern_plains_2024_05_17_severe","day_index":1,"geometry_role":"hover_geometry"},"geometry":{"type":"Polygon","coordinates":[[[-105.39,28.58],[-82.87,28.58],[-82.87,48.28],[-105.39,48.28],[-105.39,28.58]]]}},{"type":"Feature","id":"geom_evt_20240518_southeast_2024_05_18_severe_d1_hover","properties":{"event_id":"evt_20240518_southeast_2024_05_18_severe","day_index":1,"geometry_role":"hover_geometry"},"geometry":{"type":"Polygon","coordinates":[[[-87.61,29],[-79.51,29],[-79.51,32.56],[-87.61,32.56],[-87.61,29]]]}},{"type":"Feature","id":"geom_evt_20240527_mid_atlantic_2024_05_27_severe_d1_hover","properties":{"event_id":"evt_20240527_mid_atlantic_2024_05_27_severe","day_index":1,"geometry_role":"hover_geometry"},"geometry":{"type":"Polygon","coordinates":[[[-99.01,30.62],[-73.22,30.62],[-73.22,45.06],[-99.01,45.06],[-99.01,30.62]]]}},{"type":"Feature","id":"geom_evt_20240529_central_plains_2024_05_29_severe_d1_hover","properties":{"event_id":"evt_20240529_central_plains_2024_05_29_severe","day_index":1,"geometry_role":"hover_geometry"},"geometry":{"type":"Polygon","coordinates":[[[-105.11,29.44],[-101.24,29.44],[-101.24,49.19],[-105.11,49.19],[-105.11,29.44]]]}},{"type":"Feature","id":"geom_evt_20240531_southern_plains_2024_05_31_severe_d1_hover","properties":{"event_id":"evt_20240531_southern_plains_2024_05_31_severe","day_index":1,"geometry_role":"hover_geometry"},"geometry":{"type":"Polygon","coordinates":[[[-104.67,27.9],[-89.94,27.9],[-89.94,41.04],[-104.67,41.04],[-104.67,27.9]]]}}]}