{"type":"FeatureCollection","features":[{"type":"Feature","id":"geom_evt_2024_al09_helene_d1_hover","properties":{"event_id":"evt_2024_al09_helene","day_index":1,"geometry_role":"hover_geometry"},"geometry":{"type":"Polygon","coordinates":[[[-84.1,17.8],[-83.81,16.87],[-83,16.18],[-81.9,15.93],[-80.8,16.18],[-79.99,16.86],[-79.7,17.8],[-79.99,18.74],[-80.8,19.42],[-81.9,19.67],[-83,19.42],[-83.81,18.74],[-84.1,17.8]]]}},{"type":"Feature","id":"geom_evt_2024_al09_helene_d2_hover","properties":{"event_id":"evt_2024_al09_helene","day_index":2,"geometry_role":"hover_geometry"},"geometry":{"type":"Polygon","coordinates":[[[-86.8,19.4],[-86.51,18.47],[-85.7,17.78],[-84.6,17.53],[-83.5,17.78],[-82.69,18.46],[-82.4,19.4],[-82.69,20.33],[-83.5,21.02],[-84.6,21.27],[-85.7,21.02],[-86.51,20.33],[-86.8,19.4]]]}},{"type":"Feature","id":"geom_evt_2024_al09_helene_d3_hover","properties":{"event_id":"evt_2024_al09_helene","day_index":3,"geometry_role":"hover_geometry"},"geometry":{"type":"Polygon","coordinates":[[[-89.5,22],[-89.1,20.73],[-88,19.79],[-86.5,19.45],[-85,19.79],[-83.9,20.73],[-83.5,22],[-83.9,23.28],[-85,24.21],[-86.5,24.55],[-88,24.21],[-89.1,23.28],[-89.5,22]]]}},{"type":"Feature","id":"geom_evt_2024_al09_helene_d4_hover","properties":{"event_id":"evt_2024_al09_helene","day_index":4,"geometry_role":"hover_geometry"},"geometry":{"type":"Polygon","coordinates":[[[-88,26.6],[-87.6,25.33],[-86.5,24.39],[-85,24.05],[-83.5,24.39],[-82.4,25.33],[-82,26.6],[-82.4,27.88],[-83.5,28.81],[-85,29.15],[-86.5,28.81],[-87.6,27.88],[-88,26.6]]]}},{"type":"Feature","id":"geom_evt_2024_al09_helene_d5_hover","properties":{"event_id":"evt_2024_al09_helene","day_index":5,"geometry_role":"hover_geometry"},"geometry":{"type":"Polygon","coordinates":[[[-87.1,36.8],[-86.81,35.86],[-86,35.18],[-84.9,34.93],[-83.8,35.18],[-82.99,35.86],[-82.7,36.8],[-82.99,37.74],[-83.8,38.42],[-84.9,38.67],[-86,38.42],[-86.81,37.74],[-87.1,36.8]]]}},{"type":"Feature","id":"geom_evt_2024_al09_helene_d6_hover","properties":{"event_id":"evt_2024_al09_helene","day_index":6,"geometry_role":"hover_geometry"},"geometry":{"type":"Polygon","coordinates":[[[-88.5,37.1],[-88.3,36.46],[-87.75,36],[-87,35.83],[-86.25,36],[-85.7,36.46],[-85.5,37.1],[-85.7,37.74],[-86.25,38.2],[-87,38.38],[-87.75,38.2],[-88.3,37.74],[-88.5,37.1]]]}},{"type":"Feature","id":"geom_evt_20240925_southeast_2024_09_25_rain_d1_hover","properties":{"event_id":"evt_20240925_southeast_2024_09_25_rain","day_index":1,"geometry_role":"hover_geometry"},"geometry":{"type":"Polygon","coordinates":[[[-85.5,32.88],[-85.5,32.85],[-85.5,32.82],[-85.49,32.79],[-85.49,32.76],[-85.48,32.73],[-85.48,32.7],[-85.47,32.68],[-85.44,32.63],[-85.43,32.61],[-85.42,32.59],[-85.4,32.58],[-85.31,32.5],[-85.3,32.49],[-85.28,32.48],[-85.25,32.47],[-85.22,32.47],[-85.19,32.46],[-85.16,32.46],[-85.13,32.46],[-85.1,32.46],[-85.07,32.47],[-84.86,32.49],[-84.84,32.49],[-84.83,32.5],[-84.75,32.52],[-84.46,32.65],[-84.37,32.69],[-84.35,32.7],[-83.98,32.91],[-83.97,32.92],[-83.95,32.94],[-83.92,32.96],[-83.91,32.97],[-83.24,33.64],[-83.23,33.65],[-83.2,33.68],[-83.19,33.7],[-82.76,34.24],[-82.75,34.25],[-82.32,34.84],[-82.31,34.86],[-81.99,35.34],[-81.71,35.79],[-81.7,35.8],[-81.55,36.12],[-81.54,36.13],[-81.53,36.15],[-81.53,36.17],[-81.53,36.19],[-81.53,36.21],[-81.54,36.23],[-81.56,36.32],[-81.57,36.34],[-81.59,36.36],[-81.6,36.38],[-81.62,36.4],[-81.64,36.42],[-81.66,36.43],[-81.69,36.45],[-81.79,36.5],[-81.81,36.5],[-81.84,36.5],[-81.87,36.5],[-81.91,36.5],[-81.95,36.49],[-81.99,36.49],[-82.26,36.44],[-82.29,36.43],[-82.32,36.42],[-82.46,36.38],[-82.98,36.2],[-83.24,36.1],[-83.26,36.09],[-83.35,36.05],[-83.37,36.04],[-83.54,35.93],[-83.76,35.76],[-83.98,35.59],[-83.99,35.58],[-84.01,35.57],[-84.02,35.55],[-84.04,35.54],[-84.14,35.42],[-84.46,35.05],[-84.48,35.04],[-84.49,35.02],[-84.59,34.87],[-84.92,34.37],[-84.93,34.36],[-84.98,34.27],[-85.25,33.74],[-85.27,33.71],[-85.32,33.59],[-85.36,33.49],[-85.37,33.47],[-85.42,33.33],[-85.43,33.3],[-85.48,33.08],[-85.49,33.05],[-85.49,33.01],[-85.49,32.98],[-85.5,32.95],[-85.5,32.88]]]}},{"type":"Feature","id":"geom_evt_20240926_southeast_2024_09_26_rain_d1_hover","properties":{"event_id":"evt_20240925_southeast_2024_09_25_rain","day_index":2,"geometry_role":"hover_geometry"},"geometry":{"type":"Polygon","coordinates":[[[-86.87,34.86],[-86.86,34.83],[-86.37,30.47],[-86.37,30.44],[-86.36,30.42],[-86.34,30.4],[-86.33,30.38],[-85.27,29.71],[-85.24,29.7],[-85.21,29.68],[-85.1,29.65],[-85.08,29.64],[-82.77,29.07],[-82.75,29.07],[-82.74,29.08],[-82.73,29.08],[-82.72,29.09],[-82.68,29.15],[-80.67,32.21],[-80.66,32.22],[-80.1,36.62],[-80.1,36.64],[-80.1,36.66],[-80.1,36.67],[-80.13,36.79],[-80.13,36.82],[-80.14,36.84],[-80.15,36.86],[-80.16,36.88],[-80.17,36.89],[-80.18,36.91],[-80.2,36.93],[-80.21,36.94],[-80.24,36.97],[-80.26,36.98],[-80.27,36.99],[-80.36,37.04],[-80.96,37.33],[-80.96,37.33],[-80.98,37.33],[-81,37.33],[-81.03,37.33],[-81.06,37.32],[-81.49,37.26],[-81.87,37.21],[-81.9,37.2],[-81.93,37.2],[-82.41,37.04],[-82.43,37.03],[-82.57,36.98],[-86.63,35.2],[-86.65,35.19],[-86.66,35.18],[-86.68,35.17],[-86.69,35.15],[-86.8,35.04],[-86.81,35.02],[-86.82,35],[-86.85,34.95],[-86.86,34.93],[-86.86,34.91],[-86.86,34.88],[-86.87,34.86]]]}},{"type":"Feature","id":"geom_evt_20240927_mid_atlantic_2024_09_27_rain_d1_hover","properties":{"event_id":"evt_20240927_mid_atlantic_2024_09_27_rain","day_index":1,"geometry_role":"hover_geometry"},"geometry":{"type":"Polygon","coordinates":[[[-89.15,35.72],[-89.15,35.69],[-89.14,35.66],[-89.14,35.63],[-89.13,35.61],[-89.12,35.58],[-89.11,35.57],[-89.1,35.55],[-89.09,35.53],[-89.08,35.52],[-89.06,35.5],[-89.05,35.49],[-89.03,35.48],[-89.02,35.47],[-89,35.45],[-88.98,35.45],[-88.92,35.42],[-88.9,35.41],[-88.88,35.4],[-88.85,35.4],[-88.82,35.39],[-88.64,35.37],[-88.62,35.37],[-82.49,35.45],[-82.19,35.46],[-82.16,35.46],[-82.13,35.46],[-82.11,35.46],[-81.8,35.53],[-81.71,35.57],[-81.56,35.63],[-81.54,35.64],[-81.26,35.81],[-79.85,36.79],[-79.83,36.81],[-79.81,36.82],[-79.48,37.24],[-79.47,37.26],[-79.42,37.35],[-79.35,37.47],[-79.33,37.5],[-79.32,37.52],[-79.32,37.53],[-79.32,37.55],[-79.32,37.57],[-79.33,37.58],[-79.34,37.6],[-79.35,37.61],[-79.36,37.63],[-79.37,37.64],[-79.39,37.65],[-79.41,37.66],[-79.46,37.69],[-79.48,37.7],[-80.02,37.94],[-80.18,37.94],[-80.27,37.94],[-80.31,37.94],[-80.35,37.93],[-80.38,37.93],[-80.41,37.92],[-87.94,36.55],[-87.96,36.55],[-88.56,36.42],[-88.58,36.42],[-88.59,36.41],[-88.65,36.39],[-88.67,36.38],[-88.68,36.37],[-88.7,36.36],[-88.75,36.32],[-88.88,36.21],[-88.9,36.2],[-88.91,36.18],[-89.02,36.04],[-89.06,36],[-89.07,35.98],[-89.08,35.96],[-89.09,35.94],[-89.12,35.89],[-89.13,35.87],[-89.14,35.84],[-89.14,35.81],[-89.14,35.78],[-89.15,35.75],[-89.15,35.72]]]}},{"type":"Feature","id":"geom_evt_2024_al06_francine_d1_hover","properties":{"event_id":"evt_2024_al06_francine","day_index":1,"geometry_role":"hover_geometry"},"geometry":{"type":"Polygon","coordinates":[[[-96.7,21.4],[-96.41,20.47],[-95.6,19.78],[-94.5,19.53],[-93.4,19.78],[-92.59,20.46],[-92.3,21.4],[-92.59,22.33],[-93.4,23.02],[-94.5,23.27],[-95.6,23.02],[-96.41,22.33],[-96.7,21.4]]]}},{"type":"Feature","id":"geom_evt_2024_al06_francine_d2_hover","properties":{"event_id":"evt_2024_al06_francine","day_index":2,"geometry_role":"hover_geometry"},"geometry":{"type":"Polygon","coordinates":[[[-98.1,23.7],[-97.81,22.77],[-97,22.08],[-95.9,21.83],[-94.8,22.08],[-93.99,22.76],[-93.7,23.7],[-93.99,24.64],[-94.8,25.32],[-95.9,25.57],[-97,25.32],[-97.81,24.64],[-98.1,23.7]]]}},{"type":"Feature","id":"geom_evt_2024_al06_francine_d3_hover","properties":{"event_id":"evt_2024_al06_francine","day_index":3,"geometry_role":"hover_geometry"},"geometry":{"type":"Polygon","coordinates":[[[-97.5,25.3],[-97.21,24.37],[-96.4,23.68],[-95.3,23.43],[-94.2,23.68],[-93.39,24.37],[-93.1,25.3],[-93.39,26.24],[-94.2,26.92],[-95.3,27.17],[-96.4,26.92],[-97.21,26.24],[-97.5,25.3]]]}},{"type":"Feature","id":"geom_evt_2024_al06_francine_d4_hover","properties":{"event_id":"evt_2024_al06_francine","day_index":4,"geometry_role":"hover_geometry"},"geometry":{"type":"Polygon","coordinates":[[[-94.3,29.3],[-93.9,28.03],[-92.8,27.09],[-91.3,26.75],[-89.8,27.09],[-88.7,28.03],[-88.3,29.3],[-88.7,30.58],[-89.8,31.51],[-91.3,31.85],[-92.8,31.51],[-93.9,30.58],[-94.3,29.3]]]}},{"type":"Feature","id":"geom_evt_2024_al06_francine_d5_hover","properties":{"event_id":"evt_2024_al06_francine","day_index":5,"geometry_role":"hover_geometry"},"geometry":{"type":"Polygon","coordinates":[[[-91.2,33.4],[-91,32.76],[-90.45,32.3],[-89.7,32.13],[-88.95,32.3],[-88.4,32.76],[-88.2,33.4],[-88.4,34.04],[-88.95,34.5],[-89.7,34.67],[-90.45,34.5],[-91,34.04],[-91.2,33.4]]]}},{"type":"Feature","id":"geom_evt_2024_al06_francine_d6_hover","properties":{"event_id":"evt_2024_al06_francine","day_index":6,"geometry_role":"hover_geometry"},"geometry":{"type":"Polygon","coordinates":[[[-93.5,35.7],[-93.3,35.06],[-92.75,34.6],[-92,34.43],[-91.25,34.6],[-90.7,35.06],[-90.5,35.7],[-90.7,36.34],[-91.25,36.8],[-92,36.98],[-92.75,36.8],[-93.3,36.34],[-93.5,35.7]]]}},{"type":"Feature","id":"geom_evt_2024_al06_francine_d7_hover","properties":{"event_id":"evt_2024_al06_francine","day_index":7,"geometry_role":"hover_geometry"},"geometry":{"type":"Polygon","coordinates":[[[-93.2,34.9],[-93,34.26],[-92.45,33.8],[-91.7,33.63],[-90.95,33.8],[-90.4,34.26],[-90.2,34.9],[-90.4,35.54],[-90.95,36],[-91.7,36.17],[-92.45,36],[-93,35.54],[-93.2,34.9]]]}},{"type":"Feature","id":"geom_evt_2024_al10_isaac_d1_hover","properties":{"event_id":"evt_2024_al10_isaac","day_index":1,"geometry_role":"hover_geometry"},"geometry":{"type":"Polygon","coordinates":[[[-60.8,38.6],[-60.51,37.67],[-59.7,36.98],[-58.6,36.73],[-57.5,36.98],[-56.69,37.67],[-56.4,38.6],[-56.69,39.54],[-57.5,40.22],[-58.6,40.47],[-59.7,40.22],[-60.51,39.54],[-60.8,38.6]]]}},{"type":"Feature","id":"geom_evt_2024_al10_isaac_d2_hover","properties":{"event_id":"evt_2024_al10_isaac","day_index":2,"geometry_role":"hover_geometry"},"geometry":{"type":"Polygon","coordinates":[[[-57.9,36.9],[-57.61,35.96],[-56.8,35.28],[-55.7,35.03],[-54.6,35.28],[-53.79,35.96],[-53.5,36.9],[-53.79,37.84],[-54.6,38.52],[-55.7,38.77],[-56.8,38.52],[-57.61,37.84],[-57.9,36.9]]]}},{"type":"Feature","id":"geom_evt_2024_al10_isaac_d3_hover","properties":{"event_id":"evt_2024_al10_isaac","day_index":3,"geometry_role":"hover_geometry"},"geometry":{"type":"Polygon","coordinates":[[[-53.4,37.3],[-53.11,36.36],[-52.3,35.68],[-51.2,35.43],[-50.1,35.68],[-49.29,36.36],[-49,37.3],[-49.29,38.24],[-50.1,38.92],[-51.2,39.17],[-52.3,38.92],[-53.11,38.24],[-53.4,37.3]]]}},{"type":"Feature","id":"geom_evt_2024_al10_isaac_d4_hover","properties":{"event_id":"evt_2024_al10_isaac","day_index":4,"geometry_role":"hover_geometry"},"geometry":{"type":"Polygon","coordinates":[[[-49.2,37.5],[-48.8,36.23],[-47.7,35.29],[-46.2,34.95],[-44.7,35.29],[-43.6,36.23],[-43.2,37.5],[-43.6,38.78],[-44.7,39.71],[-46.2,40.05],[-47.7,39.71],[-48.8,38.78],[-49.2,37.5]]]}},{"type":"Feature","id":"geom_evt_2024_al10_isaac_d5_hover","properties":{"event_id":"evt_2024_al10_isaac","day_index":5,"geometry_role":"hover_geometry"},"geometry":{"type":"Polygon","coordinates":[[[-42.1,40.6],[-41.7,39.33],[-40.6,38.39],[-39.1,38.05],[-37.6,38.39],[-36.5,39.33],[-36.1,40.6],[-36.5,41.88],[-37.6,42.81],[-39.1,43.15],[-40.6,42.81],[-41.7,41.88],[-42.1,40.6]]]}},{"type":"Feature","id":"geom_evt_2024_al10_isaac_d6_hover","properties":{"event_id":"evt_2024_al10_isaac","day_index":6,"geometry_role":"hover_geometry"},"geometry":{"type":"Polygon","coordinates":[[[-37.3,43.7],[-37.01,42.77],[-36.2,42.08],[-35.1,41.83],[-34,42.08],[-33.19,42.77],[-32.9,43.7],[-33.19,44.64],[-34,45.32],[-35.1,45.57],[-36.2,45.32],[-37.01,44.64],[-37.3,43.7]]]}},{"type":"Feature","id":"geom_evt_2024_al10_isaac_d7_hover","properties":{"event_id":"evt_2024_al10_isaac","day_index":7,"geometry_role":"hover_geometry"},"geometry":{"type":"Polygon","coordinates":[[[-30.2,45.2],[-29.91,44.27],[-29.1,43.58],[-28,43.33],[-26.9,43.58],[-26.09,44.27],[-25.8,45.2],[-26.09,46.14],[-26.9,46.82],[-28,47.07],[-29.1,46.82],[-29.91,46.14],[-30.2,45.2]]]}},{"type":"Feature","id":"geom_evt_20240902_northern_rockies_2024_09_02_fire_d1_hover","properties":{"event_id":"evt_20240902_northern_rockies_2024_09_02_fire","day_index":1,"geometry_role":"hover_geometry"},"geometry":{"type":"Polygon","coordinates":[[[-120.78,40.96],[-120.74,40.53],[-120.22,40.16],[-119.95,40.06],[-102.84,41.95],[-102.63,42.07],[-102.34,42.25],[-101.99,42.6],[-101.7,43.05],[-101.52,43.53],[-101.51,44.2],[-101.76,44.58],[-102.18,45.05],[-102.59,45.16],[-120.03,43.57],[-120.46,43.27],[-120.72,41.66],[-120.78,40.96]]]}},{"type":"Feature","id":"geom_evt_20240911_northern_california_2024_09_11_fire_d1_hover","properties":{"event_id":"evt_20240911_northern_california_2024_09_11_fire","day_index":1,"geometry_role":"hover_geometry"},"geometry":{"type":"Polygon","coordinates":[[[-120.25,40.31],[-120.23,39.35],[-119.69,38.62],[-119.14,38.03],[-118.83,37.78],[-115.21,35.64],[-114.86,35.69],[-114.4,35.99],[-113.26,37.29],[-111.12,41.34],[-111.12,41.86],[-111.71,42.25],[-113.47,42.28],[-118.35,41.76],[-119.8,41.22],[-120.25,40.31]]]}},{"type":"Feature","id":"geom_evt_20240912_northern_plains_2024_09_12_fire_d1_hover","properties":{"event_id":"evt_20240912_northern_plains_2024_09_12_fire","day_index":1,"geometry_role":"hover_geometry"},"geometry":{"type":"Polygon","coordinates":[[[-106.32,37.34],[-106.3,36.94],[-105.77,36.74],[-104.66,36.72],[-102.89,37.1],[-102.27,37.75],[-101.94,38.39],[-100.33,42.57],[-100.72,44.19],[-101.45,45.51],[-102.69,45.95],[-104.63,45.71],[-105.2,44.34],[-105.84,41.94],[-106.32,37.34]]]}},{"type":"Feature","id":"geom_evt_20240929_northern_plains_2024_09_29_fire_d1_hover","properties":{"event_id":"evt_20240929_northern_plains_2024_09_29_fire","day_index":1,"geometry_role":"hover_geometry"},"geometry":{"type":"Polygon","coordinates":[[[-107.98,42.77],[-107.64,42.43],[-102.56,42],[-102.21,42.02],[-101.76,42.2],[-101.08,42.87],[-100.54,43.66],[-100.29,44.19],[-100.06,44.81],[-99.88,45.45],[-99.87,45.94],[-99.94,46.26],[-100.02,46.5],[-100.53,46.85],[-100.78,47.01],[-101.23,47.08],[-101.57,47.03],[-101.83,46.89],[-106.65,44],[-107.5,43.49],[-107.77,43.3],[-107.98,42.77]]]}},{"type":"Feature","id":"geom_evt_20240930_upper_midwest_2024_09_30_fire_d1_hover","properties":{"event_id":"evt_20240930_upper_midwest_2024_09_30_fire","day_index":1,"geometry_role":"hover_geometry"},"geometry":{"type":"Polygon","coordinates":[[[-103.08,43.62],[-103.02,41.86],[-102.38,41.11],[-101.83,40.58],[-100.72,40.61],[-99.87,40.87],[-98.73,41.5],[-97.96,42.22],[-97.68,42.75],[-97.51,43.37],[-97.72,44.32],[-98.24,44.92],[-98.77,45.15],[-99.6,45.15],[-101.08,44.8],[-103.08,43.62]]]}},{"type":"Feature","id":"geom_evt_20240905_gulf_coast_2024_09_05_rain_d1_hover","properties":{"event_id":"evt_20240905_gulf_coast_2024_09_05_rain","day_index":1,"geometry_role":"hover_geometry"},"geometry":{"type":"Polygon","coordinates":[[[-91.74,29.87],[-91.74,29.85],[-91.73,29.82],[-91.73,29.8],[-91.72,29.78],[-91.7,29.76],[-91.62,29.65],[-91.61,29.64],[-91.57,29.59],[-91.53,29.54],[-91.51,29.53],[-91.25,29.25],[-91.23,29.23],[-91.22,29.22],[-91.2,29.21],[-91.18,29.2],[-91.15,29.2],[-91.01,29.16],[-90.98,29.15],[-90.95,29.15],[-90.91,29.14],[-90.88,29.14],[-90.15,29.11],[-89.18,29.1],[-89.16,29.1],[-89.13,29.1],[-89.11,29.11],[-89.1,29.12],[-89.09,29.13],[-89.08,29.14],[-89.07,29.16],[-89.07,29.17],[-89.14,30.17],[-89.15,30.18],[-89.15,30.19],[-89.23,30.37],[-89.24,30.38],[-89.25,30.4],[-89.27,30.41],[-89.38,30.45],[-89.39,30.46],[-89.49,30.51],[-89.52,30.51],[-89.66,30.56],[-89.69,30.57],[-89.72,30.57],[-89.76,30.58],[-90.48,30.63],[-90.51,30.63],[-90.54,30.63],[-90.57,30.63],[-90.61,30.63],[-90.64,30.63],[-90.67,30.63],[-90.7,30.62],[-90.73,30.62],[-90.93,30.57],[-91.34,30.46],[-91.36,30.45],[-91.39,30.44],[-91.41,30.43],[-91.44,30.41],[-91.45,30.4],[-91.47,30.38],[-91.5,30.36],[-91.51,30.34],[-91.61,30.22],[-91.62,30.21],[-91.63,30.19],[-91.67,30.12],[-91.68,30.09],[-91.69,30.07],[-91.73,29.95],[-91.73,29.93],[-91.74,29.9],[-91.74,29.87]]]}},{"type":"Feature","id":"geom_evt_20240906_gulf_coast_2024_09_06_rain_d1_hover","properties":{"event_id":"evt_20240905_gulf_coast_2024_09_05_rain","day_index":2,"geometry_role":"hover_geometry"},"geometry":{"type":"Polygon","coordinates":[[[-91.64,29.89],[-91.64,29.82],[-91.64,29.78],[-91.63,29.75],[-91.63,29.72],[-91.62,29.69],[-91.61,29.66],[-91.6,29.64],[-91.58,29.61],[-91.57,29.59],[-91.53,29.54],[-91.52,29.52],[-91.25,29.25],[-91.23,29.23],[-91.22,29.22],[-91.2,29.21],[-91.18,29.2],[-91.15,29.2],[-91.01,29.16],[-90.98,29.15],[-90.95,29.15],[-90.91,29.14],[-90.88,29.14],[-90.15,29.11],[-90.13,29.11],[-89.46,29.21],[-89.44,29.21],[-89.42,29.22],[-89.4,29.23],[-89.38,29.24],[-89.37,29.25],[-89.36,29.27],[-89.36,29.28],[-89.35,29.3],[-89.35,29.31],[-89.15,30.15],[-89.14,30.16],[-89.14,30.17],[-89.15,30.18],[-89.15,30.19],[-89.23,30.39],[-89.24,30.41],[-89.26,30.44],[-89.27,30.45],[-89.3,30.5],[-89.32,30.51],[-89.37,30.57],[-89.43,30.62],[-89.45,30.63],[-89.48,30.66],[-89.5,30.67],[-89.52,30.68],[-89.55,30.69],[-89.66,30.73],[-89.69,30.73],[-89.88,30.78],[-89.91,30.79],[-89.94,30.79],[-89.98,30.8],[-90.01,30.8],[-90.08,30.8],[-90.15,30.8],[-90.26,30.8],[-90.33,30.8],[-90.36,30.8],[-90.39,30.79],[-90.42,30.79],[-90.7,30.73],[-90.9,30.68],[-90.93,30.68],[-90.95,30.67],[-91.04,30.62],[-91.06,30.61],[-91.32,30.46],[-91.34,30.45],[-91.35,30.44],[-91.4,30.4],[-91.46,30.35],[-91.51,30.29],[-91.53,30.28],[-91.55,30.24],[-91.56,30.23],[-91.57,30.21],[-91.58,30.19],[-91.61,30.13],[-91.62,30.11],[-91.62,30.09],[-91.63,30.06],[-91.63,30.02],[-91.64,29.99],[-91.64,29.96],[-91.64,29.89]]]}},{"type":"Feature","id":"geom_evt_20240911_gulf_coast_2024_09_11_rain_d1_hover","properties":{"event_id":"evt_20240911_gulf_coast_2024_09_11_rain","day_index":1,"geometry_role":"hover_geometry"},"geometry":{"type":"Polygon","coordinates":[[[-92.65,29.63],[-92.65,29.62],[-92.64,29.61],[-92.62,29.6],[-92.6,29.59],[-91.15,29.2],[-91.01,29.16],[-90.98,29.15],[-90.95,29.15],[-90.91,29.14],[-90.88,29.14],[-90.15,29.11],[-89.18,29.1],[-89.16,29.1],[-89.13,29.1],[-89.11,29.11],[-89.1,29.12],[-89.09,29.13],[-89.08,29.14],[-89.07,29.16],[-88.4,30.38],[-88.39,30.4],[-88.39,30.41],[-88.39,30.43],[-88.4,30.45],[-88.88,31.97],[-88.89,32],[-88.9,32.02],[-88.93,32.07],[-88.94,32.09],[-88.95,32.1],[-88.96,32.11],[-89.1,32.23],[-89.15,32.26],[-89.17,32.27],[-89.18,32.29],[-89.43,32.43],[-89.45,32.44],[-89.47,32.45],[-89.5,32.45],[-89.53,32.46],[-89.71,32.49],[-89.73,32.49],[-89.74,32.49],[-89.92,32.46],[-89.95,32.45],[-89.98,32.45],[-90.37,32.33],[-90.39,32.32],[-90.41,32.31],[-90.66,32.17],[-90.67,32.16],[-90.69,32.15],[-90.72,32.13],[-90.73,32.11],[-90.95,31.89],[-91.13,31.71],[-91.16,31.68],[-91.51,31.28],[-91.55,31.24],[-92.11,30.55],[-92.12,30.54],[-92.27,30.33],[-92.28,30.32],[-92.45,30.06],[-92.46,30.04],[-92.51,29.95],[-92.56,29.84],[-92.57,29.82],[-92.62,29.73],[-92.63,29.71],[-92.63,29.69],[-92.64,29.68],[-92.65,29.65],[-92.65,29.63]]]}},{"type":"Feature","id":"geom_evt_20240912_southeast_2024_09_12_rain_d1_hover","properties":{"event_id":"evt_20240912_southeast_2024_09_12_rain","day_index":1,"geometry_role":"hover_geometry"},"geometry":{"type":"Polygon","coordinates":[[[-87.85,34.29],[-87.84,33.93],[-87.84,33.91],[-87.84,33.89],[-87.81,33.82],[-87.75,33.67],[-87.74,33.64],[-87.52,33.14],[-87.48,33.05],[-87.47,33.03],[-87.45,33.02],[-87.3,32.81],[-87.29,32.8],[-87.26,32.77],[-87.24,32.76],[-87.23,32.75],[-87.21,32.74],[-87.14,32.7],[-87.11,32.69],[-86.95,32.64],[-86.92,32.63],[-86.77,32.59],[-86.74,32.58],[-86.7,32.58],[-86.67,32.57],[-86.64,32.57],[-86.62,32.57],[-86.6,32.57],[-86.48,32.64],[-86.46,32.65],[-86.43,32.67],[-86.41,32.68],[-86.4,32.7],[-86.14,32.92],[-86.13,32.93],[-86.12,32.95],[-86.11,32.96],[-86.06,33.03],[-86.05,33.05],[-86.01,33.15],[-86,33.17],[-86,33.19],[-85.96,33.37],[-85.95,33.39],[-85.95,33.42],[-85.94,33.45],[-85.94,33.48],[-85.94,33.51],[-85.95,33.75],[-85.95,33.78],[-85.95,33.8],[-85.96,33.82],[-86,33.92],[-86.01,33.94],[-86.06,34.03],[-86.07,34.04],[-86.22,34.3],[-86.23,34.32],[-86.25,34.34],[-86.27,34.37],[-86.28,34.38],[-86.3,34.39],[-86.33,34.42],[-86.34,34.43],[-86.36,34.44],[-86.62,34.6],[-86.64,34.61],[-86.73,34.66],[-86.75,34.67],[-86.84,34.71],[-86.86,34.72],[-86.96,34.76],[-86.98,34.77],[-87.01,34.78],[-87.04,34.78],[-87.33,34.81],[-87.35,34.81],[-87.37,34.81],[-87.5,34.79],[-87.53,34.78],[-87.55,34.77],[-87.58,34.77],[-87.59,34.76],[-87.65,34.73],[-87.67,34.72],[-87.68,34.7],[-87.69,34.69],[-87.71,34.67],[-87.75,34.61],[-87.76,34.59],[-87.79,34.56],[-87.8,34.54],[-87.81,34.52],[-87.81,34.49],[-87.82,34.47],[-87.85,34.33],[-87.85,34.31],[-87.85,34.29]]]}},{"type":"Feature","id":"geom_evt_20240913_southeast_2024_09_13_rain_d1_hover","properties":{"event_id":"evt_20240912_southeast_2024_09_12_rain","day_index":2,"geometry_role":"hover_geometry"},"geometry":{"type":"Polygon","coordinates":[[[-87.9,34.65],[-87.9,34.63],[-87.89,34.61],[-87.88,34.56],[-87.87,34.54],[-87.86,34.52],[-87.81,34.44],[-87.8,34.42],[-87.51,34.04],[-87.36,33.86],[-87.31,33.8],[-87.25,33.75],[-87.24,33.73],[-87.19,33.7],[-86.97,33.53],[-86.8,33.42],[-86.78,33.41],[-86.69,33.37],[-86.67,33.36],[-86.53,33.31],[-86.5,33.3],[-86.12,33.2],[-86.09,33.19],[-86.05,33.19],[-86.01,33.18],[-85.97,33.18],[-85.93,33.18],[-85.91,33.18],[-85.88,33.18],[-85.85,33.23],[-85.83,33.25],[-85.82,33.27],[-85.81,33.3],[-85.79,33.33],[-85.79,33.36],[-85.78,33.39],[-85.78,33.42],[-85.78,33.44],[-85.79,33.47],[-85.85,33.75],[-85.86,33.77],[-85.86,33.78],[-85.87,33.8],[-85.89,33.81],[-85.9,33.83],[-86.19,34.15],[-86.35,34.31],[-86.37,34.33],[-86.5,34.44],[-86.55,34.47],[-86.57,34.49],[-86.95,34.76],[-87.12,34.88],[-87.14,34.89],[-87.21,34.92],[-87.23,34.93],[-87.26,34.94],[-87.28,34.95],[-87.45,34.98],[-87.47,34.99],[-87.49,34.99],[-87.51,34.98],[-87.52,34.98],[-87.54,34.97],[-87.62,34.95],[-87.64,34.94],[-87.73,34.89],[-87.75,34.88],[-87.82,34.83],[-87.83,34.82],[-87.85,34.81],[-87.86,34.79],[-87.87,34.77],[-87.88,34.74],[-87.9,34.68],[-87.9,34.67],[-87.9,34.65]]]}},{"type":"Feature","id":"geom_evt_20240916_southeast_2024_09_16_rain_d1_hover","properties":{"event_id":"evt_20240916_southeast_2024_09_16_rain","day_index":1,"geometry_role":"hover_geometry"},"geometry":{"type":"Polygon","coordinates":[[[-79.16,34.48],[-79.16,34.46],[-79.16,34.45],[-79.13,34.36],[-79.12,34.33],[-79.11,34.31],[-79.1,34.29],[-79.08,34.26],[-79.07,34.25],[-79.01,34.19],[-78.95,34.13],[-78.94,34.12],[-78.89,34.08],[-78.69,33.93],[-78.67,33.92],[-78.65,33.91],[-78.63,33.9],[-78.61,33.89],[-78.56,33.87],[-78.53,33.86],[-78.5,33.85],[-78.46,33.85],[-78.43,33.84],[-78.4,33.84],[-78.38,33.84],[-78.36,33.84],[-78.05,33.9],[-78.02,33.91],[-77.99,33.92],[-77.98,33.93],[-77.95,33.96],[-77.93,33.97],[-77.92,33.98],[-77.47,34.46],[-77.46,34.47],[-77.46,34.49],[-77.46,34.5],[-77.46,34.51],[-77.47,34.52],[-77.48,34.54],[-77.49,34.55],[-77.5,34.56],[-77.51,34.57],[-77.53,34.59],[-77.54,34.6],[-77.56,34.61],[-77.65,34.66],[-77.67,34.67],[-77.77,34.71],[-77.79,34.72],[-77.93,34.76],[-77.96,34.77],[-78.18,34.83],[-78.21,34.83],[-78.52,34.88],[-78.55,34.89],[-78.58,34.89],[-78.61,34.89],[-78.64,34.89],[-78.67,34.89],[-78.7,34.89],[-78.73,34.89],[-78.75,34.88],[-78.78,34.88],[-78.88,34.83],[-78.9,34.83],[-78.99,34.78],[-79.01,34.77],[-79.02,34.76],[-79.07,34.72],[-79.09,34.71],[-79.1,34.7],[-79.12,34.68],[-79.12,34.65],[-79.13,34.63],[-79.14,34.61],[-79.16,34.52],[-79.16,34.5],[-79.16,34.48]]]}},{"type":"Feature","id":"geom_evt_20240929_mid_atlantic_2024_09_29_rain_d1_hover","properties":{"event_id":"evt_20240929_mid_atlantic_2024_09_29_rain","day_index":1,"geometry_role":"hover_geometry"},"geometry":{"type":"Polygon","coordinates":[[[-79.93,38.08],[-79.93,38.06],[-79.92,38.05],[-79.91,38.03],[-79.9,38.02],[-79.89,38.01],[-79.88,37.99],[-79.87,37.98],[-79.85,37.97],[-79.84,37.96],[-79.11,37.46],[-79.09,37.45],[-79.07,37.44],[-79.05,37.43],[-79,37.41],[-78.97,37.4],[-78.94,37.39],[-78.9,37.39],[-78.87,37.39],[-78.84,37.38],[-78.82,37.38],[-78.8,37.38],[-78.68,37.45],[-78.65,37.46],[-78.61,37.49],[-78.59,37.51],[-78.58,37.52],[-78.54,37.56],[-78.52,37.58],[-78.5,37.61],[-78.49,37.62],[-78.48,37.64],[-78.43,37.74],[-78.42,37.76],[-78.38,37.9],[-78.37,37.93],[-78.36,37.95],[-78.33,38.11],[-78.33,38.13],[-78.33,38.46],[-78.33,38.48],[-78.34,38.5],[-78.35,38.53],[-78.36,38.54],[-78.38,38.56],[-78.39,38.57],[-78.41,38.58],[-78.44,38.59],[-79.35,38.78],[-79.36,38.79],[-79.38,38.79],[-79.39,38.78],[-79.4,38.78],[-79.53,38.7],[-79.55,38.69],[-79.57,38.68],[-79.6,38.65],[-79.61,38.64],[-79.63,38.63],[-79.64,38.61],[-79.65,38.59],[-79.66,38.58],[-79.89,38.19],[-79.9,38.18],[-79.91,38.16],[-79.92,38.12],[-79.93,38.11],[-79.93,38.09],[-79.93,38.08]]]}},{"type":"Feature","id":"geom_evt_2024_al07_gordon_d1_hover","properties":{"event_id":"evt_2024_al07_gordon","day_index":1,"geometry_role":"hover_geometry"},"geometry":{"type":"Polygon","coordinates":[[[-31.1,16],[-30.9,15.36],[-30.35,14.9],[-29.6,14.73],[-28.85,14.9],[-28.3,15.36],[-28.1,16],[-28.3,16.64],[-28.85,17.1],[-29.6,17.27],[-30.35,17.1],[-30.9,16.64],[-31.1,16]]]}},{"type":"Feature","id":"geom_evt_2024_al07_gordon_d2_hover","properties":{"event_id":"evt_2024_al07_gordon","day_index":2,"geometry_role":"hover_geometry"},"geometry":{"type":"Polygon","coordinates":[[[-36.9,18.1],[-36.7,17.46],[-36.15,17],[-35.4,16.83],[-34.65,17],[-34.1,17.46],[-33.9,18.1],[-34.1,18.74],[-34.65,19.2],[-35.4,19.38],[-36.15,19.2],[-36.7,18.74],[-36.9,18.1]]]}},{"type":"Feature","id":"geom_evt_2024_al07_gordon_d3_hover","properties":{"event_id":"evt_2024_al07_gordon","day_index":3,"geometry_role":"hover_geometry"},"geometry":{"type":"Polygon","coordinates":[[[-41.3,19.7],[-41.01,18.77],[-40.2,18.08],[-39.1,17.83],[-38,18.08],[-37.19,18.76],[-36.9,19.7],[-37.19,20.64],[-38,21.32],[-39.1,21.57],[-40.2,21.32],[-41.01,20.64],[-41.3,19.7]]]}},{"type":"Feature","id":"geom_evt_2024_al07_gordon_d4_hover","properties":{"event_id":"evt_2024_al07_gordon","day_index":4,"geometry_role":"hover_geometry"},"geometry":{"type":"Polygon","coordinates":[[[-44.6,20.3],[-44.31,19.37],[-43.5,18.68],[-42.4,18.43],[-41.3,18.68],[-40.49,19.36],[-40.2,20.3],[-40.49,21.24],[-41.3,21.92],[-42.4,22.17],[-43.5,21.92],[-44.31,21.24],[-44.6,20.3]]]}},{"type":"Feature","id":"geom_evt_2024_al07_gordon_d5_hover","properties":{"event_id":"evt_2024_al07_gordon","day_index":5,"geometry_role":"hover_geometry"},"geometry":{"type":"Polygon","coordinates":[[[-47.3,19.2],[-47.1,18.56],[-46.55,18.1],[-45.8,17.93],[-45.05,18.1],[-44.5,18.56],[-44.3,19.2],[-44.5,19.84],[-45.05,20.3],[-45.8,20.47],[-46.55,20.3],[-47.1,19.84],[-47.3,19.2]]]}},{"type":"Feature","id":"geom_evt_2024_al07_gordon_d6_hover","properties":{"event_id":"evt_2024_al07_gordon","day_index":6,"geometry_role":"hover_geometry"},"geometry":{"type":"Polygon","coordinates":[[[-49.8,19],[-49.6,18.36],[-49.05,17.9],[-48.3,17.73],[-47.55,17.9],[-47,18.36],[-46.8,19],[-47,19.64],[-47.55,20.1],[-48.3,20.27],[-49.05,20.1],[-49.6,19.64],[-49.8,19]]]}},{"type":"Feature","id":"geom_evt_2024_al07_gordon_d7_hover","properties":{"event_id":"evt_2024_al07_gordon","day_index":7,"geometry_role":"hover_geometry"},"geometry":{"type":"Polygon","coordinates":[[[-50.5,18.9],[-50.3,18.26],[-49.75,17.8],[-49,17.63],[-48.25,17.8],[-47.7,18.26],[-47.5,18.9],[-47.7,19.54],[-48.25,20],[-49,20.17],[-49.75,20],[-50.3,19.54],[-50.5,18.9]]]}},{"type":"Feature","id":"geom_evt_2024_al08_eight_d1_hover","properties":{"event_id":"evt_2024_al08_eight","day_index":1,"geometry_role":"hover_geometry"},"geometry":{"type":"Polygon","coordinates":[[[-80,31.8],[-79.71,30.87],[-78.9,30.18],[-77.8,29.93],[-76.7,30.18],[-75.89,30.87],[-75.6,31.8],[-75.89,32.74],[-76.7,33.42],[-77.8,33.67],[-78.9,33.42],[-79.71,32.74],[-80,31.8]]]}},{"type":"Feature","id":"geom_evt_2024_al08_eight_d2_hover","properties":{"event_id":"evt_2024_al08_eight","day_index":2,"geometry_role":"hover_geometry"},"geometry":{"type":"Polygon","coordinates":[[[-80.7,33.5],[-80.41,32.57],[-79.6,31.88],[-78.5,31.63],[-77.4,31.88],[-76.59,32.57],[-76.3,33.5],[-76.59,34.44],[-77.4,35.12],[-78.5,35.37],[-79.6,35.12],[-80.41,34.44],[-80.7,33.5]]]}},{"type":"Feature","id":"geom_evt_2024_al08_eight_d3_hover","properties":{"event_id":"evt_2024_al08_eight","day_index":3,"geometry_role":"hover_geometry"},"geometry":{"type":"Polygon","coordinates":[[[-80.7,34.2],[-80.5,33.56],[-79.95,33.1],[-79.2,32.93],[-78.45,33.1],[-77.9,33.56],[-77.7,34.2],[-77.9,34.84],[-78.45,35.3],[-79.2,35.48],[-79.95,35.3],[-80.5,34.84],[-80.7,34.2]]]}},{"type":"Feature","id":"geom_evt_2024_al11_joyce_d1_hover","properties":{"event_id":"evt_2024_al11_joyce","day_index":1,"geometry_role":"hover_geometry"},"geometry":{"type":"Polygon","coordinates":[[[-45.6,18.2],[-45.31,17.27],[-44.5,16.58],[-43.4,16.33],[-42.3,16.58],[-41.49,17.26],[-41.2,18.2],[-41.49,19.13],[-42.3,19.82],[-43.4,20.07],[-44.5,19.82],[-45.31,19.13],[-45.6,18.2]]]}},{"type":"Feature","id":"geom_evt_2024_al11_joyce_d2_hover","properties":{"event_id":"evt_2024_al11_joyce","day_index":2,"geometry_role":"hover_geometry"},"geometry":{"type":"Polygon","coordinates":[[[-48.6,20.2],[-48.31,19.27],[-47.5,18.58],[-46.4,18.33],[-45.3,18.58],[-44.49,19.26],[-44.2,20.2],[-44.49,21.14],[-45.3,21.82],[-46.4,22.07],[-47.5,21.82],[-48.31,21.14],[-48.6,20.2]]]}},{"type":"Feature","id":"geom_evt_2024_al11_joyce_d3_hover","properties":{"event_id":"evt_2024_al11_joyce","day_index":3,"geometry_role":"hover_geometry"},"geometry":{"type":"Polygon","coordinates":[[[-51.1,22],[-50.81,21.07],[-50,20.38],[-48.9,20.13],[-47.8,20.38],[-46.99,21.07],[-46.7,22],[-46.99,22.94],[-47.8,23.62],[-48.9,23.87],[-50,23.62],[-50.81,22.94],[-51.1,22]]]}},{"type":"Feature","id":"geom_evt_2024_al11_joyce_d4_hover","properties":{"event_id":"evt_2024_al11_joyce","day_index":4,"geometry_role":"hover_geometry"},"geometry":{"type":"Polygon","coordinates":[[[-50.3,22.5],[-50.1,21.86],[-49.55,21.4],[-48.8,21.23],[-48.05,21.4],[-47.5,21.86],[-47.3,22.5],[-47.5,23.14],[-48.05,23.6],[-48.8,23.78],[-49.55,23.6],[-50.1,23.14],[-50.3,22.5]]]}},{"type":"Feature","id":"geom_evt_2024_al12_kirk_d1_hover","properties":{"event_id":"evt_2024_al12_kirk","day_index":1,"geometry_role":"hover_geometry"},"geometry":{"type":"Polygon","coordinates":[[[-33.6,13.8],[-33.4,13.16],[-32.85,12.7],[-32.1,12.53],[-31.35,12.7],[-30.8,13.16],[-30.6,13.8],[-30.8,14.44],[-31.35,14.9],[-32.1,15.08],[-32.85,14.9],[-33.4,14.44],[-33.6,13.8]]]}},{"type":"Feature","id":"geom_evt_2024_al12_kirk_d2_hover","properties":{"event_id":"evt_2024_al12_kirk","day_index":2,"geometry_role":"hover_geometry"},"geometry":{"type":"Polygon","coordinates":[[[-37.5,13.7],[-37.21,12.76],[-36.4,12.08],[-35.3,11.83],[-34.2,12.08],[-33.39,12.76],[-33.1,13.7],[-33.39,14.64],[-34.2,15.32],[-35.3,15.57],[-36.4,15.32],[-37.21,14.64],[-37.5,13.7]]]}},{"type":"Feature","id":"geom_evt_20240926_southeast_2024_09_26_severe_d1_hover","properties":{"event_id":"evt_20240926_southeast_2024_09_26_severe","day_index":1,"geometry_role":"hover_geometry"},"geometry":{"type":"Polygon","coordinates":[[[-82.54,31.52],[-82.16,30.56],[-81.91,30.18],[-80.96,30.05],[-77.68,33.62],[-77.31,34.15],[-77.59,34.26],[-78.15,34.35],[-78.78,34.4],[-79.52,34.37],[-80.13,34.23],[-80.66,34],[-81.81,32.89],[-82.54,31.52]]]}},{"type":"Feature","id":"geom_evt_20240927_southeast_2024_09_27_severe_d1_hover","properties":{"event_id":"evt_20240926_southeast_2024_09_26_severe","day_index":2,"geometry_role":"hover_geometry"},"geometry":{"type":"Polygon","coordinates":[[[-78.44,33.51],[-77.95,33.52],[-77.68,33.62],[-76.26,34.38],[-75.75,34.83],[-77.09,35.56],[-77.88,35.83],[-78.3,35.7],[-78.39,34.91],[-78.44,33.51]]]}},{"type":"Feature","id":"geom_evt_20240912_northern_plains_2024_09_12_severe_d1_hover","properties":{"event_id":"evt_20240912_northern_plains_2024_09_12_severe","day_index":1,"geometry_role":"hover_geometry"},"geometry":{"type":"Polygon","coordinates":[[[-105.33,47.42],[-105.31,46.7],[-104.82,46.18],[-104.02,46.14],[-103.43,46.46],[-103.12,47.45],[-103.45,48.65],[-104.07,48.86],[-104.75,48.65],[-105.14,48.09],[-105.33,47.42]]]}},{"type":"Feature","id":"geom_evt_20240917_northern_plains_2024_09_17_severe_d1_hover","properties":{"event_id":"evt_20240917_northern_plains_2024_09_17_severe","day_index":1,"geometry_role":"hover_geometry"},"geometry":{"type":"Polygon","coordinates":[[[-104.08,41.05],[-104.01,40.16],[-103.78,39.34],[-103.41,38.62],[-102.31,38.64],[-101.79,39.11],[-101.37,39.7],[-101.4,40.76],[-101.49,41.82],[-101.91,42.67],[-102.24,42.89],[-102.71,42.98],[-103.45,42.99],[-103.88,42.79],[-103.97,42.07],[-104.08,41.05]]]}},{"type":"Feature","id":"geom_evt_20240911_southeast_2024_09_11_severe_d1_hover","properties":{"event_id":"evt_20240911_southeast_2024_09_11_severe","day_index":1,"geometry_role":"hover_geometry"},"geometry":{"type":"Polygon","coordinates":[[[-91.58,29.02],[-91.56,28.98],[-91.08,28.73],[-89.4,28.58],[-85.02,29.25],[-84.55,29.41],[-84.67,29.75],[-85.01,30.08],[-85.85,30.67],[-86.77,31.17],[-87.66,31.43],[-88.52,31.58],[-90.1,31.2],[-90.7,30.73],[-91.51,29.58],[-91.58,29.02]]]}},{"type":"Feature","id":"geom_evt_20240916_mid_atlantic_2024_09_16_severe_d1_hover","properties":{"event_id":"evt_20240916_mid_atlantic_2024_09_16_severe","day_index":1,"geometry_role":"hover_geometry"},"geometry":{"type":"Polygon","coordinates":[[[-100.79,46.77],[-100.36,46.06],[-78.19,33.57],[-77.95,33.52],[-77.68,33.62],[-76.26,34.38],[-75.28,34.98],[-75.17,35.24],[-75.12,35.64],[-94.88,49.36],[-95.19,49.34],[-98.43,49],[-99.23,48.68],[-100.44,48.06],[-100.69,47.68],[-100.79,46.77]]]}},{"type":"Feature","id":"geom_evt_20240924_mid_atlantic_2024_09_24_severe_d1_hover","properties":{"event_id":"evt_20240924_mid_atlantic_2024_09_24_severe","day_index":1,"geometry_role":"hover_geometry"},"geometry":{"type":"Polygon","coordinates":[[[-98.74,35.55],[-98.57,34.96],[-97.7,34.77],[-86.42,35.4],[-81.78,37.14],[-80.82,38.08],[-80.72,38.53],[-81.16,38.85],[-83.9,39.58],[-84.5,39.52],[-98.36,36.04],[-98.74,35.55]]]}},{"type":"Feature","id":"geom_evt_20240918_upper_midwest_2024_09_18_severe_d1_hover","properties":{"event_id":"evt_20240918_upper_midwest_2024_09_18_severe","day_index":1,"geometry_role":"hover_geometry"},"geometry":{"type":"Polygon","coordinates":[[[-97.76,42.35],[-97.35,41.79],[-96.8,41.62],[-96.54,41.76],[-96.23,42.31],[-95.62,43.81],[-95.23,45.1],[-95.3,45.54],[-95.54,45.99],[-96.32,46.34],[-96.79,46.19],[-97.66,42.84],[-97.76,42.35]]]}},{"type":"Feature","id":"geom_evt_20240919_upper_midwest_2024_09_19_severe_d1_hover","properties":{"event_id":"evt_20240918_upper_midwest_2024_09_18_severe","day_index":2,"geometry_role":"hover_geometry"},"geometry":{"type":"Polygon","coordinates":[[[-96.93,37.21],[-96.31,36.73],[-95.3,36.82],[-93.71,38.56],[-91.29,41.98],[-90.51,43.77],[-90.33,45.12],[-90.41,46.48],[-90.78,48.23],[-90.83,48.28],[-92.61,48.55],[-93.33,48.64],[-93.52,48.57],[-96.93,37.21]]]}},{"type":"Feature","id":"geom_evt_20240921_central_plains_2024_09_21_severe_d1_hover","properties":{"event_id":"evt_20240921_central_plains_2024_09_21_severe","day_index":1,"geometry_role":"hover_geometry"},"geometry":{"type":"Polygon","coordinates":[[[-105.22,35.32],[-104.72,33.07],[-104.22,32.13],[-104,31.93],[-103.56,31.68],[-103.25,31.74],[-102.8,32.28],[-101.74,33.71],[-101.06,34.88],[-101.07,35.68],[-101.25,35.92],[-101.59,35.99],[-105.03,35.66],[-105.22,35.32]]]}}]}