{"type":"FeatureCollection","features":[{"type":"Feature","id":"geom_evt_2024_al12_kirk_d1_hover","properties":{"event_id":"evt_2024_al12_kirk","day_index":1,"geometry_role":"hover_geometry"},"geometry":{"type":"Polygon","coordinates":[[[-42.7,15.9],[-42.3,14.63],[-41.2,13.69],[-39.7,13.35],[-38.2,13.69],[-37.1,14.63],[-36.7,15.9],[-37.1,17.18],[-38.2,18.11],[-39.7,18.45],[-41.2,18.11],[-42.3,17.18],[-42.7,15.9]]]}},{"type":"Feature","id":"geom_evt_2024_al12_kirk_d2_hover","properties":{"event_id":"evt_2024_al12_kirk","day_index":2,"geometry_role":"hover_geometry"},"geometry":{"type":"Polygon","coordinates":[[[-46.5,18.5],[-46.1,17.23],[-45,16.29],[-43.5,15.95],[-42,16.29],[-40.9,17.22],[-40.5,18.5],[-40.9,19.77],[-42,20.71],[-43.5,21.05],[-45,20.71],[-46.1,19.77],[-46.5,18.5]]]}},{"type":"Feature","id":"geom_evt_2024_al12_kirk_d3_hover","properties":{"event_id":"evt_2024_al12_kirk","day_index":3,"geometry_role":"hover_geometry"},"geometry":{"type":"Polygon","coordinates":[[[-49.3,20.7],[-48.9,19.43],[-47.8,18.49],[-46.3,18.15],[-44.8,18.49],[-43.7,19.42],[-43.3,20.7],[-43.7,21.98],[-44.8,22.91],[-46.3,23.25],[-47.8,22.91],[-48.9,21.98],[-49.3,20.7]]]}},{"type":"Feature","id":"geom_evt_2024_al12_kirk_d4_hover","properties":{"event_id":"evt_2024_al12_kirk","day_index":4,"geometry_role":"hover_geometry"},"geometry":{"type":"Polygon","coordinates":[[[-52.1,23.3],[-51.7,22.03],[-50.6,21.09],[-49.1,20.75],[-47.6,21.09],[-46.5,22.03],[-46.1,23.3],[-46.5,24.58],[-47.6,25.51],[-49.1,25.85],[-50.6,25.51],[-51.7,24.58],[-52.1,23.3]]]}},{"type":"Feature","id":"geom_evt_2024_al12_kirk_d5_hover","properties":{"event_id":"evt_2024_al12_kirk","day_index":5,"geometry_role":"hover_geometry"},"geometry":{"type":"Polygon","coordinates":[[[-53.2,28.7],[-52.8,27.43],[-51.7,26.49],[-50.2,26.15],[-48.7,26.49],[-47.6,27.42],[-47.2,28.7],[-47.6,29.98],[-48.7,30.91],[-50.2,31.25],[-51.7,30.91],[-52.8,29.98],[-53.2,28.7]]]}},{"type":"Feature","id":"geom_evt_2024_al12_kirk_d6_hover","properties":{"event_id":"evt_2024_al12_kirk","day_index":6,"geometry_role":"hover_geometry"},"geometry":{"type":"Polygon","coordinates":[[[-50.2,36.4],[-49.8,35.13],[-48.7,34.19],[-47.2,33.85],[-45.7,34.19],[-44.6,35.13],[-44.2,36.4],[-44.6,37.67],[-45.7,38.61],[-47.2,38.95],[-48.7,38.61],[-49.8,37.67],[-50.2,36.4]]]}},{"type":"Feature","id":"geom_evt_2024_al12_kirk_d7_hover","properties":{"event_id":"evt_2024_al12_kirk","day_index":7,"geometry_role":"hover_geometry"},"geometry":{"type":"Polygon","coordinates":[[[-38.8,42.7],[-38.51,41.77],[-37.7,41.08],[-36.6,40.83],[-35.5,41.08],[-34.69,41.77],[-34.4,42.7],[-34.69,43.64],[-35.5,44.32],[-36.6,44.57],[-37.7,44.32],[-38.51,43.64],[-38.8,42.7]]]}},{"type":"Feature","id":"geom_evt_2024_al12_kirk_d8_hover","properties":{"event_id":"evt_2024_al12_kirk","day_index":8,"geometry_role":"hover_geometry"},"geometry":{"type":"Polygon","coordinates":[[[-23.1,42.9],[-22.81,41.97],[-22,41.28],[-20.9,41.03],[-19.8,41.28],[-18.99,41.97],[-18.7,42.9],[-18.99,43.84],[-19.8,44.52],[-20.9,44.77],[-22,44.52],[-22.81,43.84],[-23.1,42.9]]]}},{"type":"Feature","id":"geom_evt_2024_al12_kirk_d9_hover","properties":{"event_id":"evt_2024_al12_kirk","day_index":9,"geometry_role":"hover_geometry"},"geometry":{"type":"Polygon","coordinates":[[[-0.2,48],[0.09,47.07],[0.9,46.38],[2,46.13],[3.1,46.38],[3.91,47.07],[4.2,48],[3.91,48.94],[3.1,49.62],[2,49.87],[0.9,49.62],[0.09,48.94],[-0.2,48]]]}},{"type":"Feature","id":"geom_evt_2024_al12_kirk_d10_hover","properties":{"event_id":"evt_2024_al12_kirk","day_index":10,"geometry_role":"hover_geometry"},"geometry":{"type":"Polygon","coordinates":[[[6.5,51],[6.7,50.36],[7.25,49.9],[8,49.73],[8.75,49.9],[9.3,50.36],[9.5,51],[9.3,51.64],[8.75,52.1],[8,52.28],[7.25,52.1],[6.7,51.64],[6.5,51]]]}},{"type":"Feature","id":"geom_evt_2024_al14_milton_d1_hover","properties":{"event_id":"evt_2024_al14_milton","day_index":1,"geometry_role":"hover_geometry"},"geometry":{"type":"Polygon","coordinates":[[[-96.1,21],[-95.9,20.36],[-95.35,19.9],[-94.6,19.73],[-93.85,19.9],[-93.3,20.36],[-93.1,21],[-93.3,21.64],[-93.85,22.1],[-94.6,22.28],[-95.35,22.1],[-95.9,21.64],[-96.1,21]]]}},{"type":"Feature","id":"geom_evt_2024_al14_milton_d2_hover","properties":{"event_id":"evt_2024_al14_milton","day_index":2,"geometry_role":"hover_geometry"},"geometry":{"type":"Polygon","coordinates":[[[-97.7,22.5],[-97.41,21.57],[-96.6,20.88],[-95.5,20.63],[-94.4,20.88],[-93.59,21.57],[-93.3,22.5],[-93.59,23.44],[-94.4,24.12],[-95.5,24.37],[-96.6,24.12],[-97.41,23.44],[-97.7,22.5]]]}},{"type":"Feature","id":"geom_evt_2024_al14_milton_d3_hover","properties":{"event_id":"evt_2024_al14_milton","day_index":3,"geometry_role":"hover_geometry"},"geometry":{"type":"Polygon","coordinates":[[[-97.1,22.5],[-96.7,21.23],[-95.6,20.29],[-94.1,19.95],[-92.6,20.29],[-91.5,21.23],[-91.1,22.5],[-91.5,23.78],[-92.6,24.71],[-94.1,25.05],[-95.6,24.71],[-96.7,23.78],[-97.1,22.5]]]}},{"type":"Feature","id":"geom_evt_2024_al14_milton_d4_hover","properties":{"event_id":"evt_2024_al14_milton","day_index":4,"geometry_role":"hover_geometry"},"geometry":{"type":"Polygon","coordinates":[[[-93.9,21.8],[-93.5,20.53],[-92.4,19.59],[-90.9,19.25],[-89.4,19.59],[-88.3,20.53],[-87.9,21.8],[-88.3,23.08],[-89.4,24.01],[-90.9,24.35],[-92.4,24.01],[-93.5,23.08],[-93.9,21.8]]]}},{"type":"Feature","id":"geom_evt_2024_al14_milton_d5_hover","properties":{"event_id":"evt_2024_al14_milton","day_index":5,"geometry_role":"hover_geometry"},"geometry":{"type":"Polygon","coordinates":[[[-90.2,22.8],[-89.8,21.53],[-88.7,20.59],[-87.2,20.25],[-85.7,20.59],[-84.6,21.53],[-84.2,22.8],[-84.6,24.08],[-85.7,25.01],[-87.2,25.35],[-88.7,25.01],[-89.8,24.08],[-90.2,22.8]]]}},{"type":"Feature","id":"geom_evt_2024_al14_milton_d6_hover","properties":{"event_id":"evt_2024_al14_milton","day_index":6,"geometry_role":"hover_geometry"},"geometry":{"type":"Polygon","coordinates":[[[-87,26.3],[-86.6,25.03],[-85.5,24.09],[-84,23.75],[-82.5,24.09],[-81.4,25.03],[-81,26.3],[-81.4,27.58],[-82.5,28.51],[-84,28.85],[-85.5,28.51],[-86.6,27.58],[-87,26.3]]]}},{"type":"Feature","id":"geom_evt_2024_al14_milton_d7_hover","properties":{"event_id":"evt_2024_al14_milton","day_index":7,"geometry_role":"hover_geometry"},"geometry":{"type":"Polygon","coordinates":[[[-79.7,29.5],[-79.41,28.57],[-78.6,27.88],[-77.5,27.63],[-76.4,27.88],[-75.59,28.57],[-75.3,29.5],[-75.59,30.44],[-76.4,31.12],[-77.5,31.37],[-78.6,31.12],[-79.41,30.44],[-79.7,29.5]]]}},{"type":"Feature","id":"geom_evt_2024_al14_milton_d8_hover","properties":{"event_id":"evt_2024_al14_milton","day_index":8,"geometry_role":"hover_geometry"},"geometry":{"type":"Polygon","coordinates":[[[-68.1,29.3],[-67.81,28.37],[-67,27.68],[-65.9,27.43],[-64.8,27.68],[-63.99,28.37],[-63.7,29.3],[-63.99,30.24],[-64.8,30.92],[-65.9,31.17],[-67,30.92],[-67.81,30.24],[-68.1,29.3]]]}},{"type":"Feature","id":"geom_evt_20241009_southeast_2024_10_09_rain_d1_hover","properties":{"event_id":"evt_20241009_southeast_2024_10_09_rain","day_index":1,"geometry_role":"hover_geometry"},"geometry":{"type":"Polygon","coordinates":[[[-82.83,27.95],[-82.83,27.92],[-82.83,27.89],[-82.82,27.86],[-82.7,27.47],[-82.69,27.46],[-82.18,26.44],[-82.17,26.44],[-82.16,26.43],[-82.15,26.42],[-82.13,26.41],[-82.11,26.4],[-82.1,26.4],[-82.09,26.41],[-81.92,26.47],[-81.9,26.48],[-81.88,26.49],[-81.86,26.5],[-80.39,27.68],[-80.37,27.7],[-80.37,27.72],[-80.37,27.74],[-80.37,27.76],[-80.46,28.46],[-80.46,28.47],[-80.52,28.58],[-81.22,29.85],[-81.23,29.86],[-81.24,29.87],[-81.25,29.88],[-81.26,29.89],[-81.27,29.89],[-81.29,29.89],[-81.31,29.89],[-81.32,29.89],[-81.34,29.88],[-81.55,29.77],[-81.57,29.76],[-82.26,29.34],[-82.28,29.33],[-82.6,29.12],[-82.62,29.11],[-82.64,29.08],[-82.66,29.07],[-82.67,29.06],[-82.68,29.04],[-82.69,29.03],[-82.7,29.01],[-82.7,29],[-82.83,28.01],[-82.83,27.98],[-82.83,27.95]]]}},{"type":"Feature","id":"geom_evt_2024_al13_leslie_d1_hover","properties":{"event_id":"evt_2024_al13_leslie","day_index":1,"geometry_role":"hover_geometry"},"geometry":{"type":"Polygon","coordinates":[[[-27.5,10.6],[-27.3,9.96],[-26.75,9.5],[-26,9.32],[-25.25,9.5],[-24.7,9.96],[-24.5,10.6],[-24.7,11.24],[-25.25,11.7],[-26,11.88],[-26.75,11.7],[-27.3,11.24],[-27.5,10.6]]]}},{"type":"Feature","id":"geom_evt_2024_al13_leslie_d2_hover","properties":{"event_id":"evt_2024_al13_leslie","day_index":2,"geometry_role":"hover_geometry"},"geometry":{"type":"Polygon","coordinates":[[[-30.8,10.5],[-30.6,9.86],[-30.05,9.4],[-29.3,9.23],[-28.55,9.4],[-28,9.86],[-27.8,10.5],[-28,11.14],[-28.55,11.6],[-29.3,11.78],[-30.05,11.6],[-30.6,11.14],[-30.8,10.5]]]}},{"type":"Feature","id":"geom_evt_2024_al13_leslie_d3_hover","properties":{"event_id":"evt_2024_al13_leslie","day_index":3,"geometry_role":"hover_geometry"},"geometry":{"type":"Polygon","coordinates":[[[-33.5,9.9],[-33.21,8.97],[-32.4,8.28],[-31.3,8.03],[-30.2,8.28],[-29.39,8.97],[-29.1,9.9],[-29.39,10.84],[-30.2,11.52],[-31.3,11.77],[-32.4,11.52],[-33.21,10.84],[-33.5,9.9]]]}},{"type":"Feature","id":"geom_evt_2024_al13_leslie_d4_hover","properties":{"event_id":"evt_2024_al13_leslie","day_index":4,"geometry_role":"hover_geometry"},"geometry":{"type":"Polygon","coordinates":[[[-35.5,10.1],[-35.21,9.16],[-34.4,8.48],[-33.3,8.23],[-32.2,8.48],[-31.39,9.16],[-31.1,10.1],[-31.39,11.04],[-32.2,11.72],[-33.3,11.97],[-34.4,11.72],[-35.21,11.04],[-35.5,10.1]]]}},{"type":"Feature","id":"geom_evt_2024_al13_leslie_d5_hover","properties":{"event_id":"evt_2024_al13_leslie","day_index":5,"geometry_role":"hover_geometry"},"geometry":{"type":"Polygon","coordinates":[[[-38.7,11.3],[-38.3,10.03],[-37.2,9.09],[-35.7,8.75],[-34.2,9.09],[-33.1,10.03],[-32.7,11.3],[-33.1,12.58],[-34.2,13.51],[-35.7,13.85],[-37.2,13.51],[-38.3,12.58],[-38.7,11.3]]]}},{"type":"Feature","id":"geom_evt_2024_al13_leslie_d6_hover","properties":{"event_id":"evt_2024_al13_leslie","day_index":6,"geometry_role":"hover_geometry"},"geometry":{"type":"Polygon","coordinates":[[[-41.2,13.7],[-40.8,12.43],[-39.7,11.49],[-38.2,11.15],[-36.7,11.49],[-35.6,12.43],[-35.2,13.7],[-35.6,14.98],[-36.7,15.91],[-38.2,16.25],[-39.7,15.91],[-40.8,14.98],[-41.2,13.7]]]}},{"type":"Feature","id":"geom_evt_2024_al13_leslie_d7_hover","properties":{"event_id":"evt_2024_al13_leslie","day_index":7,"geometry_role":"hover_geometry"},"geometry":{"type":"Polygon","coordinates":[[[-44.9,16.8],[-44.5,15.53],[-43.4,14.59],[-41.9,14.25],[-40.4,14.59],[-39.3,15.53],[-38.9,16.8],[-39.3,18.08],[-40.4,19.01],[-41.9,19.35],[-43.4,19.01],[-44.5,18.08],[-44.9,16.8]]]}},{"type":"Feature","id":"geom_evt_2024_al13_leslie_d8_hover","properties":{"event_id":"evt_2024_al13_leslie","day_index":8,"geometry_role":"hover_geometry"},"geometry":{"type":"Polygon","coordinates":[[[-49.1,19.7],[-48.7,18.43],[-47.6,17.49],[-46.1,17.15],[-44.6,17.49],[-43.5,18.42],[-43.1,19.7],[-43.5,20.98],[-44.6,21.91],[-46.1,22.25],[-47.6,21.91],[-48.7,20.98],[-49.1,19.7]]]}},{"type":"Feature","id":"geom_evt_2024_al13_leslie_d9_hover","properties":{"event_id":"evt_2024_al13_leslie","day_index":9,"geometry_role":"hover_geometry"},"geometry":{"type":"Polygon","coordinates":[[[-51.6,21.9],[-51.2,20.63],[-50.1,19.69],[-48.6,19.35],[-47.1,19.69],[-46,20.62],[-45.6,21.9],[-46,23.17],[-47.1,24.11],[-48.6,24.45],[-50.1,24.11],[-51.2,23.17],[-51.6,21.9]]]}},{"type":"Feature","id":"geom_evt_2024_al13_leslie_d10_hover","properties":{"event_id":"evt_2024_al13_leslie","day_index":10,"geometry_role":"hover_geometry"},"geometry":{"type":"Polygon","coordinates":[[[-53.8,23.5],[-53.4,22.23],[-52.3,21.29],[-50.8,20.95],[-49.3,21.29],[-48.2,22.23],[-47.8,23.5],[-48.2,24.78],[-49.3,25.71],[-50.8,26.05],[-52.3,25.71],[-53.4,24.78],[-53.8,23.5]]]}},{"type":"Feature","id":"geom_evt_2024_al13_leslie_d11_hover","properties":{"event_id":"evt_2024_al13_leslie","day_index":11,"geometry_role":"hover_geometry"},"geometry":{"type":"Polygon","coordinates":[[[-52.2,27],[-51.91,26.07],[-51.1,25.38],[-50,25.13],[-48.9,25.38],[-48.09,26.07],[-47.8,27],[-48.09,27.94],[-48.9,28.62],[-50,28.87],[-51.1,28.62],[-51.91,27.94],[-52.2,27]]]}},{"type":"Feature","id":"geom_evt_2024_al13_leslie_d12_hover","properties":{"event_id":"evt_2024_al13_leslie","day_index":12,"geometry_role":"hover_geometry"},"geometry":{"type":"Polygon","coordinates":[[[-49.3,30.4],[-49.01,29.47],[-48.2,28.78],[-47.1,28.53],[-46,28.78],[-45.19,29.46],[-44.9,30.4],[-45.19,31.33],[-46,32.02],[-47.1,32.27],[-48.2,32.02],[-49.01,31.33],[-49.3,30.4]]]}},{"type":"Feature","id":"geom_evt_2024_al16_oscar_d1_hover","properties":{"event_id":"evt_2024_al16_oscar","day_index":1,"geometry_role":"hover_geometry"},"geometry":{"type":"Polygon","coordinates":[[[-74.1,21.5],[-73.7,20.23],[-72.6,19.29],[-71.1,18.95],[-69.6,19.29],[-68.5,20.22],[-68.1,21.5],[-68.5,22.78],[-69.6,23.71],[-71.1,24.05],[-72.6,23.71],[-73.7,22.78],[-74.1,21.5]]]}},{"type":"Feature","id":"geom_evt_2024_al16_oscar_d2_hover","properties":{"event_id":"evt_2024_al16_oscar","day_index":2,"geometry_role":"hover_geometry"},"geometry":{"type":"Polygon","coordinates":[[[-77.4,20.3],[-77,19.03],[-75.9,18.09],[-74.4,17.75],[-72.9,18.09],[-71.8,19.02],[-71.4,20.3],[-71.8,21.58],[-72.9,22.51],[-74.4,22.85],[-75.9,22.51],[-77,21.58],[-77.4,20.3]]]}},{"type":"Feature","id":"geom_evt_2024_al16_oscar_d3_hover","properties":{"event_id":"evt_2024_al16_oscar","day_index":3,"geometry_role":"hover_geometry"},"geometry":{"type":"Polygon","coordinates":[[[-78.1,20.7],[-77.81,19.77],[-77,19.08],[-75.9,18.83],[-74.8,19.08],[-73.99,19.76],[-73.7,20.7],[-73.99,21.64],[-74.8,22.32],[-75.9,22.57],[-77,22.32],[-77.81,21.64],[-78.1,20.7]]]}},{"type":"Feature","id":"geom_evt_2024_al16_oscar_d4_hover","properties":{"event_id":"evt_2024_al16_oscar","day_index":4,"geometry_role":"hover_geometry"},"geometry":{"type":"Polygon","coordinates":[[[-76.8,22.7],[-76.51,21.77],[-75.7,21.08],[-74.6,20.83],[-73.5,21.08],[-72.69,21.76],[-72.4,22.7],[-72.69,23.64],[-73.5,24.32],[-74.6,24.57],[-75.7,24.32],[-76.51,23.64],[-76.8,22.7]]]}},{"type":"Feature","id":"geom_evt_20241001_northern_plains_2024_10_01_fire_d1_hover","properties":{"event_id":"evt_20241001_northern_plains_2024_10_01_fire","day_index":1,"geometry_role":"hover_geometry"},"geometry":{"type":"Polygon","coordinates":[[[-105.45,47.45],[-105.38,46.87],[-104.98,46.57],[-104.32,46.38],[-103.47,46.32],[-102.69,46.37],[-101.93,46.57],[-101.39,46.95],[-100.79,47.42],[-100.74,47.96],[-100.75,48.56],[-100.77,48.99],[-103.4,48.99],[-104.94,48.12],[-105.45,47.45]]]}},{"type":"Feature","id":"geom_evt_20241005_northern_plains_2024_10_05_fire_d1_hover","properties":{"event_id":"evt_20241005_northern_plains_2024_10_05_fire","day_index":1,"geometry_role":"hover_geometry"},"geometry":{"type":"Polygon","coordinates":[[[-110.56,41.61],[-110.14,41.07],[-109.62,40.72],[-108.66,40.51],[-107.57,40.33],[-102.09,39.68],[-101.18,39.76],[-100.46,40.09],[-97.7,41.83],[-97.16,42.38],[-97.51,43.3],[-99.04,44.07],[-101.27,44.72],[-103.02,44.44],[-109.66,42.33],[-110.49,41.85],[-110.56,41.61]]]}},{"type":"Feature","id":"geom_evt_20241002_northern_rockies_2024_10_02_fire_d1_hover","properties":{"event_id":"evt_20241002_northern_rockies_2024_10_02_fire","day_index":1,"geometry_role":"hover_geometry"},"geometry":{"type":"Polygon","coordinates":[[[-108.34,42.09],[-108.33,41.74],[-107.86,41.56],[-107.23,41.48],[-106.5,41.39],[-105.49,41.41],[-104.92,41.67],[-104.89,42.12],[-105.44,42.33],[-106.59,42.5],[-107.86,42.47],[-108.34,42.09]]]}},{"type":"Feature","id":"geom_evt_20241004_desert_southwest_2024_10_04_fire_d1_hover","properties":{"event_id":"evt_20241004_desert_southwest_2024_10_04_fire","day_index":1,"geometry_role":"hover_geometry"},"geometry":{"type":"Polygon","coordinates":[[[-120.39,41.07],[-120.33,40.45],[-119.85,40.03],[-118.82,39.46],[-107.77,41.08],[-105.72,41.47],[-105.06,41.86],[-104.91,42.64],[-106.05,43.45],[-109.85,46],[-110.45,46.21],[-111.69,46.14],[-113.43,45.66],[-119.86,43.6],[-120.25,43.19],[-120.39,41.07]]]}},{"type":"Feature","id":"geom_evt_20241016_upper_midwest_2024_10_16_fire_d1_hover","properties":{"event_id":"evt_20241016_upper_midwest_2024_10_16_fire","day_index":1,"geometry_role":"hover_geometry"},"geometry":{"type":"Polygon","coordinates":[[[-101.95,43],[-101.15,38.45],[-101.06,37.94],[-100.78,37.88],[-100.54,37.86],[-100.19,37.92],[-99.83,38.1],[-99.36,38.46],[-97.02,41.77],[-96.42,42.9],[-96.11,44.09],[-96.13,44.98],[-96.91,46.06],[-97.41,46.32],[-98.64,46.34],[-100.08,45.93],[-101.44,44.81],[-101.93,43.72],[-101.95,43]]]}},{"type":"Feature","id":"geom_evt_20241017_upper_midwest_2024_10_17_fire_d1_hover","properties":{"event_id":"evt_20241016_upper_midwest_2024_10_16_fire","day_index":2,"geometry_role":"hover_geometry"},"geometry":{"type":"Polygon","coordinates":[[[-102.08,39.75],[-102.06,38.97],[-101.8,38.45],[-101.42,38.2],[-101.05,38.18],[-98.13,38.45],[-96.18,38.87],[-95.1,40.17],[-94.66,41.16],[-94.76,42.55],[-95.63,43.59],[-96.89,44.31],[-97.56,44.35],[-98.35,44.02],[-99.43,42.99],[-100.57,41.72],[-101.36,40.77],[-102.08,39.75]]]}},{"type":"Feature","id":"geom_evt_20241018_southern_california_2024_10_18_fire_d1_hover","properties":{"event_id":"evt_20241018_southern_california_2024_10_18_fire","day_index":1,"geometry_role":"hover_geometry"},"geometry":{"type":"Polygon","coordinates":[[[-119.02,34.36],[-118.93,34.19],[-117.46,33.54],[-117.28,33.48],[-117.08,33.59],[-116.85,33.94],[-116.81,34.11],[-116.91,34.23],[-117.1,34.33],[-117.54,34.44],[-118.04,34.56],[-118.53,34.57],[-118.9,34.48],[-119.02,34.36]]]}},{"type":"Feature","id":"geom_evt_20241028_southern_plains_2024_10_28_fire_d1_hover","properties":{"event_id":"evt_20241028_southern_plains_2024_10_28_fire","day_index":1,"geometry_role":"hover_geometry"},"geometry":{"type":"Polygon","coordinates":[[[-101.63,35.18],[-101.4,34.88],[-101.1,34.52],[-100.71,34.36],[-100.2,34.3],[-99.29,34.56],[-98.56,35.04],[-97.78,35.56],[-97.24,36.65],[-97.22,37.69],[-97.81,38.34],[-98.55,38.3],[-98.93,38.11],[-100.9,37.05],[-101.33,36.59],[-101.62,35.53],[-101.63,35.18]]]}},{"type":"Feature","id":"geom_evt_20241029_central_plains_2024_10_29_fire_d1_hover","properties":{"event_id":"evt_20241029_central_plains_2024_10_29_fire","day_index":1,"geometry_role":"hover_geometry"},"geometry":{"type":"Polygon","coordinates":[[[-103.21,38],[-101.87,35.5],[-101.56,35.33],[-101.33,35.48],[-101.1,35.72],[-100.84,36.56],[-100.63,38.85],[-100.89,39.48],[-101.47,39.78],[-102.2,39.71],[-102.91,39.11],[-103.21,38]]]}},{"type":"Feature","id":"geom_evt_20241030_central_plains_2024_10_30_fire_d1_hover","properties":{"event_id":"evt_20241029_central_plains_2024_10_29_fire","day_index":2,"geometry_role":"hover_geometry"},"geometry":{"type":"Polygon","coordinates":[[[-101.77,35.14],[-101.72,35.01],[-101.47,34.89],[-99.8,35.02],[-99.66,35.11],[-99.57,35.44],[-99.45,35.95],[-99.45,36.48],[-99.46,36.67],[-99.71,36.99],[-100.11,36.99],[-101.3,36.71],[-101.7,36.34],[-101.77,35.14]]]}},{"type":"Feature","id":"geom_evt_20241006_southeast_2024_10_06_rain_d1_hover","properties":{"event_id":"evt_20241006_southeast_2024_10_06_rain","day_index":1,"geometry_role":"hover_geometry"},"geometry":{"type":"Polygon","coordinates":[[[-80.55,25.33],[-80.55,25.31],[-80.55,25.29],[-80.54,25.27],[-80.53,25.25],[-80.41,25.13],[-80.4,25.13],[-80.39,25.13],[-80.38,25.13],[-80.37,25.13],[-80.35,25.14],[-80.34,25.15],[-80.33,25.16],[-80.32,25.18],[-80.31,25.19],[-80.3,25.21],[-80.28,25.26],[-80.27,25.28],[-80.08,25.92],[-80.03,26.14],[-80.02,26.17],[-79.96,26.56],[-79.96,26.56],[-79.96,26.57],[-79.96,26.58],[-79.96,26.59],[-79.97,26.59],[-79.97,26.59],[-79.98,26.6],[-79.99,26.6],[-80,26.6],[-80,26.6],[-80.01,26.59],[-80.12,26.55],[-80.14,26.54],[-80.16,26.53],[-80.18,26.51],[-80.2,26.5],[-80.21,26.48],[-80.22,26.47],[-80.31,26.36],[-80.32,26.34],[-80.33,26.32],[-80.34,26.29],[-80.5,25.71],[-80.51,25.68],[-80.51,25.65],[-80.55,25.33]]]}},{"type":"Feature","id":"geom_evt_20241007_southeast_2024_10_07_rain_d1_hover","properties":{"event_id":"evt_20241006_southeast_2024_10_06_rain","day_index":2,"geometry_role":"hover_geometry"},"geometry":{"type":"Polygon","coordinates":[[[-81.84,26.21],[-81.84,26.18],[-81.83,26.15],[-81.51,24.67],[-81.51,24.67],[-81.51,24.66],[-81.51,24.66],[-81.5,24.66],[-81.49,24.66],[-81.48,24.66],[-81.46,24.66],[-80.37,25.13],[-80.35,25.14],[-80.34,25.15],[-80.33,25.16],[-80.31,25.18],[-80.31,25.19],[-80.3,25.21],[-80.28,25.26],[-80.09,25.92],[-80.04,26.12],[-80.03,26.15],[-80.03,26.18],[-79.97,26.61],[-79.97,26.64],[-79.97,26.67],[-79.97,26.69],[-79.98,26.72],[-80.02,26.96],[-80.03,26.99],[-80.04,27.02],[-80.05,27.04],[-80.08,27.09],[-80.25,27.41],[-80.26,27.43],[-80.27,27.44],[-80.28,27.45],[-80.3,27.45],[-80.31,27.45],[-80.32,27.44],[-81.81,26.33],[-81.83,26.32],[-81.83,26.29],[-81.84,26.27],[-81.84,26.24],[-81.84,26.21]]]}},{"type":"Feature","id":"geom_evt_2024_al10_isaac_d1_hover","properties":{"event_id":"evt_2024_al10_isaac","day_index":1,"geometry_role":"hover_geometry"},"geometry":{"type":"Polygon","coordinates":[[[-25.9,48.4],[-25.61,47.47],[-24.8,46.78],[-23.7,46.53],[-22.6,46.78],[-21.79,47.47],[-21.5,48.4],[-21.79,49.34],[-22.6,50.02],[-23.7,50.27],[-24.8,50.02],[-25.61,49.34],[-25.9,48.4]]]}},{"type":"Feature","id":"geom_evt_2024_al10_isaac_d2_hover","properties":{"event_id":"evt_2024_al10_isaac","day_index":2,"geometry_role":"hover_geometry"},"geometry":{"type":"Polygon","coordinates":[[[-23.8,51.2],[-23.51,50.27],[-22.7,49.58],[-21.6,49.33],[-20.5,49.58],[-19.69,50.27],[-19.4,51.2],[-19.69,52.14],[-20.5,52.82],[-21.6,53.07],[-22.7,52.82],[-23.51,52.14],[-23.8,51.2]]]}},{"type":"Feature","id":"geom_evt_2024_al10_isaac_d3_hover","properties":{"event_id":"evt_2024_al10_isaac","day_index":3,"geometry_role":"hover_geometry"},"geometry":{"type":"Polygon","coordinates":[[[-23.2,51.9],[-22.91,50.97],[-22.1,50.28],[-21,50.03],[-19.9,50.28],[-19.09,50.97],[-18.8,51.9],[-19.09,52.84],[-19.9,53.52],[-21,53.77],[-22.1,53.52],[-22.91,52.84],[-23.2,51.9]]]}},{"type":"Feature","id":"geom_evt_2024_al15_nadine_d1_hover","properties":{"event_id":"evt_2024_al15_nadine","day_index":1,"geometry_role":"hover_geometry"},"geometry":{"type":"Polygon","coordinates":[[[-86.3,17.2],[-86.1,16.56],[-85.55,16.1],[-84.8,15.93],[-84.05,16.1],[-83.5,16.56],[-83.3,17.2],[-83.5,17.84],[-84.05,18.3],[-84.8,18.47],[-85.55,18.3],[-86.1,17.84],[-86.3,17.2]]]}},{"type":"Feature","id":"geom_evt_2024_al15_nadine_d2_hover","properties":{"event_id":"evt_2024_al15_nadine","day_index":2,"geometry_role":"hover_geometry"},"geometry":{"type":"Polygon","coordinates":[[[-90.9,17.5],[-90.61,16.57],[-89.8,15.88],[-88.7,15.63],[-87.6,15.88],[-86.79,16.56],[-86.5,17.5],[-86.79,18.43],[-87.6,19.12],[-88.7,19.37],[-89.8,19.12],[-90.61,18.43],[-90.9,17.5]]]}},{"type":"Feature","id":"geom_evt_2024_al15_nadine_d3_hover","properties":{"event_id":"evt_2024_al15_nadine","day_index":3,"geometry_role":"hover_geometry"},"geometry":{"type":"Polygon","coordinates":[[[-92.7,17.1],[-92.5,16.46],[-91.95,16],[-91.2,15.83],[-90.45,16],[-89.9,16.46],[-89.7,17.1],[-89.9,17.74],[-90.45,18.2],[-91.2,18.38],[-91.95,18.2],[-92.5,17.74],[-92.7,17.1]]]}},{"type":"Feature","id":"geom_evt_2024_al17_genesis_d1_hover","properties":{"event_id":"evt_2024_al17_genesis","day_index":1,"geometry_role":"hover_geometry"},"geometry":{"type":"Polygon","coordinates":[[[-43.2,39.2],[-42.91,38.27],[-42.1,37.58],[-41,37.33],[-39.9,37.58],[-39.09,38.27],[-38.8,39.2],[-39.09,40.14],[-39.9,40.82],[-41,41.07],[-42.1,40.82],[-42.91,40.14],[-43.2,39.2]]]}},{"type":"Feature","id":"geom_evt_20241018_southwest_2024_10_18_winter_d1_hover","properties":{"event_id":"evt_20241018_southwest_2024_10_18_winter","day_index":1,"geometry_role":"hover_geometry"},"geometry":{"type":"Polygon","coordinates":[[[-112.85,38.57],[-108.31,37.21],[-107.45,37.06],[-107.07,37],[-106.87,36.99],[-106.27,36.99],[-106.24,37.45],[-106.3,38.33],[-106.31,38.35],[-110.17,39.99],[-110.43,40.1],[-111.36,40.45],[-111.41,40.46],[-111.45,40.46],[-112.23,39.53],[-112.85,38.63],[-112.85,38.57]]]}},{"type":"Feature","id":"geom_evt_20241021_pacific_northwest_2024_10_21_winter_d1_hover","properties":{"event_id":"evt_20241021_pacific_northwest_2024_10_21_winter","day_index":1,"geometry_role":"hover_geometry"},"geometry":{"type":"Polygon","coordinates":[[[-164.91,68.03],[-163.38,67.07],[-158.72,66.12],[-149.26,64.36],[-149.12,64.34],[-147.79,64.26],[-146.58,64.26],[-146.33,64.28],[-143.68,64.65],[-143.66,64.66],[-143.64,64.67],[-143.5,64.75],[-142.85,65.14],[-142.78,65.19],[-142.76,65.21],[-142.75,65.23],[-142.75,65.24],[-148.8,68],[-159.93,68.29],[-162.68,68.3],[-162.72,68.3],[-164.5,68.23],[-164.91,68.03]]]}},{"type":"Feature","id":"geom_evt_20241017_northern_rockies_2024_10_17_winter_d1_hover","properties":{"event_id":"evt_20241017_northern_rockies_2024_10_17_winter","day_index":1,"geometry_role":"hover_geometry"},"geometry":{"type":"Polygon","coordinates":[[[-112.31,44.8],[-111.83,39.76],[-111.82,39.74],[-111.8,39.72],[-111.71,39.71],[-111.68,39.71],[-111.59,39.74],[-110.03,40.54],[-109.98,40.57],[-106.84,43.43],[-106.82,43.45],[-106.78,43.95],[-106.77,44.29],[-106.77,44.33],[-106.84,44.56],[-106.91,44.62],[-107.39,44.93],[-107.89,45.25],[-108.13,45.33],[-108.32,45.37],[-109.87,45.61],[-110.23,45.65],[-112,45.78],[-112.03,45.78],[-112.13,45.77],[-112.23,45.57],[-112.31,44.8]]]}},{"type":"Feature","id":"geom_evt_20241029_northern_rockies_2024_10_29_winter_d1_hover","properties":{"event_id":"evt_20241029_northern_rockies_2024_10_29_winter","day_index":1,"geometry_role":"hover_geometry"},"geometry":{"type":"Polygon","coordinates":[[[-110.06,43.38],[-110.05,43.21],[-109.98,43.06],[-109.9,42.98],[-109.33,42.52],[-109.24,42.47],[-109.11,42.41],[-108.95,42.37],[-108.87,42.37],[-108.68,42.44],[-107.1,43.21],[-106.84,43.43],[-106.82,43.45],[-106.78,43.95],[-106.77,44.29],[-106.77,44.33],[-106.84,44.56],[-106.91,44.62],[-107.39,44.93],[-107.89,45.25],[-108.13,45.33],[-108.32,45.37],[-108.45,45.38],[-108.63,45.38],[-108.68,45.37],[-108.71,45.34],[-110,43.72],[-110.05,43.58],[-110.06,43.46],[-110.06,43.38]]]}},{"type":"Feature","id":"geom_evt_20241031_upper_midwest_2024_10_31_winter_d1_hover","properties":{"event_id":"evt_20241031_upper_midwest_2024_10_31_winter","day_index":1,"geometry_role":"hover_geometry"},"geometry":{"type":"Polygon","coordinates":[[[-93.81,46.25],[-93.8,46.24],[-93.14,45.73],[-92.83,45.73],[-90.92,46.15],[-90.75,46.88],[-90.75,46.9],[-91.02,47.7],[-93.06,47.03],[-93.78,46.63],[-93.81,46.58],[-93.81,46.25]]]}},{"type":"Feature","id":"geom_evt_20241009_southeast_2024_10_09_severe_d1_hover","properties":{"event_id":"evt_20241009_southeast_2024_10_09_severe","day_index":1,"geometry_role":"hover_geometry"},"geometry":{"type":"Polygon","coordinates":[[[-82.93,27.25],[-82.53,26.48],[-82.32,26.17],[-82.08,25.94],[-79.76,27.02],[-79.79,27.15],[-80.2,28.55],[-80.35,28.83],[-80.51,29.08],[-81.13,28.65],[-82.93,27.25]]]}},{"type":"Feature","id":"geom_evt_20241030_southern_plains_2024_10_30_severe_d1_hover","properties":{"event_id":"evt_20241030_southern_plains_2024_10_30_severe","day_index":1,"geometry_role":"hover_geometry"},"geometry":{"type":"Polygon","coordinates":[[[-98.11,36.22],[-97.92,35.8],[-97.63,35.74],[-96.26,35.75],[-95.49,36.1],[-94.49,36.91],[-93.85,38.09],[-93.4,39.26],[-93.54,39.84],[-94.07,40.23],[-95.43,40.29],[-96.3,39.69],[-97.18,38.72],[-97.85,37.65],[-98.08,36.98],[-98.11,36.22]]]}},{"type":"Feature","id":"geom_evt_20241005_mid_atlantic_2024_10_05_severe_d1_hover","properties":{"event_id":"evt_20241005_mid_atlantic_2024_10_05_severe","day_index":1,"geometry_role":"hover_geometry"},"geometry":{"type":"Polygon","coordinates":[[[-90.35,45.36],[-89.9,44.8],[-88.31,44.57],[-87.26,45.35],[-87.08,45.74],[-87.9,46.13],[-89.49,46.37],[-90.19,46.12],[-90.35,45.36]]]}},{"type":"Feature","id":"geom_evt_20241006_great_lakes_2024_10_06_severe_d1_hover","properties":{"event_id":"evt_20241006_great_lakes_2024_10_06_severe","day_index":1,"geometry_role":"hover_geometry"},"geometry":{"type":"Polygon","coordinates":[[[-81.97,39.94],[-81.62,39.65],[-81.3,39.53],[-80.21,39.42],[-79.43,39.77],[-78.81,40.69],[-78.08,42.38],[-78.14,42.79],[-78.69,43.62],[-79.19,43.43],[-80.44,42.35],[-81.12,41.5],[-81.86,40.26],[-81.97,39.94]]]}},{"type":"Feature","id":"geom_evt_20241019_central_plains_2024_10_19_severe_d1_hover","properties":{"event_id":"evt_20241019_central_plains_2024_10_19_severe","day_index":1,"geometry_role":"hover_geometry"},"geometry":{"type":"Polygon","coordinates":[[[-105.73,33.98],[-105.62,32.85],[-105.53,32.19],[-105.02,31.79],[-104.5,31.69],[-103.9,31.73],[-103.27,32.01],[-103.21,32.68],[-103.58,35.18],[-104.26,35.45],[-104.97,35.32],[-105.43,34.85],[-105.73,33.98]]]}},{"type":"Feature","id":"geom_evt_20241020_central_plains_2024_10_20_severe_d1_hover","properties":{"event_id":"evt_20241019_central_plains_2024_10_19_severe","day_index":2,"geometry_role":"hover_geometry"},"geometry":{"type":"Polygon","coordinates":[[[-105.7,35.09],[-105.29,33.03],[-104.16,33.05],[-103.16,34.01],[-102.81,35.23],[-102.85,36.46],[-103.25,36.71],[-104.15,36.67],[-105.29,35.83],[-105.7,35.09]]]}},{"type":"Feature","id":"geom_evt_20241021_southern_plains_2024_10_21_severe_d1_hover","properties":{"event_id":"evt_20241021_southern_plains_2024_10_21_severe","day_index":1,"geometry_role":"hover_geometry"},"geometry":{"type":"Polygon","coordinates":[[[-100.55,40.55],[-99.48,37.12],[-98.47,37.12],[-97.9,37.73],[-97.65,39.09],[-97.77,40.03],[-98.34,40.46],[-100.21,41.06],[-100.55,40.55]]]}}]}