{"type":"FeatureCollection","features":[{"type":"Feature","id":"geom_evt_20250215_mid_atlantic_2025_02_15_rain_d1_hover","properties":{"event_id":"evt_20250215_mid_atlantic_2025_02_15_rain","day_index":1,"geometry_role":"hover_geometry"},"geometry":{"type":"Polygon","coordinates":[[[-92.13,34.63],[-92.13,34.6],[-92.12,34.58],[-92.12,34.55],[-92.11,34.53],[-92.1,34.51],[-92.08,34.48],[-92.07,34.46],[-92.06,34.45],[-92.02,34.41],[-91.97,34.37],[-91.96,34.35],[-91.94,34.34],[-91.91,34.32],[-91.89,34.31],[-91.86,34.3],[-91.83,34.29],[-91.8,34.29],[-91.77,34.29],[-91.73,34.28],[-91.66,34.28],[-91.56,34.28],[-91.48,34.28],[-91.45,34.29],[-91.42,34.29],[-91.38,34.29],[-91.35,34.3],[-90.82,34.43],[-82,37.29],[-81.98,37.3],[-81.72,37.39],[-81.7,37.4],[-81.6,37.45],[-81.59,37.46],[-81.44,37.56],[-81.42,37.57],[-81.41,37.58],[-81.38,37.61],[-81.37,37.63],[-81.35,37.64],[-81.21,37.86],[-81.2,37.88],[-81.19,37.9],[-81.18,37.93],[-81.15,38.06],[-81.15,38.07],[-81.15,38.09],[-81.15,38.22],[-81.15,38.24],[-81.16,38.25],[-81.16,38.27],[-81.43,38.86],[-81.44,38.87],[-81.52,39.03],[-81.58,39.12],[-81.59,39.13],[-81.6,39.15],[-81.63,39.18],[-81.64,39.19],[-81.66,39.2],[-81.68,39.21],[-81.75,39.25],[-82.01,39.38],[-82.27,39.38],[-82.36,39.37],[-82.72,39.37],[-82.74,39.37],[-82.77,39.36],[-82.79,39.36],[-83.19,39.3],[-84.04,39.14],[-84.06,39.14],[-84.56,39.03],[-84.59,39.02],[-85.28,38.81],[-85.3,38.8],[-87.41,37.97],[-87.69,37.86],[-88.51,37.53],[-88.61,37.48],[-89.27,37.15],[-89.51,37.03],[-90.01,36.76],[-90.1,36.71],[-90.12,36.7],[-90.14,36.69],[-90.89,36.09],[-90.91,36.08],[-91.61,35.43],[-91.63,35.41],[-91.66,35.39],[-91.67,35.37],[-91.78,35.26],[-91.79,35.24],[-91.9,35.1],[-91.94,35.06],[-91.95,35.04],[-91.96,35.02],[-92.01,34.93],[-92.02,34.91],[-92.06,34.82],[-92.07,34.8],[-92.11,34.7],[-92.12,34.68],[-92.12,34.66],[-92.13,34.63]]]}},{"type":"Feature","id":"geom_evt_20250205_central_plains_2025_02_05_fire_d1_hover","properties":{"event_id":"evt_20250205_central_plains_2025_02_05_fire","day_index":1,"geometry_role":"hover_geometry"},"geometry":{"type":"Polygon","coordinates":[[[-105.85,34.23],[-105.8,33.67],[-105.71,33.49],[-105.47,33.47],[-105.26,33.57],[-103.26,35],[-103.11,35.14],[-103.1,35.3],[-103.24,35.53],[-103.41,35.66],[-103.66,35.7],[-104.03,35.62],[-105.48,35.09],[-105.68,34.98],[-105.82,34.76],[-105.85,34.23]]]}},{"type":"Feature","id":"geom_evt_20250207_central_plains_2025_02_07_fire_d1_hover","properties":{"event_id":"evt_20250207_central_plains_2025_02_07_fire","day_index":1,"geometry_role":"hover_geometry"},"geometry":{"type":"Polygon","coordinates":[[[-106.07,33.64],[-105.86,32.87],[-104.65,32.02],[-103.63,32.68],[-103.36,33.03],[-101.91,35.35],[-102.78,35.98],[-103.42,36.11],[-104.66,36.29],[-104.94,36.27],[-105.41,35.91],[-105.7,35.58],[-105.84,35.31],[-106.07,33.64]]]}},{"type":"Feature","id":"geom_evt_20250212_central_plains_2025_02_12_fire_d1_hover","properties":{"event_id":"evt_20250212_central_plains_2025_02_12_fire","day_index":1,"geometry_role":"hover_geometry"},"geometry":{"type":"Polygon","coordinates":[[[-105.78,31.16],[-104.72,30.22],[-103.63,29.96],[-102.85,30.09],[-102.67,30.4],[-102.76,31.24],[-102.79,31.44],[-103.14,31.85],[-103.77,32.04],[-104.16,32.06],[-105.61,31.48],[-105.74,31.38],[-105.78,31.16]]]}},{"type":"Feature","id":"geom_evt_20250211_southwest_2025_02_11_fire_d1_hover","properties":{"event_id":"evt_20250211_southwest_2025_02_11_fire","day_index":1,"geometry_role":"hover_geometry"},"geometry":{"type":"Polygon","coordinates":[[[-109.94,32.38],[-109.8,31.32],[-109.08,31.31],[-108.21,31.31],[-106.39,31.66],[-106.04,31.98],[-106.2,32.44],[-106.54,32.67],[-107.1,32.77],[-109.21,33.02],[-109.51,33.04],[-109.74,32.94],[-109.92,32.7],[-109.94,32.38]]]}},{"type":"Feature","id":"geom_evt_20250213_southern_california_2025_02_13_rain_d1_hover","properties":{"event_id":"evt_20250213_southern_california_2025_02_13_rain","day_index":1,"geometry_role":"hover_geometry"},"geometry":{"type":"Polygon","coordinates":[[[-120.29,34.63],[-120.28,34.61],[-120.28,34.59],[-120.27,34.56],[-120.26,34.54],[-120.25,34.53],[-120.24,34.52],[-120.19,34.48],[-120.17,34.47],[-120.15,34.46],[-120.05,34.41],[-120.03,34.41],[-119.08,34.08],[-119.06,34.07],[-118.89,34.03],[-118.86,34.02],[-118.31,33.91],[-116.76,33.68],[-116.75,33.68],[-116.71,33.72],[-116.69,33.74],[-116.68,33.76],[-116.66,33.79],[-116.65,33.82],[-116.65,33.86],[-116.65,33.89],[-116.65,33.91],[-116.66,33.93],[-116.67,33.95],[-116.7,34.01],[-116.71,34.02],[-116.72,34.04],[-116.74,34.05],[-116.82,34.11],[-116.88,34.16],[-116.9,34.17],[-116.98,34.22],[-117.02,34.25],[-117.04,34.25],[-117.05,34.26],[-119.87,34.78],[-120.09,34.82],[-120.11,34.82],[-120.13,34.82],[-120.15,34.82],[-120.17,34.81],[-120.18,34.8],[-120.2,34.79],[-120.21,34.78],[-120.23,34.77],[-120.24,34.75],[-120.25,34.74],[-120.26,34.72],[-120.27,34.7],[-120.28,34.68],[-120.28,34.66],[-120.29,34.63]]]}},{"type":"Feature","id":"geom_evt_20250202_pacific_northwest_2025_02_02_winter_d1_hover","properties":{"event_id":"evt_20250202_pacific_northwest_2025_02_02_winter","day_index":1,"geometry_role":"hover_geometry"},"geometry":{"type":"Polygon","coordinates":[[[-166.85,68.33],[-124.1,46.79],[-122.28,46.77],[-122.23,46.77],[-121.85,47.14],[-121.84,47.15],[-121.7,47.45],[-121.55,47.8],[-121.55,47.82],[-122.09,49],[-161.74,69.7],[-162.61,69.9],[-162.82,69.92],[-166.22,68.88],[-166.85,68.34],[-166.85,68.33]]]}},{"type":"Feature","id":"geom_evt_20250213_pacific_northwest_2025_02_13_winter_d1_hover","properties":{"event_id":"evt_20250213_pacific_northwest_2025_02_13_winter","day_index":1,"geometry_role":"hover_geometry"},"geometry":{"type":"Polygon","coordinates":[[[-166.85,68.33],[-123.34,44.72],[-123.01,44.69],[-123,44.69],[-122.71,44.78],[-122.37,45.18],[-122.37,45.19],[-122.98,46.03],[-141,69.65],[-141.08,69.67],[-142.68,70.03],[-143.23,70.15],[-156.44,71.39],[-156.47,71.39],[-159.59,70.81],[-161.88,70.33],[-162.03,70.29],[-162.1,70.27],[-162.34,70.2],[-166.22,68.88],[-166.85,68.34],[-166.85,68.33]]]}},{"type":"Feature","id":"geom_evt_20250218_pacific_northwest_2025_02_18_winter_d1_hover","properties":{"event_id":"evt_20250218_pacific_northwest_2025_02_18_winter","day_index":1,"geometry_role":"hover_geometry"},"geometry":{"type":"Polygon","coordinates":[[[-171.85,63.49],[-171.84,63.47],[-171.82,63.43],[-171.8,63.41],[-171.76,63.38],[-171.74,63.37],[-171.68,63.35],[-171.56,63.32],[-163.33,61.46],[-163.27,61.45],[-163.17,61.45],[-161.89,61.48],[-161.11,61.6],[-158.53,62.03],[-158.02,62.12],[-153.5,63.85],[-153.73,65.4],[-161.7,65.2],[-171.69,63.79],[-171.74,63.78],[-171.84,63.56],[-171.85,63.51],[-171.85,63.49]]]}},{"type":"Feature","id":"geom_evt_20250207_upper_midwest_2025_02_07_winter_d1_hover","properties":{"event_id":"evt_20250207_upper_midwest_2025_02_07_winter","day_index":1,"geometry_role":"hover_geometry"},"geometry":{"type":"Polygon","coordinates":[[[-99.72,45.59],[-99.71,45.25],[-99.57,44.9],[-98.72,44.9],[-95.76,45.76],[-95.15,46.11],[-94.73,46.37],[-94.73,46.38],[-94.79,46.8],[-94.88,46.81],[-95.13,46.81],[-98.03,46.63],[-99.72,45.94],[-99.72,45.59]]]}},{"type":"Feature","id":"geom_evt_20250208_upper_midwest_2025_02_08_winter_d1_hover","properties":{"event_id":"evt_20250207_upper_midwest_2025_02_07_winter","day_index":2,"geometry_role":"hover_geometry"},"geometry":{"type":"Polygon","coordinates":[[[-98.73,45.62],[-98.72,44.9],[-98.71,44.63],[-94.37,43.85],[-90.31,43.64],[-89.79,43.64],[-89.72,44.25],[-89.72,44.37],[-89.73,44.51],[-90.04,45.38],[-90.68,45.64],[-93.43,46.25],[-94.73,46.37],[-95.16,46.37],[-98.72,45.94],[-98.73,45.71],[-98.73,45.62]]]}},{"type":"Feature","id":"geom_evt_20250212_upper_midwest_2025_02_12_winter_d1_hover","properties":{"event_id":"evt_20250212_upper_midwest_2025_02_12_winter","day_index":1,"geometry_role":"hover_geometry"},"geometry":{"type":"Polygon","coordinates":[[[-100.2,40.24],[-100.19,40],[-95.09,39.86],[-95.04,39.86],[-89.99,39.87],[-89.6,40.12],[-89.6,40.32],[-89.63,41.93],[-89.69,42.2],[-89.93,42.51],[-90.9,42.68],[-91.61,42.64],[-93.23,42.21],[-100.2,40.35],[-100.2,40.24]]]}},{"type":"Feature","id":"geom_evt_20250212_central_plains_2025_02_12_winter_d1_hover","properties":{"event_id":"evt_20250212_central_plains_2025_02_12_winter","day_index":1,"geometry_role":"hover_geometry"},"geometry":{"type":"Polygon","coordinates":[[[-103.51,38.34],[-103.5,38.27],[-102.75,37.64],[-102.04,37.64],[-100.24,38.26],[-100.15,38.7],[-100.15,39.13],[-100.16,39.57],[-100.18,40],[-102.05,40],[-103.15,39.57],[-103.51,38.49],[-103.51,38.34]]]}},{"type":"Feature","id":"geom_evt_20250211_southern_plains_2025_02_11_winter_d1_hover","properties":{"event_id":"evt_20250211_southern_plains_2025_02_11_winter","day_index":1,"geometry_role":"hover_geometry"},"geometry":{"type":"Polygon","coordinates":[[[-100.23,37.83],[-100.22,37.48],[-99.56,37.38],[-99.01,37.38],[-98.46,37.47],[-98.46,37.82],[-98.47,38.26],[-99.03,38.35],[-99.58,38.35],[-100.23,38.26],[-100.23,37.83]]]}},{"type":"Feature","id":"geom_evt_20250212_southern_plains_2025_02_12_winter_d1_hover","properties":{"event_id":"evt_20250211_southern_plains_2025_02_11_winter","day_index":2,"geometry_role":"hover_geometry"},"geometry":{"type":"Polygon","coordinates":[[[-100.25,38.38],[-100.24,38.26],[-98.46,37.38],[-98.15,37.38],[-97.81,37.39],[-96.53,37.48],[-95.09,37.73],[-94.06,38.03],[-92.22,38.64],[-89.93,39.52],[-89.92,39.56],[-89.99,39.87],[-90.91,40.19],[-91.11,40.2],[-91.51,40.2],[-95.04,40.13],[-100.18,40],[-100.25,38.7],[-100.25,38.38]]]}},{"type":"Feature","id":"geom_evt_20250218_southern_plains_2025_02_18_winter_d1_hover","properties":{"event_id":"evt_20250218_southern_plains_2025_02_18_winter","day_index":1,"geometry_role":"hover_geometry"},"geometry":{"type":"Polygon","coordinates":[[[-100.25,38.38],[-100.23,37.91],[-99.6,36.16],[-95.88,34.59],[-94.94,34.51],[-94.46,34.51],[-90.41,34.83],[-90.31,34.84],[-89.64,35],[-89.63,35.37],[-89.63,35.38],[-89.9,38.3],[-90.11,38.85],[-90.61,39.4],[-90.94,39.4],[-97.93,39.31],[-100.15,39.13],[-100.25,38.7],[-100.25,38.38]]]}},{"type":"Feature","id":"geom_evt_20250201_northern_rockies_2025_02_01_winter_d1_hover","properties":{"event_id":"evt_20250201_northern_rockies_2025_02_01_winter","day_index":1,"geometry_role":"hover_geometry"},"geometry":{"type":"Polygon","coordinates":[[[-112.19,41.99],[-111.9,40.81],[-111.79,40.7],[-107.03,39.92],[-106.63,39.92],[-105.92,41],[-105.92,41.01],[-105.98,41.29],[-106.09,41.46],[-106.16,41.56],[-110.21,46.27],[-110.22,46.28],[-110.25,46.31],[-110.26,46.32],[-110.28,46.32],[-110.52,46.19],[-112.18,44.54],[-112.19,44.53],[-112.19,41.99]]]}},{"type":"Feature","id":"geom_evt_20250203_northern_rockies_2025_02_03_winter_d1_hover","properties":{"event_id":"evt_20250203_northern_rockies_2025_02_03_winter","day_index":1,"geometry_role":"hover_geometry"},"geometry":{"type":"Polygon","coordinates":[[[-112.41,46.84],[-112.31,44.8],[-112.23,44.55],[-112.22,44.54],[-112.19,44.53],[-112.11,44.52],[-111.83,44.51],[-111.12,44.49],[-111.09,44.49],[-106.26,44.99],[-104.61,46.66],[-104.6,46.83],[-104.6,46.86],[-108.24,49],[-110.74,49],[-111.87,48.39],[-112.18,48.13],[-112.41,46.84]]]}},{"type":"Feature","id":"geom_evt_20250204_northern_rockies_2025_02_04_winter_d1_hover","properties":{"event_id":"evt_20250203_northern_rockies_2025_02_03_winter","day_index":2,"geometry_role":"hover_geometry"},"geometry":{"type":"Polygon","coordinates":[[[-108.89,47.73],[-108.74,47.1],[-108.63,46.75],[-105.24,46.54],[-104.98,46.54],[-104.86,46.57],[-104.73,46.61],[-104.61,46.66],[-104.6,46.83],[-104.6,46.86],[-104.97,48.65],[-105.06,49],[-108.24,49],[-108.89,47.92],[-108.89,47.73]]]}},{"type":"Feature","id":"geom_evt_20250207_northern_rockies_2025_02_07_winter_d1_hover","properties":{"event_id":"evt_20250207_northern_rockies_2025_02_07_winter","day_index":1,"geometry_role":"hover_geometry"},"geometry":{"type":"Polygon","coordinates":[[[-110.28,46.32],[-110.21,45.91],[-110.01,45.91],[-108.4,46.13],[-108.03,46.26],[-107.78,46.4],[-107.78,46.5],[-107.79,46.69],[-107.81,46.74],[-107.83,46.76],[-108.01,46.76],[-110.09,46.75],[-110.19,46.73],[-110.27,46.71],[-110.28,46.49],[-110.28,46.32]]]}},{"type":"Feature","id":"geom_evt_20250213_northern_rockies_2025_02_13_winter_d1_hover","properties":{"event_id":"evt_20250213_northern_rockies_2025_02_13_winter","day_index":1,"geometry_role":"hover_geometry"},"geometry":{"type":"Polygon","coordinates":[[[-112.52,43.43],[-111.83,39.76],[-111.82,39.74],[-111.8,39.72],[-111.71,39.71],[-111.68,39.71],[-111.59,39.74],[-110.03,40.54],[-109.98,40.57],[-109.41,45.59],[-109.42,45.6],[-109.55,45.69],[-109.98,45.8],[-110.02,45.8],[-110.8,45.78],[-112.18,44.54],[-112.19,44.53],[-112.52,43.43]]]}},{"type":"Feature","id":"geom_evt_20250214_northern_rockies_2025_02_14_winter_d1_hover","properties":{"event_id":"evt_20250213_northern_rockies_2025_02_13_winter","day_index":2,"geometry_role":"hover_geometry"},"geometry":{"type":"Polygon","coordinates":[[[-112.31,44.8],[-112.23,44.55],[-112.22,44.54],[-107.03,39.92],[-106.63,39.92],[-105.58,40.16],[-105.54,40.19],[-105.49,40.25],[-105.46,40.3],[-105.36,40.48],[-105.36,40.49],[-105.62,40.88],[-106.16,41.56],[-110.43,46.52],[-110.44,46.53],[-111.65,47.01],[-111.7,47.01],[-111.9,46.93],[-111.91,46.92],[-111.92,46.9],[-112.23,45.57],[-112.31,44.8]]]}},{"type":"Feature","id":"geom_evt_20250216_northern_rockies_2025_02_16_winter_d1_hover","properties":{"event_id":"evt_20250216_northern_rockies_2025_02_16_winter","day_index":1,"geometry_role":"hover_geometry"},"geometry":{"type":"Polygon","coordinates":[[[-112.41,46.84],[-111.05,42.25],[-110.9,41.85],[-110.86,41.83],[-107.03,39.92],[-106.63,39.92],[-105.58,40.16],[-105.54,40.19],[-105.49,40.25],[-105.46,40.3],[-105.36,40.48],[-105.36,40.49],[-106.09,46.85],[-111.8,48.39],[-111.87,48.39],[-112.18,48.13],[-112.41,46.84]]]}},{"type":"Feature","id":"geom_evt_20250206_mid_atlantic_2025_02_06_winter_d1_hover","properties":{"event_id":"evt_20250206_mid_atlantic_2025_02_06_winter","day_index":1,"geometry_role":"hover_geometry"},"geometry":{"type":"Polygon","coordinates":[[[-89.88,46.77],[-89.86,46.59],[-89.74,46.51],[-89.37,46.33],[-88.99,46.33],[-88.12,46.42],[-87.61,47.41],[-87.61,47.42],[-87.62,47.43],[-88.43,48.19],[-88.44,48.19],[-88.57,48.17],[-88.61,48.16],[-88.64,48.15],[-89.18,47.94],[-89.21,47.92],[-89.25,47.88],[-89.88,46.77]]]}},{"type":"Feature","id":"geom_evt_20250208_mid_atlantic_2025_02_08_winter_d1_hover","properties":{"event_id":"evt_20250208_mid_atlantic_2025_02_08_winter","day_index":1,"geometry_role":"hover_geometry"},"geometry":{"type":"Polygon","coordinates":[[[-90.32,44.69],[-89.98,43.9],[-89.96,43.86],[-89.79,43.64],[-89.6,43.64],[-87.73,43.89],[-87.51,44.19],[-87.38,44.65],[-87.38,44.68],[-89.22,45.12],[-90.2,45.12],[-90.31,45.03],[-90.32,45],[-90.32,44.69]]]}},{"type":"Feature","id":"geom_evt_20250211_mid_atlantic_2025_02_11_winter_d1_hover","properties":{"event_id":"evt_20250211_mid_atlantic_2025_02_11_winter","day_index":1,"geometry_role":"hover_geometry"},"geometry":{"type":"Polygon","coordinates":[[[-87.14,37.33],[-86.9,37.21],[-81.48,36.24],[-78.73,36.54],[-75.66,37.47],[-75.33,37.89],[-75.24,38.02],[-75.2,38.08],[-75.19,38.1],[-75.17,38.14],[-75.08,38.33],[-75.06,38.38],[-75.05,38.41],[-75.05,38.54],[-75.06,38.64],[-75.07,38.71],[-75.08,38.77],[-75.09,38.79],[-75.31,38.95],[-75.75,39.14],[-76.62,39.24],[-78.98,39.24],[-82.76,39.21],[-85.54,38.91],[-86.23,38.78],[-86.68,38.69],[-87.07,38.51],[-87.14,37.48],[-87.14,37.33]]]}},{"type":"Feature","id":"geom_evt_20250212_mid_atlantic_2025_02_12_winter_d1_hover","properties":{"event_id":"evt_20250211_mid_atlantic_2025_02_11_winter","day_index":2,"geometry_role":"hover_geometry"},"geometry":{"type":"Polygon","coordinates":[[[-89.99,39.9],[-79.1,37.78],[-79.07,37.78],[-78.89,37.92],[-78.35,38.48],[-78.28,38.58],[-78.17,38.76],[-78.14,38.82],[-78.13,38.86],[-83.32,45.2],[-83.39,45.21],[-83.75,45.21],[-83.88,45.2],[-88.16,43.89],[-89.93,42.51],[-89.99,41],[-89.99,39.9]]]}},{"type":"Feature","id":"geom_evt_20250216_mid_atlantic_2025_02_16_winter_d1_hover","properties":{"event_id":"evt_20250216_mid_atlantic_2025_02_16_winter","day_index":1,"geometry_role":"hover_geometry"},"geometry":{"type":"Polygon","coordinates":[[[-84.61,43.47],[-84.36,41.71],[-84.11,41.71],[-83.71,41.72],[-83.45,41.73],[-82.53,42.6],[-82.52,42.61],[-82.47,42.76],[-82.42,42.96],[-82.42,43.01],[-82.61,43.78],[-82.63,43.83],[-82.65,43.87],[-82.72,43.97],[-82.74,43.99],[-82.76,44.01],[-82.8,44.03],[-82.92,44.07],[-82.97,44.07],[-84.17,44],[-84.61,43.81],[-84.61,43.47]]]}},{"type":"Feature","id":"geom_evt_20250218_mid_atlantic_2025_02_18_winter_d1_hover","properties":{"event_id":"evt_20250218_mid_atlantic_2025_02_18_winter","day_index":1,"geometry_role":"hover_geometry"},"geometry":{"type":"Polygon","coordinates":[[[-90.28,38.92],[-90.26,36.88],[-89.96,36],[-89.64,35.9],[-88.92,35.8],[-88.81,35.79],[-88.71,35.79],[-87.99,35.81],[-87.97,35.82],[-87.06,36.64],[-86.89,37.11],[-86.77,38],[-86.77,38.1],[-86.79,38.21],[-87.07,38.51],[-87.09,38.53],[-87.1,38.54],[-89.25,39.03],[-89.59,39.03],[-90.27,39],[-90.28,38.96],[-90.28,38.92]]]}},{"type":"Feature","id":"geom_evt_20250219_mid_atlantic_2025_02_19_winter_d1_hover","properties":{"event_id":"evt_20250218_mid_atlantic_2025_02_18_winter","day_index":2,"geometry_role":"hover_geometry"},"geometry":{"type":"Polygon","coordinates":[[[-88.07,36.65],[-88.06,36.44],[-88.02,35.95],[-87.96,35.84],[-87.88,35.81],[-87.85,35.8],[-78.21,35.73],[-78.19,35.73],[-76.87,35.81],[-75.79,36.08],[-75.05,38.41],[-75.05,38.54],[-75.06,38.64],[-75.07,38.71],[-75.08,38.77],[-75.09,38.79],[-75.31,38.95],[-75.38,38.96],[-75.39,38.96],[-85.2,38.92],[-85.54,38.91],[-86.23,38.78],[-86.68,38.69],[-87.07,38.51],[-88.07,36.68],[-88.07,36.65]]]}},{"type":"Feature","id":"geom_evt_20250228_mid_atlantic_2025_02_28_winter_d1_hover","properties":{"event_id":"evt_20250228_mid_atlantic_2025_02_28_winter","day_index":1,"geometry_role":"hover_geometry"},"geometry":{"type":"Polygon","coordinates":[[[-89.25,47.87],[-89.23,47.85],[-87.12,46.16],[-86.46,45.76],[-85,45.27],[-84.73,45.2],[-83.62,45.2],[-83.4,45.21],[-83.38,45.26],[-83.38,45.27],[-83.47,45.99],[-83.48,46],[-83.58,46.09],[-84.13,46.53],[-88.43,48.19],[-88.44,48.19],[-88.57,48.17],[-88.61,48.16],[-88.64,48.15],[-89.18,47.94],[-89.21,47.92],[-89.25,47.88],[-89.25,47.87]]]}},{"type":"Feature","id":"geom_evt_20250202_northern_california_2025_02_02_winter_d1_hover","properties":{"event_id":"evt_20250202_northern_california_2025_02_02_winter","day_index":1,"geometry_role":"hover_geometry"},"geometry":{"type":"Polygon","coordinates":[[[-123.72,41.59],[-123.62,40.91],[-123.57,40.82],[-123.47,40.73],[-122.99,40.42],[-122.95,40.42],[-120.04,41.18],[-119.36,41.99],[-119.36,42.56],[-119.37,42.75],[-119.9,43.61],[-120.38,43.62],[-121.69,43.62],[-123.52,42],[-123.64,41.89],[-123.65,41.88],[-123.7,41.83],[-123.72,41.61],[-123.72,41.59]]]}},{"type":"Feature","id":"geom_evt_20250203_northern_california_2025_02_03_winter_d1_hover","properties":{"event_id":"evt_20250202_northern_california_2025_02_02_winter","day_index":2,"geometry_role":"hover_geometry"},"geometry":{"type":"Polygon","coordinates":[[[-124.19,41.97],[-124.13,41.67],[-124.08,41.6],[-124.03,41.54],[-120.07,37.82],[-120.05,37.81],[-119.94,37.76],[-118.86,37.48],[-118.78,37.46],[-117.93,37.46],[-117.84,37.47],[-120,41.18],[-123.52,42],[-124.14,42],[-124.18,41.98],[-124.19,41.97]]]}},{"type":"Feature","id":"geom_evt_20250213_northern_california_2025_02_13_winter_d1_hover","properties":{"event_id":"evt_20250213_northern_california_2025_02_13_winter","day_index":1,"geometry_role":"hover_geometry"},"geometry":{"type":"Polygon","coordinates":[[[-124.1,44.03],[-123.54,39.98],[-122.41,38.96],[-122.38,38.94],[-122.34,38.92],[-120.05,37.81],[-119.94,37.76],[-118.86,37.48],[-118.78,37.46],[-117.93,37.46],[-117.84,37.47],[-115.04,42.53],[-115.04,42.91],[-115.09,43.07],[-116.39,44.86],[-116.78,45.08],[-123.72,45.08],[-123.88,45.05],[-123.96,44.97],[-123.98,44.94],[-124.08,44.3],[-124.1,44.03]]]}},{"type":"Feature","id":"geom_evt_20250203_desert_southwest_2025_02_03_winter_d1_hover","properties":{"event_id":"evt_20250203_desert_southwest_2025_02_03_winter","day_index":1,"geometry_role":"hover_geometry"},"geometry":{"type":"Polygon","coordinates":[[[-116.34,45.26],[-116.3,45.11],[-112.86,44.36],[-112.84,44.36],[-112.38,44.45],[-112.23,44.56],[-112.15,44.62],[-112.14,44.64],[-111.92,45.3],[-111.62,46.25],[-111.61,46.3],[-111.61,46.32],[-112.07,47.97],[-112.18,48.13],[-113.32,49],[-114.07,49],[-116.22,45.87],[-116.34,45.26]]]}},{"type":"Feature","id":"geom_evt_20250213_desert_southwest_2025_02_13_winter_d1_hover","properties":{"event_id":"evt_20250213_desert_southwest_2025_02_13_winter","day_index":1,"geometry_role":"hover_geometry"},"geometry":{"type":"Polygon","coordinates":[[[-115.09,42.91],[-115.04,42.53],[-114.05,37.38],[-113.96,37.12],[-113.9,37],[-113.73,37],[-111.66,37.48],[-110.67,37.85],[-110.61,37.9],[-111.85,44.32],[-112.19,44.54],[-112.24,44.57],[-112.29,44.57],[-112.73,44.5],[-113.98,44.23],[-114.39,44.1],[-114.42,44.09],[-114.66,43.93],[-114.71,43.89],[-115.09,43.2],[-115.09,42.91]]]}},{"type":"Feature","id":"geom_evt_20250214_southwest_2025_02_14_winter_d1_hover","properties":{"event_id":"evt_20250214_southwest_2025_02_14_winter","day_index":1,"geometry_role":"hover_geometry"},"geometry":{"type":"Polygon","coordinates":[[[-110.02,37.66],[-109.05,35.68],[-109.01,35.65],[-108.95,35.64],[-106.57,35.4],[-106.53,35.4],[-105.5,35.59],[-105.48,35.6],[-105.4,35.74],[-105.27,36.11],[-105.25,36.18],[-105.16,36.56],[-105.14,36.86],[-105.14,36.88],[-105.34,39.52],[-105.38,39.89],[-105.49,40.18],[-105.53,40.19],[-107.15,40.4],[-108.11,40.36],[-109.39,38.6],[-109.89,37.91],[-110,37.7],[-110.02,37.66]]]}},{"type":"Feature","id":"geom_evt_20250203_southern_california_2025_02_03_winter_d1_hover","properties":{"event_id":"evt_20250203_southern_california_2025_02_03_winter","day_index":1,"geometry_role":"hover_geometry"},"geometry":{"type":"Polygon","coordinates":[[[-119.89,37.98],[-119.88,37.89],[-119.87,37.78],[-119.85,37.74],[-118.65,35.62],[-118.64,35.61],[-118.63,35.61],[-118.62,35.6],[-118.19,35.54],[-118.11,35.54],[-118.06,35.54],[-118.03,35.56],[-118.02,35.58],[-117.98,35.87],[-117.98,35.93],[-117.99,35.94],[-118.1,36.35],[-118.44,37.06],[-118.76,37.46],[-119.33,38.07],[-119.35,38.08],[-119.35,38.09],[-119.5,38.16],[-119.59,38.18],[-119.59,38.18],[-119.59,38.18],[-119.59,38.18],[-119.59,38.18],[-119.83,38.09],[-119.83,38.09],[-119.84,38.09],[-119.84,38.08],[-119.86,38.07],[-119.87,38.06],[-119.87,38.05],[-119.87,38.05],[-119.88,38.03],[-119.88,38.03],[-119.89,37.98],[-119.89,37.98]]]}},{"type":"Feature","id":"geom_evt_20250212_southern_california_2025_02_12_winter_d1_hover","properties":{"event_id":"evt_20250212_southern_california_2025_02_12_winter","day_index":1,"geometry_role":"hover_geometry"},"geometry":{"type":"Polygon","coordinates":[[[-119.89,37.98],[-119.88,37.89],[-119.87,37.78],[-119.85,37.74],[-118.65,35.62],[-118.64,35.61],[-118.63,35.61],[-118.62,35.6],[-118.19,35.54],[-118.11,35.54],[-118.06,35.54],[-118.03,35.56],[-118.02,35.58],[-117.98,35.87],[-117.98,35.93],[-117.99,35.94],[-118.1,36.35],[-118.44,37.06],[-118.76,37.46],[-119.33,38.07],[-119.35,38.08],[-119.35,38.09],[-119.5,38.16],[-119.59,38.18],[-119.59,38.18],[-119.59,38.18],[-119.59,38.18],[-119.59,38.18],[-119.83,38.09],[-119.83,38.09],[-119.84,38.09],[-119.84,38.08],[-119.86,38.07],[-119.87,38.06],[-119.87,38.05],[-119.87,38.05],[-119.88,38.03],[-119.88,38.03],[-119.89,37.98],[-119.89,37.98]]]}},{"type":"Feature","id":"geom_evt_20250205_great_lakes_2025_02_05_winter_d1_hover","properties":{"event_id":"evt_20250205_great_lakes_2025_02_05_winter","day_index":1,"geometry_role":"hover_geometry"},"geometry":{"type":"Polygon","coordinates":[[[-79.49,39.19],[-79.36,38.96],[-79.28,38.91],[-78.5,39.09],[-77.68,39.32],[-77.65,39.37],[-77.47,39.71],[-77.47,39.72],[-78.04,41.16],[-78.09,41.22],[-78.18,41.23],[-78.53,41.25],[-78.65,41.25],[-78.77,41.2],[-78.78,41.18],[-79.4,39.9],[-79.48,39.72],[-79.49,39.33],[-79.49,39.19]]]}},{"type":"Feature","id":"geom_evt_20250206_great_lakes_2025_02_06_winter_d1_hover","properties":{"event_id":"evt_20250205_great_lakes_2025_02_05_winter","day_index":2,"geometry_role":"hover_geometry"},"geometry":{"type":"Polygon","coordinates":[[[-80.52,41.13],[-79.83,39.24],[-79.69,39.02],[-79.51,38.97],[-79.36,38.96],[-79.34,38.97],[-79.33,38.98],[-79.31,39.02],[-79.3,39.05],[-78.8,40.72],[-78.71,41.2],[-78.71,41.23],[-78.96,41.62],[-79.03,41.63],[-79.48,41.63],[-79.83,41.62],[-80.52,41.49],[-80.52,41.13]]]}},{"type":"Feature","id":"geom_evt_20250208_great_lakes_2025_02_08_winter_d1_hover","properties":{"event_id":"evt_20250208_great_lakes_2025_02_08_winter","day_index":1,"geometry_role":"hover_geometry"},"geometry":{"type":"Polygon","coordinates":[[[-79.49,39.21],[-79.48,39.2],[-79.47,39.2],[-78.38,39.72],[-78.34,39.76],[-78.32,39.79],[-78.29,39.84],[-78.2,40.01],[-78.18,40.05],[-78.13,40.16],[-78.12,40.74],[-78.26,40.74],[-78.81,40.72],[-79.33,40],[-79.4,39.9],[-79.48,39.72],[-79.49,39.33],[-79.49,39.21]]]}},{"type":"Feature","id":"geom_evt_20250209_great_lakes_2025_02_09_winter_d1_hover","properties":{"event_id":"evt_20250208_great_lakes_2025_02_08_winter","day_index":2,"geometry_role":"hover_geometry"},"geometry":{"type":"Polygon","coordinates":[[[-75.42,42.04],[-75.41,42.02],[-74.45,40.6],[-74.26,40.5],[-74.22,40.5],[-73.56,40.58],[-73.25,40.62],[-73.19,40.63],[-69.99,41.24],[-69.96,41.25],[-69.93,41.74],[-69.93,41.8],[-70.35,43.54],[-70.47,43.66],[-70.55,43.72],[-70.65,43.79],[-70.7,43.81],[-72.04,44.16],[-72.12,44.18],[-72.17,44.19],[-72.98,44.3],[-73.02,44.3],[-75.17,44.1],[-75.4,42.51],[-75.42,42.32],[-75.42,42.04]]]}},{"type":"Feature","id":"geom_evt_20250211_great_lakes_2025_02_11_winter_d1_hover","properties":{"event_id":"evt_20250211_great_lakes_2025_02_11_winter","day_index":1,"geometry_role":"hover_geometry"},"geometry":{"type":"Polygon","coordinates":[[[-82.32,39.01],[-81.9,38.87],[-79.13,38.81],[-75.72,38.83],[-75.55,38.84],[-74.9,38.93],[-74.86,38.94],[-74.79,38.99],[-74.35,39.41],[-74.33,39.43],[-74.23,39.56],[-74.15,39.67],[-74.13,39.7],[-74.1,39.75],[-74.09,39.78],[-74.03,40.1],[-74.04,40.11],[-74.1,40.14],[-74.26,40.17],[-74.68,40.18],[-74.71,40.18],[-79.68,39.72],[-81.46,39.41],[-82.31,39.21],[-82.32,39.1],[-82.32,39.01]]]}},{"type":"Feature","id":"geom_evt_20250212_great_lakes_2025_02_12_winter_d1_hover","properties":{"event_id":"evt_20250211_great_lakes_2025_02_11_winter","day_index":2,"geometry_role":"hover_geometry"},"geometry":{"type":"Polygon","coordinates":[[[-79.69,39.02],[-79.51,38.97],[-79.28,38.91],[-78.78,39.72],[-79.48,39.72],[-79.69,39.02]]]}},{"type":"Feature","id":"geom_evt_20250214_great_lakes_2025_02_14_winter_d1_hover","properties":{"event_id":"evt_20250214_great_lakes_2025_02_14_winter","day_index":1,"geometry_role":"hover_geometry"},"geometry":{"type":"Polygon","coordinates":[[[-76.72,43.03],[-76.45,42.85],[-76.27,42.77],[-75.89,42.72],[-75.87,42.72],[-75.3,42.74],[-74.89,42.83],[-74.76,42.86],[-74.75,42.91],[-74.7,43.17],[-74.7,43.2],[-74.71,43.29],[-75.11,43.61],[-75.77,43.69],[-75.87,43.7],[-76.02,43.71],[-76.18,43.68],[-76.64,43.41],[-76.72,43.34],[-76.72,43.03]]]}},{"type":"Feature","id":"geom_evt_20250215_great_lakes_2025_02_15_winter_d1_hover","properties":{"event_id":"evt_20250214_great_lakes_2025_02_14_winter","day_index":2,"geometry_role":"hover_geometry"},"geometry":{"type":"Polygon","coordinates":[[[-76.62,43.41],[-76.61,43.26],[-76.6,43.25],[-73.44,41.5],[-73.33,41.47],[-73.32,41.47],[-72.47,41.58],[-72.42,41.59],[-71.5,42.02],[-70.9,42.64],[-69.93,43.72],[-69.89,43.77],[-69.88,43.81],[-69.86,43.92],[-69.65,45.12],[-69.65,45.87],[-69.68,45.98],[-69.79,45.98],[-70.26,45.96],[-76,44.35],[-76.15,44.29],[-76.3,44.19],[-76.31,44.18],[-76.37,44.11],[-76.62,43.42],[-76.62,43.41]]]}},{"type":"Feature","id":"geom_evt_20250216_great_lakes_2025_02_16_winter_d1_hover","properties":{"event_id":"evt_20250214_great_lakes_2025_02_14_winter","day_index":3,"geometry_role":"hover_geometry"},"geometry":{"type":"Polygon","coordinates":[[[-75.84,44.39],[-75.8,44.37],[-75.49,44.23],[-75.12,44.07],[-73.25,43.31],[-72.69,43.22],[-72.43,43.23],[-69.73,45.98],[-69.72,46.39],[-69.72,46.57],[-70.02,46.57],[-74.98,44.98],[-75.22,44.88],[-75.3,44.84],[-75.42,44.76],[-75.65,44.6],[-75.74,44.53],[-75.75,44.52],[-75.76,44.51],[-75.84,44.4],[-75.84,44.39]]]}},{"type":"Feature","id":"geom_evt_20250217_great_lakes_2025_02_17_winter_d1_hover","properties":{"event_id":"evt_20250214_great_lakes_2025_02_14_winter","day_index":4,"geometry_role":"hover_geometry"},"geometry":{"type":"Polygon","coordinates":[[[-77.37,43.03],[-76.27,42.77],[-75.89,42.72],[-75.87,42.72],[-75.3,42.74],[-74.89,42.83],[-74.76,42.86],[-74.75,42.91],[-74.7,43.17],[-74.7,43.2],[-74.71,43.29],[-74.85,44.07],[-75.45,44.22],[-77.37,43.28],[-77.37,43.03]]]}},{"type":"Feature","id":"geom_evt_20250218_southeast_2025_02_18_winter_d1_hover","properties":{"event_id":"evt_20250218_southeast_2025_02_18_winter","day_index":1,"geometry_role":"hover_geometry"},"geometry":{"type":"Polygon","coordinates":[[[-90.29,35.44],[-89.64,35],[-89.51,34.99],[-88.93,34.99],[-88.79,35],[-87.98,35.39],[-87.97,35.4],[-87.97,35.82],[-88.21,36.15],[-88.53,36.15],[-90.29,36],[-90.29,35.44]]]}},{"type":"Feature","id":"geom_evt_20250219_southeast_2025_02_19_winter_d1_hover","properties":{"event_id":"evt_20250218_southeast_2025_02_18_winter","day_index":2,"geometry_role":"hover_geometry"},"geometry":{"type":"Polygon","coordinates":[[[-88.04,35.44],[-88.02,35.42],[-79.07,34.3],[-77.76,34.31],[-76.68,34.69],[-75.57,35.77],[-75.54,35.8],[-75.55,35.83],[-75.58,35.89],[-75.64,36],[-75.76,36.21],[-75.77,36.22],[-87.18,36.05],[-87.54,36],[-87.96,35.84],[-87.97,35.83],[-88.03,35.73],[-88.04,35.62],[-88.04,35.44]]]}},{"type":"Feature","id":"geom_evt_20250207_northern_plains_2025_02_07_winter_d1_hover","properties":{"event_id":"evt_20250207_northern_plains_2025_02_07_winter","day_index":1,"geometry_role":"hover_geometry"},"geometry":{"type":"Polygon","coordinates":[[[-102,45.47],[-101.5,44.99],[-101.14,44.75],[-101.12,44.74],[-101.03,44.72],[-101.02,44.72],[-100.54,44.76],[-99.57,44.9],[-99.57,45.25],[-99.72,45.94],[-102,45.94],[-102,45.47]]]}},{"type":"Feature","id":"geom_evt_20250213_northeast_2025_02_13_winter_d1_hover","properties":{"event_id":"evt_20250213_northeast_2025_02_13_winter","day_index":1,"geometry_role":"hover_geometry"},"geometry":{"type":"Polygon","coordinates":[[[-70.02,46.57],[-69.73,45.98],[-68.96,45.51],[-68.86,45.52],[-68.41,45.57],[-68.35,45.58],[-68.29,45.59],[-67.91,45.66],[-67.81,45.68],[-67.78,45.73],[-67.76,45.82],[-67.75,45.91],[-67.75,45.92],[-67.79,47.07],[-67.95,47.2],[-68.15,47.33],[-68.23,47.36],[-69.17,47.46],[-69.22,47.46],[-69.28,47.41],[-69.73,46.97],[-70,46.7],[-70.02,46.57]]]}},{"type":"Feature","id":"geom_evt_20250215_northeast_2025_02_15_winter_d1_hover","properties":{"event_id":"evt_20250215_northeast_2025_02_15_winter","day_index":1,"geometry_role":"hover_geometry"},"geometry":{"type":"Polygon","coordinates":[[[-70.13,44.37],[-70.05,43.99],[-70.02,43.94],[-69.86,43.7],[-69.85,43.7],[-68.85,43.78],[-68.74,43.88],[-68.6,44.01],[-68.6,44.09],[-68.81,44.68],[-68.82,44.69],[-69.35,45.07],[-69.66,45.12],[-69.76,45.06],[-69.94,44.95],[-70.08,44.86],[-70.13,44.49],[-70.13,44.37]]]}},{"type":"Feature","id":"geom_evt_20250216_northeast_2025_02_16_winter_d1_hover","properties":{"event_id":"evt_20250215_northeast_2025_02_15_winter","day_index":2,"geometry_role":"hover_geometry"},"geometry":{"type":"Polygon","coordinates":[[[-70.02,46.57],[-69.78,45.54],[-69.66,45.1],[-69.62,45.01],[-68.87,44.21],[-68.69,44.12],[-68.52,44.1],[-68.33,44.1],[-68.24,44.14],[-67.57,44.45],[-67.26,44.6],[-67.19,44.64],[-67.16,44.66],[-66.95,44.81],[-66.95,44.82],[-66.98,44.91],[-67.79,47.07],[-67.95,47.2],[-68.15,47.33],[-68.23,47.36],[-69.17,47.46],[-69.22,47.46],[-69.28,47.41],[-69.73,46.97],[-70,46.7],[-70.02,46.57]]]}},{"type":"Feature","id":"geom_evt_20250212_southeast_2025_02_12_severe_d1_hover","properties":{"event_id":"evt_20250212_southeast_2025_02_12_severe","day_index":1,"geometry_role":"hover_geometry"},"geometry":{"type":"Polygon","coordinates":[[[-90.75,31.08],[-90.73,30.79],[-90.46,30.64],[-89.85,30.57],[-87.56,31.12],[-86.69,31.4],[-85.46,31.98],[-85.19,32.39],[-85.18,32.77],[-85.2,32.83],[-86.4,33.01],[-88,33],[-89.69,32.29],[-90.22,31.86],[-90.75,31.08]]]}},{"type":"Feature","id":"geom_evt_20250215_southeast_2025_02_15_severe_d1_hover","properties":{"event_id":"evt_20250215_southeast_2025_02_15_severe","day_index":1,"geometry_role":"hover_geometry"},"geometry":{"type":"Polygon","coordinates":[[[-93.65,32.75],[-93.44,31.7],[-92.23,30.72],[-90.57,30.45],[-87.73,30.38],[-85.52,30.53],[-85,31.16],[-85.17,31.84],[-87.88,36.03],[-88.13,36.24],[-88.45,36.31],[-88.8,36.23],[-89.1,36.11],[-90.05,35.53],[-91.99,34.32],[-93.65,32.75]]]}},{"type":"Feature","id":"geom_evt_20250206_mid_atlantic_2025_02_06_severe_d1_hover","properties":{"event_id":"evt_20250206_mid_atlantic_2025_02_06_severe","day_index":1,"geometry_role":"hover_geometry"},"geometry":{"type":"Polygon","coordinates":[[[-87.97,36.32],[-87.93,36.06],[-87.8,35.78],[-85.57,35.21],[-84.58,35.33],[-83.92,36],[-83.92,36.59],[-86.45,36.64],[-87.97,36.32]]]}},{"type":"Feature","id":"geom_evt_20250216_mid_atlantic_2025_02_16_severe_d1_hover","properties":{"event_id":"evt_20250216_mid_atlantic_2025_02_16_severe","day_index":1,"geometry_role":"hover_geometry"},"geometry":{"type":"Polygon","coordinates":[[[-77.75,34.84],[-77.44,34.08],[-76.54,34.25],[-76.26,34.38],[-75.28,34.98],[-75.17,35.24],[-74.14,39.16],[-75.58,39.22],[-76.73,38.17],[-77.75,34.84]]]}}]}