{"type":"FeatureCollection","features":[{"type":"Feature","id":"geom_evt_2025_al13_melissa_d1_hover","properties":{"event_id":"evt_2025_al13_melissa","day_index":1,"geometry_role":"hover_geometry"},"geometry":{"type":"Polygon","coordinates":[[[-54.3,46.6],[-53.9,45.33],[-52.8,44.39],[-51.3,44.05],[-49.8,44.39],[-48.7,45.33],[-48.3,46.6],[-48.7,47.88],[-49.8,48.81],[-51.3,49.15],[-52.8,48.81],[-53.9,47.88],[-54.3,46.6]]]}},{"type":"Feature","id":"geom_evt_20251109_gulf_coast_2025_11_09_fire_d1_hover","properties":{"event_id":"evt_20251109_gulf_coast_2025_11_09_fire","day_index":1,"geometry_role":"hover_geometry"},"geometry":{"type":"Polygon","coordinates":[[[-100.14,28.53],[-100.07,28.24],[-99.48,27.58],[-98.37,27.33],[-97.85,27.3],[-97.51,27.52],[-96.59,28.62],[-97.11,29.38],[-97.39,29.54],[-97.82,29.59],[-99.48,29.29],[-100.1,29.01],[-100.14,28.53]]]}},{"type":"Feature","id":"geom_evt_20251116_mid_atlantic_2025_11_16_fire_d1_hover","properties":{"event_id":"evt_20251116_mid_atlantic_2025_11_16_fire","day_index":1,"geometry_role":"hover_geometry"},"geometry":{"type":"Polygon","coordinates":[[[-79.78,37.37],[-79.77,37.16],[-79.48,36.86],[-79.05,36.7],[-78.55,36.64],[-78.17,36.74],[-77.42,37.15],[-77.03,37.48],[-76.93,37.87],[-77.01,38.24],[-77.29,38.65],[-77.84,38.77],[-78.4,38.69],[-79.02,38.39],[-79.77,37.66],[-79.78,37.37]]]}},{"type":"Feature","id":"geom_evt_20251114_southern_california_2025_11_14_rain_d1_hover","properties":{"event_id":"evt_20251114_southern_california_2025_11_14_rain","day_index":1,"geometry_role":"hover_geometry"},"geometry":{"type":"Polygon","coordinates":[[[-119.75,34.36],[-119.5,33.98],[-118.79,33.26],[-118.36,33.56],[-117.62,34.26],[-117.65,34.39],[-118.67,34.75],[-119.54,34.66],[-119.73,34.54],[-119.75,34.36]]]}},{"type":"Feature","id":"geom_evt_20251115_southern_california_2025_11_15_rain_d1_hover","properties":{"event_id":"evt_20251114_southern_california_2025_11_14_rain","day_index":2,"geometry_role":"hover_geometry"},"geometry":{"type":"Polygon","coordinates":[[[-120.18,34.57],[-120.14,34.39],[-119.9,34.06],[-119.83,33.98],[-118.63,33.01],[-117.92,33.02],[-117.31,33.25],[-117.07,33.42],[-116.56,34.22],[-116.54,34.4],[-117.24,34.58],[-118.67,34.75],[-119.58,34.84],[-120.11,34.72],[-120.18,34.57]]]}},{"type":"Feature","id":"geom_evt_20251119_central_plains_2025_11_19_rain_d1_hover","properties":{"event_id":"evt_20251119_central_plains_2025_11_19_rain","day_index":1,"geometry_role":"hover_geometry"},"geometry":{"type":"Polygon","coordinates":[[[-101.17,29.35],[-100.84,29],[-100.68,29.01],[-99.86,29.44],[-99.57,30],[-99.58,30.18],[-99.69,30.27],[-100.37,30.2],[-101.13,29.58],[-101.17,29.35]]]}},{"type":"Feature","id":"geom_evt_20251120_gulf_coast_2025_11_20_rain_d1_hover","properties":{"event_id":"evt_20251120_gulf_coast_2025_11_20_rain","day_index":1,"geometry_role":"hover_geometry"},"geometry":{"type":"Polygon","coordinates":[[[-100.55,30.6],[-100.54,30.38],[-100.37,30.2],[-100.1,30.16],[-99.64,30.45],[-99.18,30.92],[-99.03,31.2],[-98.94,31.65],[-99.11,31.78],[-99.53,31.73],[-99.9,31.49],[-100.35,31.02],[-100.55,30.6]]]}},{"type":"Feature","id":"geom_evt_20251110_great_lakes_2025_11_10_winter_d1_hover","properties":{"event_id":"evt_20251110_great_lakes_2025_11_10_winter","day_index":1,"geometry_role":"hover_geometry"},"geometry":{"type":"Polygon","coordinates":[[[-82.17,40.99],[-81.65,40.91],[-81.42,40.91],[-81,40.99],[-80.52,41.13],[-78.96,41.62],[-78.95,41.64],[-78.92,41.83],[-78.92,42],[-79.76,42.27],[-79.78,42.27],[-80.12,42.17],[-81.12,41.82],[-81.29,41.76],[-81.97,41.51],[-82.17,41.14],[-82.17,40.99]]]}},{"type":"Feature","id":"geom_evt_20251127_great_lakes_2025_11_27_winter_d1_hover","properties":{"event_id":"evt_20251127_great_lakes_2025_11_27_winter","day_index":1,"geometry_role":"hover_geometry"},"geometry":{"type":"Polygon","coordinates":[[[-81.97,41.35],[-81.88,41.28],[-81.56,41.28],[-78.2,41.62],[-74.76,42.86],[-74.14,43.25],[-74.05,43.77],[-74.05,43.8],[-74.61,44.73],[-76,44.35],[-76.15,44.29],[-79,43.06],[-81.97,41.51],[-81.97,41.35]]]}},{"type":"Feature","id":"geom_evt_20251109_mid_atlantic_2025_11_09_winter_d1_hover","properties":{"event_id":"evt_20251109_mid_atlantic_2025_11_09_winter","day_index":1,"geometry_role":"hover_geometry"},"geometry":{"type":"Polygon","coordinates":[[[-86.93,41.17],[-86.05,41.17],[-85.76,41.79],[-85.76,42.07],[-86.22,42.24],[-86.37,42.24],[-86.91,41.73],[-86.93,41.71],[-86.93,41.17]]]}},{"type":"Feature","id":"geom_evt_20251110_mid_atlantic_2025_11_10_winter_d1_hover","properties":{"event_id":"evt_20251109_mid_atlantic_2025_11_09_winter","day_index":2,"geometry_role":"hover_geometry"},"geometry":{"type":"Polygon","coordinates":[[[-88.26,41.99],[-87.9,41.29],[-84.45,36.14],[-84.29,35.93],[-84.27,35.91],[-83.28,35.81],[-83.07,35.88],[-82.44,36.15],[-82.42,36.16],[-82.05,36.36],[-81.95,36.47],[-81.84,36.61],[-81.88,41.35],[-81.97,41.51],[-82.01,41.52],[-87.8,42.49],[-88.03,42.5],[-88.2,42.5],[-88.26,42.07],[-88.26,41.99]]]}},{"type":"Feature","id":"geom_evt_20251126_mid_atlantic_2025_11_26_winter_d1_hover","properties":{"event_id":"evt_20251126_mid_atlantic_2025_11_26_winter","day_index":1,"geometry_role":"hover_geometry"},"geometry":{"type":"Polygon","coordinates":[[[-90.42,46.56],[-90.04,45.56],[-86.04,43.82],[-85.92,43.81],[-84.61,43.81],[-84.37,44.16],[-84.37,45.2],[-84.58,46.44],[-84.62,46.48],[-84.96,46.77],[-88.43,48.19],[-88.44,48.19],[-88.57,48.17],[-88.61,48.16],[-88.64,48.15],[-89.18,47.94],[-89.21,47.92],[-89.25,47.88],[-90.42,46.57],[-90.42,46.56]]]}},{"type":"Feature","id":"geom_evt_20251129_mid_atlantic_2025_11_29_winter_d1_hover","properties":{"event_id":"evt_20251129_mid_atlantic_2025_11_29_winter","day_index":1,"geometry_role":"hover_geometry"},"geometry":{"type":"Polygon","coordinates":[[[-90.32,44.69],[-90.28,38.92],[-90.21,38.7],[-90.19,38.67],[-90.18,38.66],[-89.6,38.66],[-89.14,38.74],[-88.7,38.83],[-87.05,39.17],[-84.81,39.73],[-84.43,39.92],[-83.88,40.92],[-83.88,41.72],[-84.16,42.78],[-84.37,43.47],[-84.61,43.81],[-86.81,45.43],[-86.83,45.43],[-88.68,45.38],[-90.2,45.12],[-90.31,45.03],[-90.32,45],[-90.32,44.69]]]}},{"type":"Feature","id":"geom_evt_20251110_southeast_2025_11_10_winter_d1_hover","properties":{"event_id":"evt_20251110_southeast_2025_11_10_winter","day_index":1,"geometry_role":"hover_geometry"},"geometry":{"type":"Polygon","coordinates":[[[-85.15,35.49],[-85.11,35.43],[-84.95,35.29],[-84.71,35.24],[-84.37,35.24],[-83.5,35.56],[-82.99,35.77],[-82.96,35.79],[-82.92,35.84],[-82.9,35.87],[-82.9,35.95],[-82.96,36],[-83.73,36.16],[-83.79,36.17],[-83.94,36.19],[-83.95,36.19],[-84.36,36.05],[-84.61,35.95],[-84.71,35.9],[-84.91,35.77],[-85.11,35.57],[-85.15,35.49]]]}},{"type":"Feature","id":"geom_evt_20251116_northeast_2025_11_16_winter_d1_hover","properties":{"event_id":"evt_20251116_northeast_2025_11_16_winter","day_index":1,"geometry_role":"hover_geometry"},"geometry":{"type":"Polygon","coordinates":[[[-70.02,46.57],[-69.73,45.98],[-68.96,45.51],[-68.86,45.52],[-68.41,45.57],[-68.35,45.58],[-68.29,45.59],[-67.91,45.66],[-67.81,45.68],[-67.78,45.73],[-67.76,45.82],[-67.75,45.91],[-67.75,45.92],[-67.79,47.07],[-67.95,47.2],[-68.15,47.33],[-68.23,47.36],[-69.17,47.46],[-69.22,47.46],[-69.28,47.41],[-69.73,46.97],[-70,46.7],[-70.02,46.57]]]}},{"type":"Feature","id":"geom_evt_20251125_upper_midwest_2025_11_25_winter_d1_hover","properties":{"event_id":"evt_20251125_upper_midwest_2025_11_25_winter","day_index":1,"geometry_role":"hover_geometry"},"geometry":{"type":"Polygon","coordinates":[[[-100.28,48.37],[-100.24,48.02],[-100.08,46.63],[-99.92,46.28],[-99.01,45.94],[-97.23,45.3],[-94.38,45.28],[-94.26,45.28],[-94.16,45.3],[-93.51,45.56],[-93.14,45.73],[-89.49,48],[-89.48,48.01],[-94.95,49.37],[-95.14,49.38],[-95.15,49.38],[-100.18,49],[-100.28,48.54],[-100.28,48.37]]]}},{"type":"Feature","id":"geom_evt_20251128_upper_midwest_2025_11_28_winter_d1_hover","properties":{"event_id":"evt_20251128_upper_midwest_2025_11_28_winter","day_index":1,"geometry_role":"hover_geometry"},"geometry":{"type":"Polygon","coordinates":[[[-99.71,45.25],[-99.68,44.55],[-99.66,44.22],[-98.31,42.44],[-97.37,41.74],[-96.06,41.51],[-95.06,41.5],[-95.04,41.5],[-94.91,42.56],[-94.85,43.5],[-94.85,43.85],[-94.86,44.11],[-95.6,44.63],[-98.72,45.59],[-99.71,45.59],[-99.71,45.25]]]}},{"type":"Feature","id":"geom_evt_20251129_upper_midwest_2025_11_29_winter_d1_hover","properties":{"event_id":"evt_20251128_upper_midwest_2025_11_28_winter","day_index":2,"geometry_role":"hover_geometry"},"geometry":{"type":"Polygon","coordinates":[[[-97.83,41.74],[-97.25,41.38],[-94.22,40.14],[-93.76,39.96],[-90.37,39.87],[-89.99,39.87],[-89.6,40.12],[-89.6,40.32],[-89.63,41.93],[-89.79,43.67],[-89.9,44.25],[-95.34,44.7],[-95.36,44.7],[-95.59,44.54],[-97.83,42.09],[-97.83,41.74]]]}},{"type":"Feature","id":"geom_evt_20251117_pacific_northwest_2025_11_17_winter_d1_hover","properties":{"event_id":"evt_20251117_pacific_northwest_2025_11_17_winter","day_index":1,"geometry_role":"hover_geometry"},"geometry":{"type":"Polygon","coordinates":[[[-171.85,63.49],[-171.84,63.47],[-171.82,63.43],[-171.8,63.41],[-171.76,63.38],[-171.74,63.37],[-165.14,60.92],[-165.12,60.92],[-164.53,60.94],[-164.41,60.95],[-164.3,60.97],[-161.11,61.6],[-160.2,61.81],[-160.19,61.82],[-159.38,65.26],[-159.38,65.44],[-159.39,65.52],[-164.4,66.58],[-164.45,66.58],[-164.53,66.57],[-164.61,66.56],[-164.75,66.54],[-164.93,66.51],[-165.38,66.43],[-168.94,65.77],[-171.74,63.78],[-171.84,63.56],[-171.85,63.51],[-171.85,63.49]]]}},{"type":"Feature","id":"geom_evt_20251121_pacific_northwest_2025_11_21_winter_d1_hover","properties":{"event_id":"evt_20251121_pacific_northwest_2025_11_21_winter","day_index":1,"geometry_role":"hover_geometry"},"geometry":{"type":"Polygon","coordinates":[[[-150.27,65.12],[-141.89,63.12],[-141.19,62.99],[-141.06,62.99],[-141,63.02],[-141,67.47],[-142,67.6],[-144,67.55],[-149,67.17],[-149.55,66.52],[-150.27,65.12]]]}},{"type":"Feature","id":"geom_evt_20251130_pacific_northwest_2025_11_30_winter_d1_hover","properties":{"event_id":"evt_20251130_pacific_northwest_2025_11_30_winter","day_index":1,"geometry_role":"hover_geometry"},"geometry":{"type":"Polygon","coordinates":[[[-173.12,60.66],[-173.07,60.5],[-172.77,60.19],[-160.81,59.25],[-135.03,59.35],[-134.99,59.39],[-135.03,59.56],[-135.23,59.7],[-135.48,59.8],[-153.51,63.85],[-159.49,63.9],[-159.74,63.9],[-164.24,63.25],[-164.36,63.23],[-164.41,63.22],[-173.07,60.71],[-173.09,60.7],[-173.11,60.68],[-173.12,60.67],[-173.12,60.66]]]}},{"type":"Feature","id":"geom_evt_20251125_northern_plains_2025_11_25_winter_d1_hover","properties":{"event_id":"evt_20251125_northern_plains_2025_11_25_winter","day_index":1,"geometry_role":"hover_geometry"},"geometry":{"type":"Polygon","coordinates":[[[-104.05,47.33],[-100.66,46.63],[-100.08,46.63],[-100.03,47.33],[-100.03,47.67],[-100.18,49],[-104.05,49],[-104.05,47.33]]]}},{"type":"Feature","id":"geom_evt_20251128_northern_rockies_2025_11_28_winter_d1_hover","properties":{"event_id":"evt_20251128_northern_rockies_2025_11_28_winter","day_index":1,"geometry_role":"hover_geometry"},"geometry":{"type":"Polygon","coordinates":[[[-112.18,48.09],[-112.05,47.3],[-111.57,47],[-107.9,46.85],[-106.09,46.85],[-105.41,47.18],[-104.97,48.09],[-104.98,48.56],[-107.18,49],[-111.92,49],[-112.18,48.13],[-112.18,48.09]]]}},{"type":"Feature","id":"geom_evt_20251113_southern_california_2025_11_13_winter_d1_hover","properties":{"event_id":"evt_20251113_southern_california_2025_11_13_winter","day_index":1,"geometry_role":"hover_geometry"},"geometry":{"type":"Polygon","coordinates":[[[-119.89,37.98],[-119.88,37.89],[-119.87,37.78],[-119.85,37.74],[-118.65,35.62],[-118.64,35.61],[-118.63,35.61],[-118.62,35.6],[-118.19,35.54],[-118.11,35.54],[-118.06,35.54],[-118.03,35.56],[-117.9,35.8],[-117.9,35.82],[-118.05,36.49],[-118.33,37.16],[-118.39,37.28],[-119.35,38.08],[-119.35,38.09],[-119.5,38.16],[-119.59,38.18],[-119.59,38.18],[-119.59,38.18],[-119.59,38.18],[-119.59,38.18],[-119.83,38.09],[-119.83,38.09],[-119.84,38.09],[-119.84,38.08],[-119.86,38.07],[-119.87,38.06],[-119.87,38.05],[-119.87,38.05],[-119.88,38.03],[-119.88,38.03],[-119.89,37.98],[-119.89,37.98]]]}},{"type":"Feature","id":"geom_evt_20251113_northern_california_2025_11_13_winter_d1_hover","properties":{"event_id":"evt_20251113_northern_california_2025_11_13_winter","day_index":1,"geometry_role":"hover_geometry"},"geometry":{"type":"Polygon","coordinates":[[[-121.92,40.48],[-121.7,40.02],[-120.3,38.07],[-120.08,37.83],[-120.07,37.82],[-120.05,37.81],[-119.94,37.76],[-118.86,37.48],[-118.78,37.46],[-117.93,37.46],[-117.84,37.47],[-120,41.18],[-121.33,41.18],[-121.89,40.88],[-121.91,40.71],[-121.92,40.48]]]}},{"type":"Feature","id":"geom_evt_20251129_southern_plains_2025_11_29_winter_d1_hover","properties":{"event_id":"evt_20251129_southern_plains_2025_11_29_winter","day_index":1,"geometry_role":"hover_geometry"},"geometry":{"type":"Polygon","coordinates":[[[-93.36,39.7],[-90.96,38.54],[-90.69,38.45],[-90.34,38.39],[-90.32,38.4],[-90.29,38.44],[-90.18,38.61],[-90.11,38.82],[-89.93,39.52],[-89.92,39.56],[-89.99,39.87],[-90.91,40.19],[-91.11,40.2],[-91.51,40.2],[-93.36,40.03],[-93.36,39.7]]]}},{"type":"Feature","id":"geom_evt_20251128_desert_southwest_2025_11_28_winter_d1_hover","properties":{"event_id":"evt_20251128_desert_southwest_2025_11_28_winter","day_index":1,"geometry_role":"hover_geometry"},"geometry":{"type":"Polygon","coordinates":[[[-114.74,48.99],[-114.72,47.74],[-114.71,47.6],[-114.7,47.49],[-114.69,47.43],[-114.64,47.36],[-113.43,45.8],[-113.39,45.76],[-112.69,45.62],[-112.2,45.75],[-112.02,46.57],[-111.85,48.53],[-111.85,48.85],[-111.92,49],[-114.74,49],[-114.74,48.99]]]}},{"type":"Feature","id":"geom_evt_20251101_gulf_coast_2025_11_01_severe_d1_hover","properties":{"event_id":"evt_20251101_gulf_coast_2025_11_01_severe","day_index":1,"geometry_role":"hover_geometry"},"geometry":{"type":"Polygon","coordinates":[[[-98.08,27.48],[-98.03,27.23],[-97.75,26.88],[-96.86,26.51],[-95.59,28.38],[-95.92,28.66],[-96.26,28.78],[-96.79,28.79],[-97.11,28.66],[-97.53,28.27],[-97.95,27.76],[-98.08,27.48]]]}},{"type":"Feature","id":"geom_evt_20251124_gulf_coast_2025_11_24_severe_d1_hover","properties":{"event_id":"evt_20251124_gulf_coast_2025_11_24_severe","day_index":1,"geometry_role":"hover_geometry"},"geometry":{"type":"Polygon","coordinates":[[[-97.17,31.18],[-97.03,30.06],[-95.87,29.43],[-89.8,30.9],[-88.9,31.34],[-88.66,32.23],[-90.54,33.4],[-94.18,33.17],[-95.59,32.59],[-96.93,31.63],[-97.17,31.18]]]}},{"type":"Feature","id":"geom_evt_20251107_mid_atlantic_2025_11_07_severe_d1_hover","properties":{"event_id":"evt_20251107_mid_atlantic_2025_11_07_severe","day_index":1,"geometry_role":"hover_geometry"},"geometry":{"type":"Polygon","coordinates":[[[-87.65,35.66],[-87.51,35.19],[-87.33,35.08],[-86.98,35.07],[-85.83,35.25],[-85.01,35.8],[-84.84,36.23],[-84.79,37.1],[-84.84,37.35],[-85.07,37.54],[-85.56,37.5],[-86.28,37.14],[-87.02,36.57],[-87.49,36],[-87.65,35.66]]]}},{"type":"Feature","id":"geom_evt_20251123_central_plains_2025_11_23_severe_d1_hover","properties":{"event_id":"evt_20251123_central_plains_2025_11_23_severe","day_index":1,"geometry_role":"hover_geometry"},"geometry":{"type":"Polygon","coordinates":[[[-103.38,31.84],[-103.12,31.19],[-102.41,30.41],[-101.34,30.38],[-100.83,30.47],[-100.37,30.78],[-99.94,31.38],[-99.69,31.9],[-99.51,32.65],[-99.55,33.07],[-99.91,33.71],[-101.56,33.22],[-103.38,31.84]]]}},{"type":"Feature","id":"geom_evt_20251125_southeast_2025_11_25_severe_d1_hover","properties":{"event_id":"evt_20251125_southeast_2025_11_25_severe","day_index":1,"geometry_role":"hover_geometry"},"geometry":{"type":"Polygon","coordinates":[[[-89.5,31.75],[-89.29,31.33],[-88.44,31.09],[-88.02,31.1],[-87.41,31.37],[-85.59,32.66],[-85.25,33.25],[-85.35,33.73],[-85.68,33.98],[-85.94,33.94],[-88.36,32.87],[-89.09,32.46],[-89.44,32.11],[-89.5,31.75]]]}}]}