{"type":"FeatureCollection","features":[{"type":"Feature","id":"geom_evt_20250107_southern_california_2025_01_07_fire_d1_hover","properties":{"event_id":"evt_20250107_southern_california_2025_01_07_fire","day_index":1,"geometry_role":"hover_geometry"},"geometry":{"type":"Polygon","coordinates":[[[-119.31,34.39],[-119.25,34.32],[-119.1,34.2],[-118.98,34.11],[-117.27,33.31],[-117.12,33.38],[-116.98,33.71],[-117.09,33.95],[-117.5,34.16],[-118.25,34.54],[-118.44,34.58],[-118.61,34.58],[-118.85,34.57],[-119.18,34.53],[-119.29,34.49],[-119.31,34.39]]]}},{"type":"Feature","id":"geom_evt_20250108_southern_california_2025_01_08_fire_d1_hover","properties":{"event_id":"evt_20250107_southern_california_2025_01_07_fire","day_index":2,"geometry_role":"hover_geometry"},"geometry":{"type":"Polygon","coordinates":[[[-119.66,34.56],[-119.62,34.47],[-119.3,34.15],[-116.89,32.58],[-116.66,32.6],[-116.61,32.79],[-116.75,33.14],[-117.11,33.9],[-117.85,34.42],[-118.17,34.56],[-118.5,34.66],[-118.93,34.7],[-119.39,34.67],[-119.63,34.65],[-119.66,34.56]]]}},{"type":"Feature","id":"geom_evt_20250109_southern_california_2025_01_09_fire_d1_hover","properties":{"event_id":"evt_20250107_southern_california_2025_01_07_fire","day_index":3,"geometry_role":"hover_geometry"},"geometry":{"type":"Polygon","coordinates":[[[-119.22,34.13],[-119.12,34.06],[-116.78,32.55],[-116.7,32.55],[-116.51,32.57],[-116.5,32.72],[-116.81,33.79],[-116.98,34.03],[-117.15,34.18],[-117.28,34.26],[-117.47,34.33],[-117.69,34.4],[-118.07,34.52],[-118.54,34.63],[-118.87,34.66],[-119.06,34.64],[-119.14,34.59],[-119.21,34.26],[-119.22,34.13]]]}},{"type":"Feature","id":"geom_evt_20250110_southern_california_2025_01_10_fire_d1_hover","properties":{"event_id":"evt_20250107_southern_california_2025_01_07_fire","day_index":4,"geometry_role":"hover_geometry"},"geometry":{"type":"Polygon","coordinates":[[[-117.2,33.69],[-116.79,32.55],[-116.62,32.55],[-116.39,32.57],[-116.34,32.71],[-116.41,33.05],[-116.57,33.65],[-116.77,33.92],[-117.01,33.93],[-117.12,33.84],[-117.2,33.69]]]}},{"type":"Feature","id":"geom_evt_20250111_southern_california_2025_01_11_fire_d1_hover","properties":{"event_id":"evt_20250107_southern_california_2025_01_07_fire","day_index":5,"geometry_role":"hover_geometry"},"geometry":{"type":"Polygon","coordinates":[[[-119.39,34.41],[-119.23,34.2],[-117.38,33.28],[-116.81,33.14],[-116.67,33.24],[-116.85,33.8],[-117.33,34.33],[-118.55,34.61],[-118.99,34.57],[-119.39,34.41]]]}},{"type":"Feature","id":"geom_evt_20250112_southern_california_2025_01_12_fire_d1_hover","properties":{"event_id":"evt_20250107_southern_california_2025_01_07_fire","day_index":6,"geometry_role":"hover_geometry"},"geometry":{"type":"Polygon","coordinates":[[[-119.23,34.34],[-119.19,34.22],[-118.99,34.08],[-117.39,33.27],[-117.09,33.31],[-116.62,33.49],[-116.55,33.6],[-116.7,33.95],[-117.67,34.57],[-118.46,34.69],[-119.04,34.51],[-119.23,34.34]]]}},{"type":"Feature","id":"geom_evt_20250113_southern_california_2025_01_13_fire_d1_hover","properties":{"event_id":"evt_20250113_southern_california_2025_01_13_fire","day_index":1,"geometry_role":"hover_geometry"},"geometry":{"type":"Polygon","coordinates":[[[-119.57,34.48],[-119.43,34.31],[-119.12,34.06],[-117.29,33.03],[-117.02,32.92],[-116.86,32.97],[-116.7,33.19],[-116.85,33.67],[-117.3,34.34],[-117.9,34.6],[-118.63,34.78],[-119.19,34.73],[-119.57,34.48]]]}},{"type":"Feature","id":"geom_evt_20250114_southern_california_2025_01_14_fire_d1_hover","properties":{"event_id":"evt_20250113_southern_california_2025_01_13_fire","day_index":2,"geometry_role":"hover_geometry"},"geometry":{"type":"Polygon","coordinates":[[[-120.35,34.77],[-120.31,34.6],[-120.27,34.56],[-116.87,32.54],[-116.62,32.55],[-116.23,32.58],[-116.22,32.8],[-116.4,33.31],[-116.7,34.11],[-116.85,34.28],[-117.06,34.41],[-118.18,34.87],[-118.89,34.93],[-119.83,34.94],[-120.21,34.92],[-120.35,34.77]]]}},{"type":"Feature","id":"geom_evt_20250115_southern_california_2025_01_15_fire_d1_hover","properties":{"event_id":"evt_20250113_southern_california_2025_01_13_fire","day_index":3,"geometry_role":"hover_geometry"},"geometry":{"type":"Polygon","coordinates":[[[-119.85,34.56],[-119.75,34.45],[-116.93,32.54],[-116.69,32.55],[-116.44,32.59],[-116.43,32.83],[-116.58,33.43],[-116.94,34.33],[-118,34.61],[-119.17,34.79],[-119.72,34.71],[-119.85,34.56]]]}},{"type":"Feature","id":"geom_evt_20250120_southern_california_2025_01_20_fire_d1_hover","properties":{"event_id":"evt_20250120_southern_california_2025_01_20_fire","day_index":1,"geometry_role":"hover_geometry"},"geometry":{"type":"Polygon","coordinates":[[[-119.4,34.43],[-119.38,34.3],[-119.35,34.17],[-119.23,34.07],[-116.97,32.54],[-116.62,32.55],[-116.49,32.56],[-116.45,32.7],[-116.39,32.91],[-116.42,33.24],[-116.55,33.87],[-116.76,34.18],[-116.99,34.45],[-117.24,34.55],[-117.54,34.65],[-117.92,34.72],[-118.86,34.87],[-118.99,34.84],[-119.18,34.75],[-119.37,34.53],[-119.4,34.43]]]}},{"type":"Feature","id":"geom_evt_20250121_southern_california_2025_01_21_fire_d1_hover","properties":{"event_id":"evt_20250120_southern_california_2025_01_20_fire","day_index":2,"geometry_role":"hover_geometry"},"geometry":{"type":"Polygon","coordinates":[[[-119.4,34.42],[-119.32,34.14],[-119.22,34.07],[-116.97,32.54],[-116.62,32.55],[-116.4,32.57],[-116.41,33.18],[-116.56,33.87],[-116.98,34.45],[-117.54,34.65],[-118.85,34.87],[-119.01,34.84],[-119.2,34.74],[-119.38,34.53],[-119.4,34.42]]]}},{"type":"Feature","id":"geom_evt_20250122_southern_california_2025_01_22_fire_d1_hover","properties":{"event_id":"evt_20250120_southern_california_2025_01_20_fire","day_index":3,"geometry_role":"hover_geometry"},"geometry":{"type":"Polygon","coordinates":[[[-119.25,34.2],[-119.14,34.06],[-117,32.54],[-116.62,32.55],[-116.24,32.58],[-116.24,32.66],[-116.43,33.28],[-116.78,33.89],[-117.35,34.31],[-118.03,34.58],[-118.78,34.81],[-118.99,34.74],[-119.15,34.47],[-119.25,34.2]]]}},{"type":"Feature","id":"geom_evt_20250123_southern_california_2025_01_23_fire_d1_hover","properties":{"event_id":"evt_20250120_southern_california_2025_01_20_fire","day_index":4,"geometry_role":"hover_geometry"},"geometry":{"type":"Polygon","coordinates":[[[-119.31,34.24],[-119.26,34.14],[-117.01,32.54],[-116.62,32.55],[-116.21,32.58],[-116.57,33.74],[-116.73,33.97],[-117.29,34.32],[-118.03,34.63],[-118.64,34.77],[-119.07,34.68],[-119.31,34.24]]]}},{"type":"Feature","id":"geom_evt_20250104_southwest_2025_01_04_fire_d1_hover","properties":{"event_id":"evt_20250104_southwest_2025_01_04_fire","day_index":1,"geometry_role":"hover_geometry"},"geometry":{"type":"Polygon","coordinates":[[[-108.92,31.74],[-108.88,31.42],[-108.82,31.31],[-108.21,31.31],[-104.52,31.35],[-104.31,31.43],[-104.21,31.63],[-103.22,35.87],[-103.25,36.14],[-103.43,36.44],[-103.71,36.61],[-104.13,36.61],[-108.11,35.29],[-108.41,35.14],[-108.64,34.89],[-108.68,34.56],[-108.92,31.74]]]}},{"type":"Feature","id":"geom_evt_20250125_southwest_2025_01_25_fire_d1_hover","properties":{"event_id":"evt_20250125_southwest_2025_01_25_fire","day_index":1,"geometry_role":"hover_geometry"},"geometry":{"type":"Polygon","coordinates":[[[-113.03,31.93],[-112.91,31.89],[-111.1,31.32],[-110.73,31.32],[-109.83,31.33],[-109.69,31.51],[-109,34.38],[-109.04,34.59],[-109.48,34.89],[-109.9,35.15],[-110.79,35.38],[-111.44,35.36],[-111.74,35.17],[-112.94,32.44],[-113.03,31.93]]]}},{"type":"Feature","id":"geom_evt_20250104_southern_plains_2025_01_04_winter_d1_hover","properties":{"event_id":"evt_20250104_southern_plains_2025_01_04_winter","day_index":1,"geometry_role":"hover_geometry"},"geometry":{"type":"Polygon","coordinates":[[[-99.63,39.57],[-99.59,38.38],[-99.57,38.09],[-98.46,37.38],[-98.15,37.38],[-97.81,37.39],[-96.53,37.48],[-95.09,37.73],[-95.08,37.82],[-95.06,38.31],[-95.06,38.99],[-95.34,40],[-99.63,40],[-99.63,39.57]]]}},{"type":"Feature","id":"geom_evt_20250105_southern_plains_2025_01_05_winter_d1_hover","properties":{"event_id":"evt_20250104_southern_plains_2025_01_04_winter","day_index":2,"geometry_role":"hover_geometry"},"geometry":{"type":"Polygon","coordinates":[[[-95.57,39.42],[-95.09,37.67],[-91.66,36.89],[-91.17,36.82],[-90.93,36.81],[-90.66,36.81],[-90.24,36.92],[-89.96,37.05],[-89.87,37.13],[-89.86,37.22],[-89.86,37.6],[-89.92,39.56],[-89.99,39.87],[-90.91,40.19],[-91.11,40.2],[-91.51,40.2],[-95.04,40.13],[-95.34,40],[-95.56,39.65],[-95.57,39.57],[-95.57,39.42]]]}},{"type":"Feature","id":"geom_evt_20250109_southern_plains_2025_01_09_winter_d1_hover","properties":{"event_id":"evt_20250109_southern_plains_2025_01_09_winter","day_index":1,"geometry_role":"hover_geometry"},"geometry":{"type":"Polygon","coordinates":[[[-99.12,32.08],[-98.33,31.94],[-98.21,31.92],[-93.95,32.2],[-93.42,32.24],[-91.84,32.52],[-91.74,32.56],[-90.17,33.33],[-90.1,33.46],[-90.1,33.66],[-90.75,36.41],[-90.77,36.49],[-90.78,36.5],[-92.15,36.5],[-96.44,35.29],[-98.14,34.29],[-98.95,33.4],[-99.1,32.96],[-99.12,32.46],[-99.12,32.08]]]}},{"type":"Feature","id":"geom_evt_20250110_southern_plains_2025_01_10_winter_d1_hover","properties":{"event_id":"evt_20250109_southern_plains_2025_01_09_winter","day_index":2,"geometry_role":"hover_geometry"},"geometry":{"type":"Polygon","coordinates":[[[-91.15,34.91],[-91.11,34.12],[-90.29,33.69],[-90.28,33.69],[-90.14,33.72],[-89.93,33.82],[-89.67,34.55],[-89.64,35],[-89.63,35.37],[-89.63,35.38],[-89.96,36.63],[-90.16,36.63],[-90.78,36.5],[-91.03,35.89],[-91.15,35],[-91.15,34.91]]]}},{"type":"Feature","id":"geom_evt_20250121_southern_plains_2025_01_21_winter_d1_hover","properties":{"event_id":"evt_20250121_southern_plains_2025_01_21_winter","day_index":1,"geometry_role":"hover_geometry"},"geometry":{"type":"Polygon","coordinates":[[[-94.04,31.99],[-93.96,31.91],[-93.88,31.84],[-90.85,31.79],[-90.74,31.79],[-89.73,32.05],[-89.73,32.88],[-89.75,32.89],[-90.34,33.02],[-90.35,33.02],[-90.45,33.01],[-93.18,32.58],[-93.8,32.34],[-94.04,32.2],[-94.04,31.99]]]}},{"type":"Feature","id":"geom_evt_20250103_great_lakes_2025_01_03_winter_d1_hover","properties":{"event_id":"evt_20250103_great_lakes_2025_01_03_winter","day_index":1,"geometry_role":"hover_geometry"},"geometry":{"type":"Polygon","coordinates":[[[-82.17,40.99],[-79.79,39.04],[-79.76,39.03],[-79.28,38.91],[-78.93,39.72],[-80.52,41.98],[-80.53,41.98],[-81,41.86],[-81.06,41.84],[-81.12,41.82],[-81.29,41.76],[-81.97,41.51],[-82.17,41.14],[-82.17,40.99]]]}},{"type":"Feature","id":"geom_evt_20250105_great_lakes_2025_01_05_winter_d1_hover","properties":{"event_id":"evt_20250105_great_lakes_2025_01_05_winter","day_index":1,"geometry_role":"hover_geometry"},"geometry":{"type":"Polygon","coordinates":[[[-82.32,39.01],[-81.9,38.87],[-81.89,38.87],[-79.36,38.96],[-79.34,38.97],[-79.33,38.98],[-79.31,39.02],[-79.3,39.05],[-78.97,40.4],[-78.98,40.41],[-79.01,40.42],[-79.21,40.42],[-82.19,40.17],[-82.23,39.95],[-82.29,39.42],[-82.31,39.21],[-82.32,39.1],[-82.32,39.01]]]}},{"type":"Feature","id":"geom_evt_20250106_great_lakes_2025_01_06_winter_d1_hover","properties":{"event_id":"evt_20250105_great_lakes_2025_01_05_winter","day_index":2,"geometry_role":"hover_geometry"},"geometry":{"type":"Polygon","coordinates":[[[-81.73,39.93],[-81.69,39.84],[-79.13,38.81],[-75.72,38.83],[-75.55,38.84],[-74.9,38.93],[-74.86,38.94],[-74.79,38.99],[-74.35,39.41],[-74.33,39.43],[-74.23,39.56],[-74.15,39.67],[-74.13,39.7],[-74.1,39.75],[-74.09,39.78],[-74.03,40.1],[-74.04,40.11],[-74.1,40.14],[-74.26,40.17],[-75.25,40.28],[-79.66,40.68],[-79.67,40.68],[-81.67,40.22],[-81.72,40.15],[-81.73,39.93]]]}},{"type":"Feature","id":"geom_evt_20250113_great_lakes_2025_01_13_winter_d1_hover","properties":{"event_id":"evt_20250113_great_lakes_2025_01_13_winter","day_index":1,"geometry_role":"hover_geometry"},"geometry":{"type":"Polygon","coordinates":[[[-79.76,42],[-78.31,42],[-74.87,43.34],[-74.83,43.4],[-74.78,43.49],[-74.78,43.56],[-74.84,44],[-74.85,44.07],[-75.83,44.39],[-75.85,44.39],[-76,44.35],[-76.15,44.29],[-79.05,42.69],[-79.76,42.27],[-79.76,42]]]}},{"type":"Feature","id":"geom_evt_20250114_great_lakes_2025_01_14_winter_d1_hover","properties":{"event_id":"evt_20250113_great_lakes_2025_01_13_winter","day_index":2,"geometry_role":"hover_geometry"},"geometry":{"type":"Polygon","coordinates":[[[-81,41.77],[-79.61,41.62],[-78.96,41.62],[-75.15,43.29],[-75.09,43.32],[-75.08,43.33],[-75.08,43.4],[-75.09,43.48],[-75.11,43.61],[-75.12,43.61],[-75.81,43.48],[-80.12,42.17],[-81,41.86],[-81,41.77]]]}},{"type":"Feature","id":"geom_evt_20250116_great_lakes_2025_01_16_winter_d1_hover","properties":{"event_id":"evt_20250116_great_lakes_2025_01_16_winter","day_index":1,"geometry_role":"hover_geometry"},"geometry":{"type":"Polygon","coordinates":[[[-80.23,39.11],[-80.07,38.95],[-79.28,38.91],[-78.8,39.73],[-78.77,39.79],[-78.76,39.82],[-78.66,40.23],[-78.66,40.24],[-78.98,40.41],[-79.01,40.42],[-79.21,40.42],[-79.31,40.32],[-79.49,40.13],[-80.23,39.17],[-80.23,39.11]]]}},{"type":"Feature","id":"geom_evt_20250119_great_lakes_2025_01_19_winter_d1_hover","properties":{"event_id":"evt_20250119_great_lakes_2025_01_19_winter","day_index":1,"geometry_role":"hover_geometry"},"geometry":{"type":"Polygon","coordinates":[[[-80.52,41.85],[-80.23,39.11],[-80.07,38.95],[-79.13,38.81],[-77.65,38.94],[-77.33,39.06],[-75.77,39.72],[-71.36,41.75],[-71.34,41.76],[-71.32,41.77],[-70.92,42.16],[-70.59,42.64],[-69.89,43.77],[-69.88,43.81],[-69.86,43.92],[-69.86,43.95],[-70.13,44.49],[-70.21,44.48],[-79.78,42.27],[-80.12,42.17],[-80.5,41.99],[-80.52,41.98],[-80.52,41.85]]]}},{"type":"Feature","id":"geom_evt_20250120_great_lakes_2025_01_20_winter_d1_hover","properties":{"event_id":"evt_20250119_great_lakes_2025_01_19_winter","day_index":2,"geometry_role":"hover_geometry"},"geometry":{"type":"Polygon","coordinates":[[[-79.76,42],[-78.31,42],[-75.88,43.16],[-75.11,43.61],[-75.11,43.63],[-75.12,43.73],[-75.13,43.81],[-75.16,44.04],[-75.17,44.1],[-75.23,44.13],[-75.8,44.38],[-75.83,44.39],[-75.85,44.39],[-76,44.35],[-76.15,44.29],[-79,43.06],[-79.76,42.27],[-79.76,42]]]}},{"type":"Feature","id":"geom_evt_20250129_great_lakes_2025_01_29_winter_d1_hover","properties":{"event_id":"evt_20250129_great_lakes_2025_01_29_winter","day_index":1,"geometry_role":"hover_geometry"},"geometry":{"type":"Polygon","coordinates":[[[-76.62,43.41],[-76.61,43.26],[-76.6,43.25],[-75.44,42.86],[-74.92,42.83],[-74.89,42.83],[-74.1,42.98],[-74.05,43.77],[-74.05,43.8],[-74.28,44.12],[-75.83,44.39],[-75.85,44.39],[-76,44.35],[-76.15,44.29],[-76.3,44.19],[-76.31,44.18],[-76.37,44.11],[-76.62,43.42],[-76.62,43.41]]]}},{"type":"Feature","id":"geom_evt_20250103_northern_rockies_2025_01_03_winter_d1_hover","properties":{"event_id":"evt_20250103_northern_rockies_2025_01_03_winter","day_index":1,"geometry_role":"hover_geometry"},"geometry":{"type":"Polygon","coordinates":[[[-112.18,48.09],[-112.05,47.3],[-111.57,47],[-109.82,46.69],[-109.39,46.69],[-108.01,46.75],[-106.09,46.85],[-105.84,48.01],[-105.8,48.22],[-105.8,48.56],[-107.18,49],[-111.92,49],[-112.18,48.13],[-112.18,48.09]]]}},{"type":"Feature","id":"geom_evt_20250104_northern_rockies_2025_01_04_winter_d1_hover","properties":{"event_id":"evt_20250103_northern_rockies_2025_01_03_winter","day_index":2,"geometry_role":"hover_geometry"},"geometry":{"type":"Polygon","coordinates":[[[-108.73,45.3],[-108.71,45.25],[-108.66,45.16],[-108.56,45.07],[-108.51,45.03],[-107.67,44.68],[-107.37,44.56],[-106.01,44.56],[-105.04,45],[-104.73,46.48],[-104.73,46.61],[-105.62,46.83],[-105.83,46.86],[-107.47,46.86],[-107.89,46.85],[-108.4,46.24],[-108.73,45.3]]]}},{"type":"Feature","id":"geom_evt_20250111_northern_rockies_2025_01_11_winter_d1_hover","properties":{"event_id":"evt_20250111_northern_rockies_2025_01_11_winter","day_index":1,"geometry_role":"hover_geometry"},"geometry":{"type":"Polygon","coordinates":[[[-112.05,47.3],[-107.49,41.13],[-107.48,41.12],[-107.47,41.11],[-107.36,41.02],[-107.3,41],[-105.92,41],[-105.08,44.19],[-104.73,46.48],[-104.73,46.61],[-108.71,48.43],[-109.04,48.51],[-109.28,48.55],[-109.38,48.56],[-109.49,48.56],[-109.8,48.48],[-111.92,47.61],[-112.05,47.52],[-112.05,47.3]]]}},{"type":"Feature","id":"geom_evt_20250104_upper_midwest_2025_01_04_winter_d1_hover","properties":{"event_id":"evt_20250104_upper_midwest_2025_01_04_winter","day_index":1,"geometry_role":"hover_geometry"},"geometry":{"type":"Polygon","coordinates":[[[-99.18,40],[-95.31,40],[-94.91,40.58],[-94.91,40.73],[-94.93,40.9],[-95.88,41.06],[-96.03,41.07],[-97.83,41.17],[-98.02,41.07],[-98.72,40.7],[-99.18,40.35],[-99.18,40]]]}},{"type":"Feature","id":"geom_evt_20250105_upper_midwest_2025_01_05_winter_d1_hover","properties":{"event_id":"evt_20250104_upper_midwest_2025_01_04_winter","day_index":2,"geometry_role":"hover_geometry"},"geometry":{"type":"Polygon","coordinates":[[[-95.77,40.53],[-95.66,40.31],[-95.42,40.04],[-95.41,40.03],[-95.2,39.9],[-95.13,39.87],[-95.09,39.86],[-95.04,39.86],[-89.99,39.87],[-89.6,40.12],[-89.6,40.32],[-89.98,41.15],[-91.37,41.16],[-91.72,41.16],[-94.93,40.9],[-95.76,40.59],[-95.77,40.58],[-95.77,40.53]]]}},{"type":"Feature","id":"geom_evt_20250105_mid_atlantic_2025_01_05_winter_d1_hover","properties":{"event_id":"evt_20250105_mid_atlantic_2025_01_05_winter","day_index":1,"geometry_role":"hover_geometry"},"geometry":{"type":"Polygon","coordinates":[[[-90.28,38.92],[-90.26,38.52],[-90.21,38.09],[-90.15,37.6],[-89.87,37.13],[-89.7,36.87],[-89.69,36.86],[-82.14,35.82],[-82.12,35.82],[-81.73,35.89],[-76.6,37.17],[-75.66,37.47],[-75.33,37.89],[-75.24,38.02],[-75.2,38.08],[-75.19,38.1],[-75.17,38.14],[-75.08,38.33],[-75.06,38.38],[-75.05,38.41],[-75.05,38.45],[-75.76,38.69],[-75.8,38.7],[-83.25,40.51],[-89.45,40.97],[-89.83,40.98],[-89.91,40.98],[-89.99,40.97],[-90.28,38.96],[-90.28,38.92]]]}},{"type":"Feature","id":"geom_evt_20250106_mid_atlantic_2025_01_06_winter_d1_hover","properties":{"event_id":"evt_20250105_mid_atlantic_2025_01_05_winter","day_index":2,"geometry_role":"hover_geometry"},"geometry":{"type":"Polygon","coordinates":[[[-87.1,40.56],[-78.25,38.23],[-76.36,38.05],[-76.32,38.05],[-75.05,38.45],[-75.05,38.54],[-75.06,38.64],[-75.07,38.71],[-75.08,38.77],[-75.09,38.79],[-75.31,38.95],[-75.75,39.14],[-84.8,40.92],[-85.34,41.01],[-85.68,41.05],[-85.72,41.05],[-85.95,41.04],[-86.99,40.91],[-87.1,40.84],[-87.1,40.56]]]}},{"type":"Feature","id":"geom_evt_20250110_mid_atlantic_2025_01_10_winter_d1_hover","properties":{"event_id":"evt_20250110_mid_atlantic_2025_01_10_winter","day_index":1,"geometry_role":"hover_geometry"},"geometry":{"type":"Polygon","coordinates":[[[-89.97,36.39],[-89.96,36],[-89.64,35.9],[-88.92,35.8],[-88.81,35.79],[-78.21,35.73],[-78.19,35.73],[-77.84,35.84],[-77.41,36],[-77.23,36.1],[-77.23,36.11],[-77.26,36.16],[-77.55,36.42],[-77.64,36.48],[-83.98,39.57],[-84.08,39.58],[-84.23,39.59],[-84.48,39.59],[-84.81,39.57],[-85.3,39.53],[-89.7,36.86],[-89.96,36.63],[-89.97,36.42],[-89.97,36.39]]]}},{"type":"Feature","id":"geom_evt_20250111_mid_atlantic_2025_01_11_winter_d1_hover","properties":{"event_id":"evt_20250110_mid_atlantic_2025_01_10_winter","day_index":2,"geometry_role":"hover_geometry"},"geometry":{"type":"Polygon","coordinates":[[[-78.74,36.55],[-78.73,36.54],[-77.04,35.86],[-76.9,35.81],[-76.87,35.81],[-75.79,36.08],[-75.26,38],[-75.26,38.01],[-75.49,38.01],[-75.61,38],[-78.18,37.75],[-78.21,37.73],[-78.59,37.4],[-78.6,37.39],[-78.67,37.28],[-78.68,37.26],[-78.69,37.22],[-78.74,36.56],[-78.74,36.55]]]}},{"type":"Feature","id":"geom_evt_20250116_mid_atlantic_2025_01_16_winter_d1_hover","properties":{"event_id":"evt_20250116_mid_atlantic_2025_01_16_winter","day_index":1,"geometry_role":"hover_geometry"},"geometry":{"type":"Polygon","coordinates":[[[-81.23,38.26],[-80.8,37.87],[-80.73,37.81],[-80.67,37.76],[-79.8,38.26],[-79.5,38.53],[-79.32,38.84],[-79.28,38.91],[-79.36,38.97],[-79.82,39.12],[-79.83,39.12],[-80.24,39.11],[-80.3,39.1],[-81.23,38.26]]]}},{"type":"Feature","id":"geom_evt_20250119_mid_atlantic_2025_01_19_winter_d1_hover","properties":{"event_id":"evt_20250119_mid_atlantic_2025_01_19_winter","day_index":1,"geometry_role":"hover_geometry"},"geometry":{"type":"Polygon","coordinates":[[[-82.96,36],[-82.9,35.94],[-82.82,35.92],[-82.14,35.82],[-82.12,35.82],[-82,35.87],[-77.6,38.8],[-77.53,38.85],[-77.52,38.86],[-77.41,38.97],[-77.36,39.02],[-77.35,39.03],[-77.33,39.06],[-77.53,39.15],[-78.98,39.24],[-80.24,39.11],[-80.3,39.1],[-81.23,38.26],[-82.96,36]]]}},{"type":"Feature","id":"geom_evt_20250121_mid_atlantic_2025_01_21_winter_d1_hover","properties":{"event_id":"evt_20250121_mid_atlantic_2025_01_21_winter","day_index":1,"geometry_role":"hover_geometry"},"geometry":{"type":"Polygon","coordinates":[[[-76.72,36.14],[-76.71,36.11],[-76.69,36.06],[-76.68,36.05],[-76.67,36.04],[-76.58,36.01],[-76.5,36.01],[-75.79,36.08],[-75.77,36.23],[-75.77,36.24],[-75.86,36.53],[-75.87,36.55],[-76.54,36.55],[-76.69,36.29],[-76.72,36.21],[-76.72,36.14]]]}},{"type":"Feature","id":"geom_evt_20250107_desert_southwest_2025_01_07_winter_d1_hover","properties":{"event_id":"evt_20250107_desert_southwest_2025_01_07_winter","day_index":1,"geometry_role":"hover_geometry"},"geometry":{"type":"Polygon","coordinates":[[[-114.07,49],[-114.05,48.88],[-113.06,47.18],[-112.8,47.04],[-112.78,47.03],[-112.69,47],[-112.19,46.98],[-112.17,47],[-112.04,47.24],[-111.87,48.39],[-111.85,48.53],[-111.85,48.85],[-111.92,49],[-114.07,49]]]}},{"type":"Feature","id":"geom_evt_20250127_desert_southwest_2025_01_27_winter_d1_hover","properties":{"event_id":"evt_20250127_desert_southwest_2025_01_27_winter","day_index":1,"geometry_role":"hover_geometry"},"geometry":{"type":"Polygon","coordinates":[[[-114.55,35.68],[-114.51,35.43],[-114.11,34.3],[-114.04,34.26],[-114.01,34.25],[-113.84,34.22],[-113.71,34.21],[-113.66,34.21],[-113.37,34.29],[-113.35,34.3],[-113.33,34.32],[-112.62,36.41],[-112.53,36.95],[-111.85,48.53],[-111.85,48.85],[-111.92,49],[-114.07,49],[-114.55,35.68]]]}},{"type":"Feature","id":"geom_evt_20250110_southeast_2025_01_10_winter_d1_hover","properties":{"event_id":"evt_20250110_southeast_2025_01_10_winter","day_index":1,"geometry_role":"hover_geometry"},"geometry":{"type":"Polygon","coordinates":[[[-90.29,35.44],[-90.17,33.33],[-90,33.28],[-89.75,33.21],[-89.32,33.11],[-86.56,33.02],[-86.52,33.02],[-83.82,33.13],[-83.32,33.17],[-76.76,34.85],[-76.69,34.87],[-75.78,35.58],[-75.73,35.62],[-75.72,35.69],[-75.72,35.74],[-75.73,35.83],[-75.75,35.89],[-75.78,35.93],[-75.8,35.95],[-75.81,35.96],[-75.83,35.97],[-75.86,35.98],[-77.67,36.15],[-83.94,36.19],[-83.95,36.19],[-88.53,36.15],[-90.29,36],[-90.29,35.44]]]}},{"type":"Feature","id":"geom_evt_20250119_southeast_2025_01_19_winter_d1_hover","properties":{"event_id":"evt_20250119_southeast_2025_01_19_winter","day_index":1,"geometry_role":"hover_geometry"},"geometry":{"type":"Polygon","coordinates":[[[-84.37,35.24],[-84.35,35.21],[-84.34,35.2],[-83.93,35.22],[-82.91,35.3],[-82.82,35.32],[-82.21,35.72],[-82.19,35.74],[-82.16,35.77],[-82.13,35.82],[-82.14,35.91],[-82.19,36.01],[-82.2,36.02],[-82.35,36.08],[-82.4,36.08],[-82.64,36.07],[-82.96,36],[-83.86,35.65],[-83.97,35.59],[-84.33,35.28],[-84.37,35.24]]]}},{"type":"Feature","id":"geom_evt_20250121_southeast_2025_01_21_winter_d1_hover","properties":{"event_id":"evt_20250121_southeast_2025_01_21_winter","day_index":1,"geometry_role":"hover_geometry"},"geometry":{"type":"Polygon","coordinates":[[[-90.35,30.91],[-90.08,29.77],[-90.07,29.74],[-90,29.63],[-83.17,29.3],[-83.15,29.3],[-83.11,29.32],[-83.07,29.34],[-75.53,35.23],[-75.52,35.24],[-75.5,35.33],[-75.48,35.42],[-75.46,35.55],[-75.46,35.61],[-75.47,35.65],[-75.48,35.69],[-75.49,35.72],[-75.5,35.75],[-75.64,36],[-75.76,36.21],[-75.77,36.22],[-83.84,34.51],[-89.73,32.93],[-90.35,31],[-90.35,30.91]]]}},{"type":"Feature","id":"geom_evt_20250122_southeast_2025_01_22_winter_d1_hover","properties":{"event_id":"evt_20250121_southeast_2025_01_21_winter","day_index":2,"geometry_role":"hover_geometry"},"geometry":{"type":"Polygon","coordinates":[[[-83.27,30.61],[-83.25,30.18],[-83.23,30.12],[-82.96,29.59],[-82.56,29.48],[-82.2,29.42],[-82.14,29.42],[-81.74,29.43],[-81.66,29.67],[-81.64,29.74],[-81.27,31.21],[-81.26,31.25],[-81.26,31.26],[-81.27,31.28],[-81.61,31.45],[-81.63,31.45],[-82.04,31.37],[-83.27,30.63],[-83.27,30.61]]]}},{"type":"Feature","id":"geom_evt_20250111_northern_plains_2025_01_11_winter_d1_hover","properties":{"event_id":"evt_20250111_northern_plains_2025_01_11_winter","day_index":1,"geometry_role":"hover_geometry"},"geometry":{"type":"Polygon","coordinates":[[[-105.09,44.32],[-105.08,44.18],[-104.06,43.91],[-103.91,43.91],[-103.75,43.92],[-103.45,44.14],[-103.45,44.26],[-103.46,44.31],[-104.05,46.64],[-104.42,46.68],[-104.52,46.69],[-104.61,46.69],[-104.73,46.66],[-104.91,46.48],[-105.09,45],[-105.09,44.32]]]}},{"type":"Feature","id":"geom_evt_20250117_pacific_northwest_2025_01_17_winter_d1_hover","properties":{"event_id":"evt_20250117_pacific_northwest_2025_01_17_winter","day_index":1,"geometry_role":"hover_geometry"},"geometry":{"type":"Polygon","coordinates":[[[-171.85,63.49],[-171.84,63.47],[-171.82,63.43],[-171.8,63.41],[-171.76,63.38],[-171.74,63.37],[-171.68,63.35],[-171.56,63.32],[-169.73,62.95],[-169.66,62.94],[-160.91,61.95],[-159.27,61.95],[-158.53,62.03],[-158.02,62.12],[-153.5,63.85],[-153.73,65.4],[-162.33,66.95],[-162.48,66.95],[-166,65.94],[-171.74,63.78],[-171.84,63.56],[-171.85,63.51],[-171.85,63.49]]]}},{"type":"Feature","id":"geom_evt_20250121_pacific_northwest_2025_01_21_winter_d1_hover","properties":{"event_id":"evt_20250121_pacific_northwest_2025_01_21_winter","day_index":1,"geometry_role":"hover_geometry"},"geometry":{"type":"Polygon","coordinates":[[[-166.37,64.63],[-166.18,61.57],[-166.17,61.55],[-166.11,61.49],[-165.57,61.09],[-165.14,60.92],[-165.12,60.92],[-164.53,60.94],[-164.41,60.95],[-164.3,60.97],[-158.02,62.12],[-153.5,63.85],[-153.73,65.4],[-154.14,67.12],[-154.15,67.16],[-154.69,67.6],[-155.3,68.03],[-156.24,68.13],[-157.16,68.21],[-159.93,68.29],[-159.97,68.29],[-163.38,67.07],[-166,65.94],[-166.37,64.64],[-166.37,64.63]]]}},{"type":"Feature","id":"geom_evt_20250123_pacific_northwest_2025_01_23_winter_d1_hover","properties":{"event_id":"evt_20250123_pacific_northwest_2025_01_23_winter","day_index":1,"geometry_role":"hover_geometry"},"geometry":{"type":"Polygon","coordinates":[[[-166.37,64.63],[-166.18,61.57],[-166.17,61.55],[-166.11,61.49],[-165.57,61.09],[-165.14,60.92],[-165.12,60.92],[-164.53,60.94],[-164.41,60.95],[-143.33,63.12],[-143.1,63.2],[-155.3,68.03],[-156.24,68.13],[-157.16,68.21],[-159.93,68.29],[-162.68,68.3],[-162.72,68.3],[-164.5,68.23],[-164.91,68.03],[-166,65.94],[-166.37,64.64],[-166.37,64.63]]]}},{"type":"Feature","id":"geom_evt_20250124_pacific_northwest_2025_01_24_winter_d1_hover","properties":{"event_id":"evt_20250123_pacific_northwest_2025_01_23_winter","day_index":2,"geometry_role":"hover_geometry"},"geometry":{"type":"Polygon","coordinates":[[[-166.85,68.33],[-159.71,63.87],[-152.85,63.65],[-152.55,63.65],[-152.24,63.66],[-149.26,64.36],[-141,69.5],[-141,69.65],[-141.08,69.67],[-142.68,70.03],[-143.23,70.15],[-156.44,71.39],[-156.47,71.39],[-159.59,70.81],[-161.88,70.33],[-162.03,70.29],[-162.1,70.27],[-162.34,70.2],[-166.22,68.88],[-166.85,68.34],[-166.85,68.33]]]}},{"type":"Feature","id":"geom_evt_20250130_pacific_northwest_2025_01_30_winter_d1_hover","properties":{"event_id":"evt_20250130_pacific_northwest_2025_01_30_winter","day_index":1,"geometry_role":"hover_geometry"},"geometry":{"type":"Polygon","coordinates":[[[-173.12,60.66],[-173.07,60.5],[-172.77,60.19],[-158.77,56.34],[-132.78,54.67],[-132.67,54.67],[-132.02,54.69],[-132.01,54.7],[-131.96,54.78],[-131.95,54.8],[-131.95,54.81],[-131.98,55.22],[-131.99,55.26],[-133.18,58.15],[-133.38,58.43],[-133.84,58.73],[-134.33,58.96],[-162.38,63.27],[-171.67,63.79],[-171.69,63.79],[-171.74,63.78],[-171.84,63.56],[-173.12,60.67],[-173.12,60.66]]]}},{"type":"Feature","id":"geom_evt_20250131_pacific_northwest_2025_01_31_winter_d1_hover","properties":{"event_id":"evt_20250130_pacific_northwest_2025_01_30_winter","day_index":2,"geometry_role":"hover_geometry"},"geometry":{"type":"Polygon","coordinates":[[[-162.63,66.86],[-162.62,66.85],[-162.61,66.84],[-162.5,66.73],[-161.83,66.21],[-122.51,44.92],[-122.4,44.88],[-121.73,44.89],[-118.08,45.3],[-114.96,46.93],[-114.96,46.94],[-116.05,49],[-161.17,66.54],[-162.33,66.95],[-162.48,66.95],[-162.6,66.9],[-162.61,66.89],[-162.63,66.87],[-162.63,66.86]]]}},{"type":"Feature","id":"geom_evt_20250119_northeast_2025_01_19_winter_d1_hover","properties":{"event_id":"evt_20250119_northeast_2025_01_19_winter","day_index":1,"geometry_role":"hover_geometry"},"geometry":{"type":"Polygon","coordinates":[[[-70.13,44.37],[-70.05,43.99],[-70.02,43.94],[-69.86,43.7],[-69.85,43.7],[-68.85,43.78],[-68.74,43.88],[-68.6,44.01],[-68.6,44.09],[-68.81,44.68],[-68.82,44.69],[-69.35,45.07],[-69.66,45.12],[-69.76,45.06],[-69.94,44.95],[-70.08,44.86],[-70.13,44.49],[-70.13,44.37]]]}},{"type":"Feature","id":"geom_evt_20250120_northeast_2025_01_20_winter_d1_hover","properties":{"event_id":"evt_20250119_northeast_2025_01_19_winter","day_index":2,"geometry_role":"hover_geometry"},"geometry":{"type":"Polygon","coordinates":[[[-69.35,45.05],[-69.27,44.72],[-68.87,44.21],[-68.69,44.12],[-68.52,44.1],[-68.33,44.1],[-68.24,44.14],[-67.57,44.45],[-67.26,44.6],[-67.19,44.64],[-67.16,44.66],[-66.95,44.81],[-66.95,44.82],[-66.98,44.91],[-67.78,46.38],[-68.44,46.37],[-69.35,45.07],[-69.35,45.05]]]}},{"type":"Feature","id":"geom_evt_20250121_gulf_coast_2025_01_21_winter_d1_hover","properties":{"event_id":"evt_20250121_gulf_coast_2025_01_21_winter","day_index":1,"geometry_role":"hover_geometry"},"geometry":{"type":"Polygon","coordinates":[[[-100.21,28.19],[-99.11,26.42],[-99.1,26.41],[-99.09,26.4],[-98.25,26.07],[-97.43,25.84],[-97.37,25.84],[-90.01,29.62],[-90,29.63],[-89.91,29.87],[-89.83,30.3],[-89.65,31.78],[-89.65,32.01],[-89.66,32.05],[-91.13,32.25],[-91.18,32.25],[-95.45,32.14],[-98.96,30.92],[-99.75,30.29],[-99.76,30.25],[-100.21,28.2],[-100.21,28.19]]]}},{"type":"Feature","id":"geom_evt_20250126_southern_california_2025_01_26_winter_d1_hover","properties":{"event_id":"evt_20250126_southern_california_2025_01_26_winter","day_index":1,"geometry_role":"hover_geometry"},"geometry":{"type":"Polygon","coordinates":[[[-117.67,34.16],[-116.57,32.58],[-116.54,32.58],[-116.2,32.61],[-114.76,34.86],[-114.73,35.08],[-115.02,36.85],[-115.14,37.26],[-115.19,37.28],[-115.26,37.24],[-116.06,36.59],[-117.66,34.42],[-117.67,34.21],[-117.67,34.16]]]}},{"type":"Feature","id":"geom_evt_20250131_northern_california_2025_01_31_winter_d1_hover","properties":{"event_id":"evt_20250131_northern_california_2025_01_31_winter","day_index":1,"geometry_role":"hover_geometry"},"geometry":{"type":"Polygon","coordinates":[[[-123.62,40.91],[-123.57,40.82],[-123.47,40.73],[-122.99,40.42],[-122.95,40.42],[-115.09,43.07],[-114.55,43.4],[-114.51,43.46],[-114.51,43.49],[-114.52,43.98],[-114.69,45.2],[-121.44,45.56],[-122.53,44.94],[-122.57,44.85],[-122.64,44.65],[-122.91,43.68],[-123.62,40.93],[-123.62,40.91]]]}},{"type":"Feature","id":"geom_evt_20250129_southwest_2025_01_29_winter_d1_hover","properties":{"event_id":"evt_20250129_southwest_2025_01_29_winter","day_index":1,"geometry_role":"hover_geometry"},"geometry":{"type":"Polygon","coordinates":[[[-107.15,37.68],[-107.13,37.39],[-106.96,36.11],[-106.91,35.83],[-106.86,35.59],[-106.85,35.56],[-106.84,35.55],[-106.57,35.4],[-106.53,35.4],[-105.5,35.59],[-105.48,35.6],[-105.4,35.74],[-105.27,36.11],[-105.25,36.18],[-104.91,37.38],[-104.88,37.94],[-104.88,37.95],[-104.94,38.11],[-104.97,38.15],[-105.24,38.37],[-105.26,38.38],[-105.3,38.4],[-106.03,38.49],[-106.07,38.49],[-106.09,38.48],[-107.14,37.85],[-107.15,37.68]]]}},{"type":"Feature","id":"geom_evt_20250105_southern_plains_2025_01_05_severe_d1_hover","properties":{"event_id":"evt_20250105_southern_plains_2025_01_05_severe","day_index":1,"geometry_role":"hover_geometry"},"geometry":{"type":"Polygon","coordinates":[[[-93.19,31.5],[-93.1,31.22],[-92.72,31.02],[-92.09,31.05],[-90.81,31.38],[-90.36,31.69],[-89.71,32.84],[-89.67,33.29],[-89.84,33.63],[-90.52,33.83],[-91.6,33.71],[-92.36,33.18],[-93.17,32.08],[-93.19,31.5]]]}},{"type":"Feature","id":"geom_evt_20250130_gulf_coast_2025_01_30_severe_d1_hover","properties":{"event_id":"evt_20250130_gulf_coast_2025_01_30_severe","day_index":1,"geometry_role":"hover_geometry"},"geometry":{"type":"Polygon","coordinates":[[[-93.73,32],[-93.7,31.06],[-93.34,30.31],[-91.82,30.25],[-91.1,30.9],[-90.1,32.11],[-90.12,32.95],[-90.75,33.27],[-93.26,32.85],[-93.73,32]]]}}]}