{"type":"FeatureCollection","features":[{"type":"Feature","id":"geom_evt_20250315_southeast_2025_03_15_severe_d1_hover","properties":{"event_id":"evt_20250315_southeast_2025_03_15_severe","day_index":1,"geometry_role":"hover_geometry"},"geometry":{"type":"Polygon","coordinates":[[[-90.32,32.28],[-90.13,31.5],[-89.24,31.2],[-87.81,31.76],[-86.54,32.41],[-85.78,33.07],[-85.74,33.83],[-86.74,34.46],[-87.81,34.66],[-88.87,34.16],[-90.06,33.02],[-90.32,32.28]]]}},{"type":"Feature","id":"geom_evt_20250302_central_plains_2025_03_02_fire_d1_hover","properties":{"event_id":"evt_20250302_central_plains_2025_03_02_fire","day_index":1,"geometry_role":"hover_geometry"},"geometry":{"type":"Polygon","coordinates":[[[-105.93,31.27],[-104.68,29.86],[-104.53,29.87],[-104,29.95],[-103.55,30.05],[-101.07,31.33],[-99.93,32.2],[-99.38,33.34],[-99.67,34.28],[-100.56,34.73],[-100.98,34.68],[-102.2,34.4],[-104.02,33.96],[-105.09,33.65],[-105.93,31.27]]]}},{"type":"Feature","id":"geom_evt_20250303_central_plains_2025_03_03_fire_d1_hover","properties":{"event_id":"evt_20250302_central_plains_2025_03_02_fire","day_index":2,"geometry_role":"hover_geometry"},"geometry":{"type":"Polygon","coordinates":[[[-108.94,31.31],[-103.39,29.01],[-103.09,28.97],[-102.84,29.16],[-102.1,30.11],[-100.54,32.77],[-100.6,33.24],[-101.47,38.09],[-101.85,38.72],[-103.26,38.4],[-106.88,35.6],[-107.19,35.16],[-108.87,32.28],[-108.94,31.37],[-108.94,31.31]]]}},{"type":"Feature","id":"geom_evt_20250304_central_plains_2025_03_04_fire_d1_hover","properties":{"event_id":"evt_20250302_central_plains_2025_03_02_fire","day_index":3,"geometry_role":"hover_geometry"},"geometry":{"type":"Polygon","coordinates":[[[-105.44,30.9],[-104.55,29.65],[-104.17,29.39],[-99.08,26.44],[-98.77,26.31],[-97.87,26.72],[-96.66,28.28],[-96.46,28.6],[-96.41,28.7],[-96.43,28.79],[-96.47,28.88],[-97.4,30.54],[-104.06,34.25],[-104.4,34.37],[-104.78,34.33],[-104.98,34.19],[-105.19,33.89],[-105.22,33.7],[-105.31,33.13],[-105.34,32.94],[-105.39,32.51],[-105.44,30.9]]]}},{"type":"Feature","id":"geom_evt_20250312_central_plains_2025_03_12_fire_d1_hover","properties":{"event_id":"evt_20250312_central_plains_2025_03_12_fire","day_index":1,"geometry_role":"hover_geometry"},"geometry":{"type":"Polygon","coordinates":[[[-104.85,30.48],[-104.84,30.4],[-104.7,29.9],[-104.55,29.65],[-104.17,29.39],[-103.39,29.01],[-99.69,27.67],[-99.44,27.76],[-98.05,29.63],[-97.84,30.76],[-97.97,31.76],[-98.28,33.86],[-98.65,34.49],[-99.38,34.87],[-102.35,34.87],[-104.04,34.7],[-104.55,33.9],[-104.85,30.48]]]}},{"type":"Feature","id":"geom_evt_20250313_central_plains_2025_03_13_fire_d1_hover","properties":{"event_id":"evt_20250312_central_plains_2025_03_12_fire","day_index":2,"geometry_role":"hover_geometry"},"geometry":{"type":"Polygon","coordinates":[[[-107.24,31.77],[-104.5,29.62],[-104.17,29.39],[-103.41,29.01],[-103.38,29],[-103.14,28.98],[-103.08,29.01],[-102.87,29.17],[-99.61,35.75],[-99.46,36.45],[-98.53,42.39],[-98.7,43.25],[-99.37,43.61],[-100.8,43.69],[-101.59,43.25],[-107.24,31.77]]]}},{"type":"Feature","id":"geom_evt_20250314_central_plains_2025_03_14_fire_d1_hover","properties":{"event_id":"evt_20250312_central_plains_2025_03_12_fire","day_index":3,"geometry_role":"hover_geometry"},"geometry":{"type":"Polygon","coordinates":[[[-105.94,31.28],[-104.55,29.65],[-104.17,29.39],[-103.39,29.01],[-99.88,28.12],[-99.28,28.13],[-98.49,28.27],[-97.31,28.94],[-96.28,30.18],[-95.32,31.65],[-92.15,37.44],[-92.06,38.59],[-92.39,39.8],[-93.39,40.78],[-94.61,41.11],[-95.7,41.13],[-104.62,38.92],[-105.02,38.36],[-105.94,31.28]]]}},{"type":"Feature","id":"geom_evt_20250318_central_plains_2025_03_18_fire_d1_hover","properties":{"event_id":"evt_20250318_central_plains_2025_03_18_fire","day_index":1,"geometry_role":"hover_geometry"},"geometry":{"type":"Polygon","coordinates":[[[-110.47,31.32],[-103.58,29.99],[-102.83,30.2],[-102.04,30.73],[-100.35,31.94],[-97.9,33.82],[-96.9,34.83],[-96.71,36.1],[-97.46,37.63],[-97.95,38.44],[-98.43,39.07],[-99.37,39.56],[-100.88,39.81],[-101.84,39.72],[-102.73,39.44],[-103.52,39.07],[-109.92,32.32],[-110.47,31.32]]]}},{"type":"Feature","id":"geom_evt_20250314_southern_plains_2025_03_14_severe_d1_hover","properties":{"event_id":"evt_20250314_southern_plains_2025_03_14_severe","day_index":1,"geometry_role":"hover_geometry"},"geometry":{"type":"Polygon","coordinates":[[[-95.36,41.07],[-94.68,40.08],[-92.44,37.25],[-91.86,36.62],[-91,35.75],[-90.23,35.02],[-89.51,34.51],[-88.28,34.61],[-87.7,35.64],[-87.22,39.99],[-87.99,40.84],[-91.18,41.91],[-93.62,42.29],[-94.94,41.84],[-95.36,41.07]]]}},{"type":"Feature","id":"geom_evt_20250301_southern_plains_2025_03_01_fire_d1_hover","properties":{"event_id":"evt_20250301_southern_plains_2025_03_01_fire","day_index":1,"geometry_role":"hover_geometry"},"geometry":{"type":"Polygon","coordinates":[[[-111.68,31.51],[-111.37,31.41],[-110.74,31.32],[-109.08,31.31],[-108.23,31.31],[-82.61,34.22],[-81.43,34.69],[-80.42,35.19],[-79.62,35.6],[-79.07,36.06],[-79.04,36.46],[-79.66,36.57],[-80.51,36.56],[-109.95,34.23],[-110.82,33.81],[-111.5,32.99],[-111.68,31.51]]]}},{"type":"Feature","id":"geom_evt_20250315_southern_plains_2025_03_15_fire_d1_hover","properties":{"event_id":"evt_20250315_southern_plains_2025_03_15_fire","day_index":1,"geometry_role":"hover_geometry"},"geometry":{"type":"Polygon","coordinates":[[[-101.67,30.26],[-101.63,29.87],[-99.46,27.12],[-99.25,27.09],[-98.61,27.16],[-98.15,27.32],[-97.73,27.54],[-97.44,27.87],[-97.13,28.35],[-96.98,28.84],[-98.07,39.36],[-98.23,39.86],[-98.9,40.3],[-99.31,40.27],[-99.82,40.22],[-100.26,40.04],[-100.58,39.76],[-100.76,39.25],[-101.67,30.26]]]}},{"type":"Feature","id":"geom_evt_20250317_southern_plains_2025_03_17_fire_d1_hover","properties":{"event_id":"evt_20250317_southern_plains_2025_03_17_fire","day_index":1,"geometry_role":"hover_geometry"},"geometry":{"type":"Polygon","coordinates":[[[-105.73,33.53],[-105.11,31.48],[-104.67,30.61],[-104.22,30.18],[-100.77,29.18],[-80.58,25.35],[-80.42,25.33],[-80.3,25.47],[-80.11,25.7],[-80.05,26.15],[-80.02,26.6],[-80.02,26.86],[-80.09,27.09],[-80.24,27.51],[-80.47,27.95],[-80.85,28.59],[-81.27,29.11],[-100.29,42.89],[-103.49,43.42],[-104.38,43.45],[-104.85,43.38],[-105.07,43.18],[-105.28,42.78],[-105.73,33.53]]]}},{"type":"Feature","id":"geom_evt_20250307_central_plains_2025_03_07_fire_d1_hover","properties":{"event_id":"evt_20250307_central_plains_2025_03_07_fire","day_index":1,"geometry_role":"hover_geometry"},"geometry":{"type":"Polygon","coordinates":[[[-106.37,31.64],[-106.32,31.55],[-104.55,29.65],[-104.17,29.39],[-103.39,29.01],[-103.09,28.97],[-102.84,29.16],[-102.2,29.9],[-102.02,30.22],[-102,30.63],[-102.01,31.05],[-102.05,31.7],[-102.46,32.33],[-103.04,32.65],[-103.63,32.74],[-104.25,32.7],[-105.69,32.26],[-106.34,31.84],[-106.37,31.64]]]}},{"type":"Feature","id":"geom_evt_20250308_central_plains_2025_03_08_fire_d1_hover","properties":{"event_id":"evt_20250307_central_plains_2025_03_07_fire","day_index":2,"geometry_role":"hover_geometry"},"geometry":{"type":"Polygon","coordinates":[[[-104.59,29.71],[-104.55,29.65],[-104.17,29.39],[-99.4,26.99],[-99.3,26.97],[-99.05,27.19],[-98.5,28.26],[-98.61,28.83],[-98.99,29.21],[-99.65,29.68],[-100.44,30.13],[-102.82,31.43],[-103.12,31.51],[-103.4,31.51],[-103.69,31.34],[-104.59,29.71]]]}},{"type":"Feature","id":"geom_evt_20250322_central_plains_2025_03_22_fire_d1_hover","properties":{"event_id":"evt_20250322_central_plains_2025_03_22_fire","day_index":1,"geometry_role":"hover_geometry"},"geometry":{"type":"Polygon","coordinates":[[[-106.13,34.48],[-106.09,33.09],[-105.98,31.92],[-105.49,31.45],[-104.88,31.17],[-104.36,31.11],[-103.65,31.23],[-103.17,31.4],[-103.1,31.58],[-102.33,35.34],[-102.55,35.86],[-103.02,36.13],[-103.57,36.1],[-105.71,34.98],[-106.13,34.48]]]}},{"type":"Feature","id":"geom_evt_20250329_central_plains_2025_03_29_fire_d1_hover","properties":{"event_id":"evt_20250329_central_plains_2025_03_29_fire","day_index":1,"geometry_role":"hover_geometry"},"geometry":{"type":"Polygon","coordinates":[[[-109.22,31.31],[-104.88,30.72],[-103.13,30.81],[-101.89,31.1],[-101,31.69],[-100.19,32.23],[-99.6,33.5],[-99.93,34.17],[-103.16,36.51],[-103.64,36.48],[-104.04,36.27],[-108.55,32.57],[-109.14,31.71],[-109.22,31.31]]]}},{"type":"Feature","id":"geom_evt_20250306_southwest_2025_03_06_fire_d1_hover","properties":{"event_id":"evt_20250306_southwest_2025_03_06_fire","day_index":1,"geometry_role":"hover_geometry"},"geometry":{"type":"Polygon","coordinates":[[[-108.17,31.81],[-108.15,31.78],[-104.79,30.34],[-104.49,30.27],[-103.37,30.69],[-102.53,31.62],[-102.23,33],[-102.41,35.1],[-102.74,36.11],[-103.5,37.08],[-104.25,37.04],[-106.71,34.83],[-108.14,32.71],[-108.17,31.81]]]}},{"type":"Feature","id":"geom_evt_20250311_southwest_2025_03_11_fire_d1_hover","properties":{"event_id":"evt_20250311_southwest_2025_03_11_fire","day_index":1,"geometry_role":"hover_geometry"},"geometry":{"type":"Polygon","coordinates":[[[-109.93,31.58],[-109.9,31.48],[-109.76,31.32],[-109.08,31.31],[-108.21,31.31],[-104.55,31.63],[-103.73,31.87],[-103.21,32.15],[-102.56,32.86],[-102.3,33.5],[-102.36,33.8],[-102.59,34.01],[-104.91,34.76],[-105.44,34.73],[-106.4,34.44],[-108.44,33.34],[-109.3,32.68],[-109.86,32.24],[-109.93,31.58]]]}},{"type":"Feature","id":"geom_evt_20250330_southwest_2025_03_30_fire_d1_hover","properties":{"event_id":"evt_20250330_southwest_2025_03_30_fire","day_index":1,"geometry_role":"hover_geometry"},"geometry":{"type":"Polygon","coordinates":[[[-109.71,31.32],[-104.46,31.05],[-104.17,31.26],[-103.51,34.7],[-103.65,35.29],[-104.06,35.65],[-104.98,35.74],[-105.83,35.28],[-109.22,32.29],[-109.71,31.32]]]}},{"type":"Feature","id":"geom_evt_20250310_northern_plains_2025_03_10_fire_d1_hover","properties":{"event_id":"evt_20250310_northern_plains_2025_03_10_fire","day_index":1,"geometry_role":"hover_geometry"},"geometry":{"type":"Polygon","coordinates":[[[-105.15,45.2],[-104.89,44.67],[-103.98,44.44],[-102.87,44.23],[-100.41,44.18],[-98.22,44.46],[-97.07,44.79],[-96.61,45.76],[-96.85,46.7],[-97.83,46.91],[-102.12,47.07],[-103.78,46.89],[-104.48,46.6],[-105.08,46.01],[-105.15,45.2]]]}},{"type":"Feature","id":"geom_evt_20250319_gulf_coast_2025_03_19_fire_d1_hover","properties":{"event_id":"evt_20250319_gulf_coast_2025_03_19_fire","day_index":1,"geometry_role":"hover_geometry"},"geometry":{"type":"Polygon","coordinates":[[[-105.09,32.75],[-104.41,30.16],[-104.32,29.92],[-99.33,26.87],[-99.04,26.83],[-98.74,26.89],[-98.56,27.01],[-90.89,34.89],[-90.59,35.24],[-89.98,36.12],[-89.73,36.73],[-89.48,37.42],[-89.4,37.92],[-89.78,38.27],[-90.51,38.29],[-104.77,33.15],[-105,33],[-105.09,32.75]]]}},{"type":"Feature","id":"geom_evt_20250320_gulf_coast_2025_03_20_fire_d1_hover","properties":{"event_id":"evt_20250319_gulf_coast_2025_03_19_fire","day_index":2,"geometry_role":"hover_geometry"},"geometry":{"type":"Polygon","coordinates":[[[-105.65,35.28],[-105.64,34.58],[-105.43,33.9],[-105.2,33.54],[-104.92,33.41],[-80.55,25.72],[-80.4,25.69],[-80.26,25.77],[-80.16,25.99],[-80.07,26.75],[-80.14,27],[-80.63,28.72],[-80.97,29.07],[-102.75,37.36],[-103.2,37.48],[-103.95,37.5],[-104.43,37.37],[-105.16,36.6],[-105.65,35.28]]]}},{"type":"Feature","id":"geom_evt_20250321_gulf_coast_2025_03_21_fire_d1_hover","properties":{"event_id":"evt_20250319_gulf_coast_2025_03_19_fire","day_index":3,"geometry_role":"hover_geometry"},"geometry":{"type":"Polygon","coordinates":[[[-101.2,30.64],[-101.15,30.4],[-100.91,30.23],[-100.51,30.21],[-100.13,30.25],[-99.41,30.38],[-98.73,30.64],[-97.92,31.33],[-97.35,32.47],[-97.3,33.24],[-97.84,33.51],[-98.67,33.67],[-99.22,33.57],[-99.87,33.18],[-100.15,32.78],[-100.48,32.3],[-100.78,31.75],[-101.09,31.12],[-101.2,30.64]]]}},{"type":"Feature","id":"geom_evt_20250315_southeast_2025_03_15_rain_d1_hover","properties":{"event_id":"evt_20250315_southeast_2025_03_15_rain","day_index":1,"geometry_role":"hover_geometry"},"geometry":{"type":"Polygon","coordinates":[[[-91.35,33.14],[-91.35,33.11],[-91.35,33.08],[-91.35,33.06],[-91.34,33.04],[-91.33,33.02],[-91.32,33],[-91.31,32.99],[-91.29,32.97],[-91.28,32.96],[-91.26,32.95],[-91.25,32.93],[-91.23,32.92],[-91.21,32.91],[-91.18,32.91],[-91.15,32.9],[-91.11,32.9],[-91.07,32.9],[-91.02,32.9],[-90.98,32.9],[-90.89,32.9],[-90.81,32.9],[-85.88,34.14],[-85.85,34.15],[-85.65,34.24],[-85.63,34.26],[-85.61,34.27],[-85.41,34.43],[-85.4,34.44],[-85.17,34.69],[-85.12,34.74],[-85.11,34.76],[-85.09,34.79],[-85.08,34.81],[-84.57,35.8],[-84.56,35.82],[-84.52,35.91],[-84.51,35.94],[-84.51,35.97],[-84.5,36],[-84.47,36.23],[-84.47,36.25],[-84.47,36.27],[-84.5,36.4],[-84.51,36.43],[-84.51,36.45],[-84.52,36.47],[-84.53,36.49],[-84.55,36.52],[-84.68,36.7],[-84.7,36.72],[-84.73,36.76],[-84.79,36.82],[-84.84,36.87],[-84.9,36.93],[-84.95,36.97],[-84.96,36.98],[-85.13,37.09],[-85.14,37.1],[-85.23,37.15],[-85.25,37.15],[-85.35,37.2],[-85.37,37.21],[-85.54,37.26],[-85.7,37.32],[-85.85,37.36],[-85.87,37.37],[-86.07,37.42],[-86.1,37.43],[-86.13,37.43],[-86.16,37.44],[-86.19,37.44],[-86.26,37.44],[-86.33,37.44],[-86.37,37.44],[-86.4,37.44],[-86.43,37.44],[-86.46,37.43],[-86.5,37.43],[-86.8,37.37],[-86.83,37.37],[-86.85,37.36],[-87.28,37.21],[-87.3,37.2],[-87.55,37.09],[-87.57,37.08],[-88.57,36.53],[-89.01,36.26],[-89.03,36.24],[-89.89,35.61],[-89.91,35.6],[-90.04,35.49],[-90.06,35.48],[-90.3,35.25],[-90.31,35.23],[-90.33,35.22],[-90.34,35.2],[-90.5,35],[-90.51,34.99],[-90.61,34.83],[-90.62,34.82],[-91.07,33.97],[-91.12,33.88],[-91.13,33.85],[-91.28,33.43],[-91.29,33.41],[-91.3,33.38],[-91.34,33.21],[-91.35,33.19],[-91.35,33.16],[-91.35,33.14]]]}},{"type":"Feature","id":"geom_evt_20250326_gulf_coast_2025_03_26_rain_d1_hover","properties":{"event_id":"evt_20250326_gulf_coast_2025_03_26_rain","day_index":1,"geometry_role":"hover_geometry"},"geometry":{"type":"Polygon","coordinates":[[[-100.12,27.88],[-100.11,27.87],[-100.11,27.85],[-100.1,27.84],[-100.09,27.82],[-100.05,27.76],[-100.03,27.75],[-99.68,27.29],[-99.67,27.28],[-99.65,27.27],[-99.63,27.26],[-99.6,27.23],[-99.58,27.23],[-99.55,27.22],[-99.53,27.21],[-99.5,27.21],[-99.46,27.2],[-99.43,27.2],[-99.4,27.2],[-99.29,27.2],[-98.66,27.2],[-98.04,27.33],[-97.85,27.38],[-97.82,27.38],[-97.46,27.5],[-97.35,27.54],[-97.32,27.55],[-97.3,27.56],[-97.29,27.57],[-96.62,28.18],[-96.61,28.19],[-96.6,28.21],[-96.59,28.22],[-96.58,28.23],[-96.58,28.24],[-96.58,28.25],[-96.59,28.26],[-96.6,28.26],[-96.96,28.46],[-96.98,28.47],[-97.07,28.52],[-97.09,28.53],[-97.19,28.57],[-97.21,28.57],[-97.24,28.58],[-97.55,28.63],[-97.58,28.64],[-97.61,28.64],[-97.65,28.64],[-97.72,28.64],[-97.79,28.65],[-97.86,28.65],[-97.93,28.65],[-98,28.64],[-98.07,28.64],[-98.11,28.64],[-98.14,28.64],[-98.17,28.63],[-98.4,28.58],[-98.62,28.52],[-98.84,28.46],[-99.34,28.3],[-99.36,28.29],[-99.45,28.25],[-99.47,28.24],[-100.03,27.96],[-100.04,27.95],[-100.09,27.92],[-100.1,27.91],[-100.11,27.9],[-100.12,27.89],[-100.12,27.88]]]}},{"type":"Feature","id":"geom_evt_20250327_gulf_coast_2025_03_27_rain_d1_hover","properties":{"event_id":"evt_20250326_gulf_coast_2025_03_26_rain","day_index":2,"geometry_role":"hover_geometry"},"geometry":{"type":"Polygon","coordinates":[[[-98.21,27.84],[-98.21,27.81],[-98.21,27.78],[-98.21,27.75],[-98.2,27.72],[-98.15,27.53],[-98.14,27.5],[-98.1,27.36],[-98.04,27.19],[-98.03,27.17],[-97.99,27.08],[-97.98,27.06],[-97.87,26.89],[-97.86,26.88],[-97.83,26.85],[-97.82,26.83],[-97.8,26.82],[-97.76,26.78],[-97.72,26.74],[-97.7,26.73],[-97.54,26.61],[-97.52,26.6],[-97.5,26.59],[-97.44,26.57],[-97.42,26.56],[-97.39,26.55],[-97.36,26.55],[-97.33,26.54],[-97.3,26.54],[-97.27,26.54],[-97.2,26.53],[-97.13,26.53],[-97.1,26.54],[-97.06,26.54],[-97.03,26.54],[-97,26.55],[-96.97,26.55],[-96.95,26.56],[-96.93,26.58],[-95.44,28.46],[-95.43,28.47],[-95.42,28.48],[-95.42,28.5],[-95.43,28.51],[-95.43,28.53],[-95.44,28.54],[-95.45,28.56],[-95.46,28.57],[-95.48,28.59],[-95.52,28.63],[-95.76,28.86],[-95.79,28.88],[-95.81,28.89],[-95.83,28.91],[-96.14,29.06],[-96.17,29.07],[-96.19,29.08],[-96.44,29.13],[-96.47,29.13],[-96.5,29.14],[-96.53,29.14],[-96.56,29.14],[-96.59,29.13],[-96.62,29.13],[-96.87,29.08],[-96.9,29.07],[-96.92,29.07],[-97.07,29.02],[-97.23,28.96],[-97.26,28.95],[-97.62,28.8],[-97.64,28.79],[-97.66,28.77],[-97.69,28.75],[-97.71,28.74],[-97.98,28.51],[-97.99,28.5],[-98.02,28.47],[-98.03,28.46],[-98.04,28.44],[-98.05,28.42],[-98.09,28.35],[-98.1,28.32],[-98.15,28.18],[-98.15,28.16],[-98.2,27.96],[-98.21,27.93],[-98.21,27.9],[-98.21,27.87],[-98.21,27.84]]]}},{"type":"Feature","id":"geom_evt_20250329_gulf_coast_2025_03_29_rain_d1_hover","properties":{"event_id":"evt_20250329_gulf_coast_2025_03_29_rain","day_index":1,"geometry_role":"hover_geometry"},"geometry":{"type":"Polygon","coordinates":[[[-91.74,29.94],[-91.74,29.91],[-91.74,29.88],[-91.73,29.86],[-91.72,29.83],[-91.71,29.82],[-91.7,29.8],[-91.68,29.79],[-91.67,29.78],[-91.65,29.76],[-91.45,29.66],[-91.43,29.65],[-91.34,29.6],[-90.95,29.44],[-90.92,29.43],[-90.89,29.43],[-90.65,29.37],[-90.61,29.37],[-90.57,29.37],[-90.53,29.36],[-90.48,29.36],[-90.4,29.36],[-90.31,29.36],[-89.86,29.49],[-89.83,29.49],[-89.73,29.54],[-89.71,29.54],[-89.62,29.59],[-89.6,29.6],[-89.51,29.65],[-89.5,29.66],[-89.48,29.67],[-89.43,29.71],[-89.38,29.76],[-89.34,29.8],[-89.33,29.82],[-89.32,29.83],[-89.31,29.85],[-89.3,29.86],[-89.3,29.87],[-89.3,29.88],[-89.31,30.06],[-89.34,30.32],[-89.34,30.34],[-89.35,30.35],[-89.36,30.38],[-89.49,30.6],[-89.5,30.61],[-89.51,30.63],[-89.55,30.68],[-89.6,30.73],[-89.66,30.79],[-89.72,30.84],[-89.82,30.93],[-89.84,30.94],[-89.86,30.95],[-89.89,30.96],[-89.92,30.96],[-89.95,30.97],[-89.99,30.97],[-90.02,30.97],[-90.06,30.97],[-90.13,30.97],[-90.16,30.97],[-90.19,30.96],[-90.23,30.96],[-90.26,30.96],[-90.56,30.9],[-90.59,30.9],[-90.62,30.89],[-90.71,30.85],[-91.12,30.67],[-91.21,30.62],[-91.23,30.61],[-91.24,30.6],[-91.29,30.57],[-91.37,30.51],[-91.39,30.5],[-91.4,30.48],[-91.57,30.29],[-91.61,30.24],[-91.62,30.23],[-91.63,30.21],[-91.69,30.11],[-91.72,30.07],[-91.72,30.05],[-91.73,30.03],[-91.74,30],[-91.74,29.97],[-91.74,29.94]]]}},{"type":"Feature","id":"geom_evt_20250303_northern_rockies_2025_03_03_winter_d1_hover","properties":{"event_id":"evt_20250303_northern_rockies_2025_03_03_winter","day_index":1,"geometry_role":"hover_geometry"},"geometry":{"type":"Polygon","coordinates":[[[-107.55,41.28],[-107.5,41.15],[-107.49,41.13],[-107.48,41.12],[-107.47,41.11],[-106.5,40.31],[-106.24,40.12],[-106.15,40.1],[-106.14,40.1],[-105.58,40.16],[-105.54,40.19],[-104.68,41.01],[-104.67,41.03],[-104.67,41.04],[-104.93,41.58],[-104.94,41.6],[-104.99,41.66],[-105.8,41.82],[-106.35,41.9],[-106.41,41.9],[-106.75,41.79],[-106.77,41.78],[-107.5,41.41],[-107.53,41.39],[-107.55,41.28]]]}},{"type":"Feature","id":"geom_evt_20250306_northern_rockies_2025_03_06_winter_d1_hover","properties":{"event_id":"evt_20250306_northern_rockies_2025_03_06_winter","day_index":1,"geometry_role":"hover_geometry"},"geometry":{"type":"Polygon","coordinates":[[[-112.19,41.99],[-111.83,39.76],[-111.82,39.74],[-111.8,39.72],[-111.71,39.71],[-111.68,39.71],[-106.63,39.92],[-104.78,41.79],[-104.9,43.5],[-105.07,44.88],[-105.09,45],[-109.1,45.01],[-109.26,45.01],[-111.67,42.62],[-111.68,42.61],[-112.19,42],[-112.19,41.99]]]}},{"type":"Feature","id":"geom_evt_20250304_upper_midwest_2025_03_04_winter_d1_hover","properties":{"event_id":"evt_20250304_upper_midwest_2025_03_04_winter","day_index":1,"geometry_role":"hover_geometry"},"geometry":{"type":"Polygon","coordinates":[[[-100.27,41.75],[-100.24,41.05],[-99.21,41.05],[-97.25,41.38],[-97.02,41.74],[-96.82,42.09],[-96.82,42.26],[-97.02,42.76],[-97.86,44.63],[-98.71,44.63],[-100.23,43.71],[-100.27,42.09],[-100.27,41.75]]]}},{"type":"Feature","id":"geom_evt_20250305_upper_midwest_2025_03_05_winter_d1_hover","properties":{"event_id":"evt_20250304_upper_midwest_2025_03_04_winter","day_index":2,"geometry_role":"hover_geometry"},"geometry":{"type":"Polygon","coordinates":[[[-98.29,41.05],[-98.28,40.35],[-98.27,40],[-95.09,39.86],[-95.04,39.86],[-94.22,40.04],[-93.56,40.58],[-90.31,44.16],[-90.04,45.12],[-89.93,45.98],[-89.93,46.3],[-90.39,47.08],[-90.73,47.08],[-92.1,46.75],[-92.19,46.71],[-96.45,44.63],[-98.08,43.17],[-98.09,43.15],[-98.11,43.1],[-98.15,42.85],[-98.29,41.39],[-98.29,41.05]]]}},{"type":"Feature","id":"geom_evt_20250307_upper_midwest_2025_03_07_winter_d1_hover","properties":{"event_id":"evt_20250307_upper_midwest_2025_03_07_winter","day_index":1,"geometry_role":"hover_geometry"},"geometry":{"type":"Polygon","coordinates":[[[-100.27,41.75],[-100.26,41.74],[-99.22,41.74],[-99.22,42.09],[-99.23,42.43],[-99.25,43],[-100.2,43],[-100.27,42.09],[-100.27,41.75]]]}},{"type":"Feature","id":"geom_evt_20250315_upper_midwest_2025_03_15_winter_d1_hover","properties":{"event_id":"evt_20250315_upper_midwest_2025_03_15_winter","day_index":1,"geometry_role":"hover_geometry"},"geometry":{"type":"Polygon","coordinates":[[[-98.73,45.62],[-98.72,44.9],[-98.71,44.55],[-98.7,44.2],[-98.32,43.5],[-98.11,43.2],[-98.08,43.17],[-97.16,43.08],[-96.45,43.08],[-95.86,43.26],[-95.45,43.5],[-94.42,47.41],[-94.41,47.51],[-94.41,47.59],[-94.42,48.25],[-94.43,48.7],[-94.81,49.32],[-94.95,49.37],[-95.14,49.38],[-95.15,49.38],[-97.95,49],[-98.47,47.24],[-98.72,45.94],[-98.73,45.71],[-98.73,45.62]]]}},{"type":"Feature","id":"geom_evt_20250319_upper_midwest_2025_03_19_winter_d1_hover","properties":{"event_id":"evt_20250319_upper_midwest_2025_03_19_winter","day_index":1,"geometry_role":"hover_geometry"},"geometry":{"type":"Polygon","coordinates":[[[-100.25,41.39],[-100.24,41.05],[-100.19,40],[-96.01,40],[-92.08,42.64],[-90.31,44.16],[-90.04,45.12],[-89.93,45.98],[-89.93,46.3],[-90.39,47.08],[-90.73,47.08],[-99.26,42.81],[-100.25,41.74],[-100.25,41.39]]]}},{"type":"Feature","id":"geom_evt_20250323_upper_midwest_2025_03_23_winter_d1_hover","properties":{"event_id":"evt_20250323_upper_midwest_2025_03_23_winter","day_index":1,"geometry_role":"hover_geometry"},"geometry":{"type":"Polygon","coordinates":[[[-94.43,48.37],[-94.42,47.44],[-94.41,47.43],[-93.05,46.42],[-92.29,46.42],[-89.49,48],[-89.48,48.01],[-92.95,48.63],[-94.28,48.71],[-94.42,48.71],[-94.43,48.7],[-94.43,48.37]]]}},{"type":"Feature","id":"geom_evt_20250328_upper_midwest_2025_03_28_winter_d1_hover","properties":{"event_id":"evt_20250328_upper_midwest_2025_03_28_winter","day_index":1,"geometry_role":"hover_geometry"},"geometry":{"type":"Polygon","coordinates":[[[-93.08,47.72],[-93.06,46.44],[-93.05,46.42],[-92.29,46.42],[-89.49,48],[-89.48,48.01],[-90.89,48.25],[-91.76,48.21],[-91.8,48.2],[-93.08,47.86],[-93.08,47.72]]]}},{"type":"Feature","id":"geom_evt_20250330_upper_midwest_2025_03_30_winter_d1_hover","properties":{"event_id":"evt_20250330_upper_midwest_2025_03_30_winter","day_index":1,"geometry_role":"hover_geometry"},"geometry":{"type":"Polygon","coordinates":[[[-93.14,45.73],[-90.8,44.42],[-90.32,44.42],[-90.04,45.12],[-89.93,45.98],[-89.93,46.3],[-90.39,47.08],[-90.73,47.08],[-93.06,47.03],[-93.14,45.98],[-93.14,45.73]]]}},{"type":"Feature","id":"geom_evt_20250305_mid_atlantic_2025_03_05_winter_d1_hover","properties":{"event_id":"evt_20250305_mid_atlantic_2025_03_05_winter","day_index":1,"geometry_role":"hover_geometry"},"geometry":{"type":"Polygon","coordinates":[[[-90.42,46.56],[-90.04,45.12],[-89.43,45.12],[-88.43,45.38],[-86.62,46.16],[-85.86,46.5],[-85.86,46.69],[-88.43,48.19],[-88.44,48.19],[-88.57,48.17],[-88.61,48.16],[-88.64,48.15],[-89.18,47.94],[-89.21,47.92],[-89.25,47.88],[-90.42,46.57],[-90.42,46.56]]]}},{"type":"Feature","id":"geom_evt_20250319_mid_atlantic_2025_03_19_winter_d1_hover","properties":{"event_id":"evt_20250319_mid_atlantic_2025_03_19_winter","day_index":1,"geometry_role":"hover_geometry"},"geometry":{"type":"Polygon","coordinates":[[[-90.42,46.56],[-90.32,44.69],[-89.95,44.68],[-89.22,44.68],[-86.76,45.48],[-86.66,45.52],[-85.24,46.25],[-85.24,46.76],[-88.43,48.19],[-88.44,48.19],[-88.57,48.17],[-88.61,48.16],[-88.64,48.15],[-89.18,47.94],[-89.21,47.92],[-89.25,47.88],[-90.42,46.57],[-90.42,46.56]]]}},{"type":"Feature","id":"geom_evt_20250328_mid_atlantic_2025_03_28_winter_d1_hover","properties":{"event_id":"evt_20250328_mid_atlantic_2025_03_28_winter","day_index":1,"geometry_role":"hover_geometry"},"geometry":{"type":"Polygon","coordinates":[[[-90.42,46.56],[-90.4,46.54],[-90.39,46.53],[-90.11,46.33],[-87.67,45.11],[-87.64,45.1],[-87.59,45.09],[-83.62,45.2],[-83.4,45.21],[-83.38,45.26],[-83.38,45.27],[-83.47,45.99],[-83.48,46],[-83.58,46.09],[-84.13,46.53],[-88.43,48.19],[-88.44,48.19],[-88.57,48.17],[-88.61,48.16],[-88.64,48.15],[-89.18,47.94],[-89.21,47.92],[-89.25,47.88],[-90.42,46.57],[-90.42,46.56]]]}},{"type":"Feature","id":"geom_evt_20250329_mid_atlantic_2025_03_29_winter_d1_hover","properties":{"event_id":"evt_20250328_mid_atlantic_2025_03_28_winter","day_index":2,"geometry_role":"hover_geometry"},"geometry":{"type":"Polygon","coordinates":[[[-84.86,45.03],[-84.85,44.51],[-83.32,44.51],[-83.31,44.53],[-83.19,45.03],[-83.19,45.04],[-83.32,45.2],[-83.39,45.21],[-83.75,45.21],[-84.73,45.2],[-84.86,45.12],[-84.86,45.03]]]}},{"type":"Feature","id":"geom_evt_20250330_mid_atlantic_2025_03_30_winter_d1_hover","properties":{"event_id":"evt_20250328_mid_atlantic_2025_03_28_winter","day_index":3,"geometry_role":"hover_geometry"},"geometry":{"type":"Polygon","coordinates":[[[-90.32,44.69],[-88.61,44.59],[-88.26,44.58],[-88.25,44.58],[-87.99,44.68],[-87.63,44.98],[-87.58,45.08],[-87.65,45.35],[-87.78,45.68],[-87.81,45.71],[-88.1,45.92],[-88.15,45.94],[-88.18,45.95],[-88.51,46.02],[-89.18,46.16],[-89.54,46.23],[-89.75,46.27],[-89.91,46.3],[-89.93,46.3],[-90.04,45.98],[-90.32,45],[-90.32,44.69]]]}},{"type":"Feature","id":"geom_evt_20250304_northern_plains_2025_03_04_winter_d1_hover","properties":{"event_id":"evt_20250304_northern_plains_2025_03_04_winter","day_index":1,"geometry_role":"hover_geometry"},"geometry":{"type":"Polygon","coordinates":[[[-104.63,40.52],[-102.8,39.57],[-102.05,39.57],[-100.76,40],[-100.1,40.35],[-99.98,40.44],[-99.98,40.7],[-100.23,43.71],[-100.36,43.74],[-100.99,43.85],[-101.11,43.85],[-102.13,43.71],[-103,43.38],[-103.51,43],[-104.63,40.58],[-104.63,40.52]]]}},{"type":"Feature","id":"geom_evt_20250306_northern_plains_2025_03_06_winter_d1_hover","properties":{"event_id":"evt_20250306_northern_plains_2025_03_06_winter","day_index":1,"geometry_role":"hover_geometry"},"geometry":{"type":"Polygon","coordinates":[[[-105.29,42.61],[-105.28,42.55],[-105.25,42.4],[-104.99,41.66],[-104.9,41.65],[-104.65,41.65],[-100.75,42.09],[-100.2,43],[-100.2,43.13],[-100.21,43.39],[-102.7,43.86],[-104.49,44.18],[-105.08,44.18],[-105.29,42.61]]]}},{"type":"Feature","id":"geom_evt_20250307_northern_plains_2025_03_07_winter_d1_hover","properties":{"event_id":"evt_20250306_northern_plains_2025_03_06_winter","day_index":2,"geometry_role":"hover_geometry"},"geometry":{"type":"Polygon","coordinates":[[[-104.66,42.3],[-104.65,41.57],[-104.61,41.56],[-104.05,41.56],[-100.26,41.74],[-100.17,42.09],[-100.17,42.43],[-100.18,42.78],[-100.2,43],[-100.91,43],[-104.66,42.61],[-104.66,42.3]]]}},{"type":"Feature","id":"geom_evt_20250319_northern_plains_2025_03_19_winter_d1_hover","properties":{"event_id":"evt_20250319_northern_plains_2025_03_19_winter","day_index":1,"geometry_role":"hover_geometry"},"geometry":{"type":"Polygon","coordinates":[[[-102.8,39.57],[-102.05,39.57],[-100.19,40],[-99.98,40.44],[-99.98,40.7],[-100.25,41.74],[-100.71,41.74],[-101.27,41.39],[-102.78,40.44],[-102.79,40.35],[-102.8,40],[-102.8,39.57]]]}},{"type":"Feature","id":"geom_evt_20250304_central_plains_2025_03_04_winter_d1_hover","properties":{"event_id":"evt_20250304_central_plains_2025_03_04_winter","day_index":1,"geometry_role":"hover_geometry"},"geometry":{"type":"Polygon","coordinates":[[[-105.18,36.93],[-105.17,36.89],[-103.37,35.74],[-103.04,35.74],[-100.82,38.7],[-100.72,39.13],[-100.72,39.57],[-100.74,40],[-102.78,40.44],[-103.47,40.44],[-104.5,40],[-104.99,39.52],[-105.18,36.93]]]}},{"type":"Feature","id":"geom_evt_20250308_central_plains_2025_03_08_winter_d1_hover","properties":{"event_id":"evt_20250308_central_plains_2025_03_08_winter","day_index":1,"geometry_role":"hover_geometry"},"geometry":{"type":"Polygon","coordinates":[[[-105.43,37],[-105.24,35.87],[-105.22,35.83],[-105.02,35.75],[-104.36,35.78],[-103.09,37],[-103.07,37.38],[-103.07,37.46],[-103.08,37.64],[-104.35,37.82],[-105.27,37.52],[-105.33,37.48],[-105.39,37.27],[-105.43,37]]]}},{"type":"Feature","id":"geom_evt_20250319_central_plains_2025_03_19_winter_d1_hover","properties":{"event_id":"evt_20250319_central_plains_2025_03_19_winter","day_index":1,"geometry_role":"hover_geometry"},"geometry":{"type":"Polygon","coordinates":[[[-103.17,38.61],[-102.04,38.26],[-100.24,38.26],[-100.15,38.7],[-100.15,39.13],[-100.16,39.57],[-100.18,40],[-102.05,40],[-103.15,39.57],[-103.16,39.38],[-103.17,38.69],[-103.17,38.61]]]}},{"type":"Feature","id":"geom_evt_20250306_southern_california_2025_03_06_winter_d1_hover","properties":{"event_id":"evt_20250306_southern_california_2025_03_06_winter","day_index":1,"geometry_role":"hover_geometry"},"geometry":{"type":"Polygon","coordinates":[[[-120.33,34.99],[-120.3,34.95],[-120.09,34.72],[-119.82,34.53],[-116.57,32.58],[-116.54,32.58],[-116.2,32.61],[-116.19,32.63],[-116.15,33.33],[-116.15,33.37],[-116.17,33.42],[-116.58,34.16],[-116.61,34.2],[-116.69,34.3],[-116.7,34.31],[-118.11,35.54],[-118.29,35.64],[-118.29,35.64],[-118.44,35.65],[-120.12,35.11],[-120.33,35.02],[-120.33,34.99]]]}},{"type":"Feature","id":"geom_evt_20250312_southern_california_2025_03_12_winter_d1_hover","properties":{"event_id":"evt_20250312_southern_california_2025_03_12_winter","day_index":1,"geometry_role":"hover_geometry"},"geometry":{"type":"Polygon","coordinates":[[[-120.33,34.99],[-120.3,34.95],[-120.09,34.72],[-119.82,34.53],[-116.81,33.43],[-116.2,33.43],[-116.2,33.44],[-117.97,37.46],[-119.5,38.16],[-119.59,38.18],[-119.59,38.18],[-119.59,38.18],[-119.59,38.18],[-119.59,38.18],[-119.83,38.09],[-119.83,38.09],[-119.84,38.09],[-119.84,38.08],[-120.28,37.74],[-120.29,37.74],[-120.29,37.74],[-120.33,35.02],[-120.33,34.99]]]}},{"type":"Feature","id":"geom_evt_20250313_southern_california_2025_03_13_winter_d1_hover","properties":{"event_id":"evt_20250312_southern_california_2025_03_12_winter","day_index":2,"geometry_role":"hover_geometry"},"geometry":{"type":"Polygon","coordinates":[[[-119.47,34.9],[-116.57,32.58],[-116.54,32.58],[-116.2,32.61],[-116.19,32.63],[-115.02,36.48],[-114.99,36.64],[-115.02,36.85],[-115.14,37.26],[-115.89,38.05],[-117.69,38.47],[-117.7,38.47],[-118.43,37.9],[-119.47,35.05],[-119.47,34.9]]]}},{"type":"Feature","id":"geom_evt_20250317_southern_california_2025_03_17_winter_d1_hover","properties":{"event_id":"evt_20250317_southern_california_2025_03_17_winter","day_index":1,"geometry_role":"hover_geometry"},"geometry":{"type":"Polygon","coordinates":[[[-119.89,37.98],[-119.88,37.89],[-119.87,37.78],[-119.85,37.74],[-118.82,36.04],[-118.41,36.34],[-118.41,36.34],[-118.26,36.48],[-118.24,36.49],[-118.24,36.49],[-118.24,36.51],[-118.24,36.52],[-118.37,36.91],[-118.44,37.06],[-118.76,37.46],[-119.33,38.07],[-119.35,38.08],[-119.35,38.09],[-119.5,38.16],[-119.59,38.18],[-119.59,38.18],[-119.59,38.18],[-119.59,38.18],[-119.59,38.18],[-119.83,38.09],[-119.83,38.09],[-119.84,38.09],[-119.84,38.08],[-119.86,38.07],[-119.87,38.06],[-119.87,38.05],[-119.87,38.05],[-119.88,38.03],[-119.88,38.03],[-119.89,37.98],[-119.89,37.98]]]}},{"type":"Feature","id":"geom_evt_20250305_southern_plains_2025_03_05_winter_d1_hover","properties":{"event_id":"evt_20250305_southern_plains_2025_03_05_winter","day_index":1,"geometry_role":"hover_geometry"},"geometry":{"type":"Polygon","coordinates":[[[-97.93,39.31],[-97.37,39.13],[-96.5,39.04],[-96.39,39.04],[-95.59,39.22],[-94.6,39.53],[-94.6,39.99],[-94.61,40.13],[-95.04,40.13],[-97.93,40],[-97.93,39.31]]]}},{"type":"Feature","id":"geom_evt_20250319_southern_plains_2025_03_19_winter_d1_hover","properties":{"event_id":"evt_20250319_southern_plains_2025_03_19_winter","day_index":1,"geometry_role":"hover_geometry"},"geometry":{"type":"Polygon","coordinates":[[[-100.25,38.38],[-100.24,38.26],[-99.58,38.26],[-99.03,38.35],[-96.24,39.57],[-96.24,40],[-100.18,40],[-100.25,38.7],[-100.25,38.38]]]}},{"type":"Feature","id":"geom_evt_20250306_southwest_2025_03_06_winter_d1_hover","properties":{"event_id":"evt_20250306_southwest_2025_03_06_winter","day_index":1,"geometry_role":"hover_geometry"},"geometry":{"type":"Polygon","coordinates":[[[-112.85,38.57],[-109.91,37.59],[-109.84,37.57],[-108.31,37.21],[-107.45,37.06],[-107.07,37],[-106.87,36.99],[-106.12,36.99],[-106.11,37.01],[-106.18,39.65],[-106.43,39.91],[-106.44,39.92],[-106.45,39.93],[-107.15,40.4],[-111.41,40.46],[-111.45,40.46],[-112.23,39.53],[-112.85,38.63],[-112.85,38.57]]]}},{"type":"Feature","id":"geom_evt_20250308_southwest_2025_03_08_winter_d1_hover","properties":{"event_id":"evt_20250308_southwest_2025_03_08_winter","day_index":1,"geometry_role":"hover_geometry"},"geometry":{"type":"Polygon","coordinates":[[[-106.96,36.11],[-106.91,35.83],[-106.86,35.59],[-106.85,35.56],[-106.84,35.55],[-106.57,35.4],[-105.29,35.22],[-105.05,35.22],[-104.79,35.32],[-104.37,35.73],[-104.35,37.82],[-104.6,37.89],[-104.65,37.9],[-105.33,37.93],[-106.87,36.99],[-106.96,36.17],[-106.96,36.11]]]}},{"type":"Feature","id":"geom_evt_20250313_southwest_2025_03_13_winter_d1_hover","properties":{"event_id":"evt_20250313_southwest_2025_03_13_winter","day_index":1,"geometry_role":"hover_geometry"},"geometry":{"type":"Polygon","coordinates":[[[-112.85,38.57],[-112.33,34.97],[-111.54,34.41],[-110,33.58],[-109.81,33.48],[-109.75,33.48],[-109.05,33.78],[-106.27,36.99],[-106.24,37.45],[-106.25,37.46],[-106.41,37.58],[-109.97,39.87],[-110.05,39.92],[-110.17,39.99],[-110.43,40.1],[-111.36,40.45],[-111.41,40.46],[-111.45,40.46],[-112.23,39.53],[-112.85,38.63],[-112.85,38.57]]]}},{"type":"Feature","id":"geom_evt_20250312_northern_california_2025_03_12_winter_d1_hover","properties":{"event_id":"evt_20250312_northern_california_2025_03_12_winter","day_index":1,"geometry_role":"hover_geometry"},"geometry":{"type":"Polygon","coordinates":[[[-123.72,41.59],[-123.54,39.98],[-122.41,38.96],[-122.38,38.94],[-122.34,38.92],[-120.05,37.81],[-119.94,37.76],[-118.86,37.48],[-118.78,37.46],[-117.93,37.46],[-117.84,37.47],[-120,41.18],[-122.15,42.01],[-123.19,42.01],[-123.52,42],[-123.64,41.89],[-123.65,41.88],[-123.7,41.83],[-123.72,41.61],[-123.72,41.59]]]}},{"type":"Feature","id":"geom_evt_20250314_northern_california_2025_03_14_winter_d1_hover","properties":{"event_id":"evt_20250314_northern_california_2025_03_14_winter","day_index":1,"geometry_role":"hover_geometry"},"geometry":{"type":"Polygon","coordinates":[[[-124.19,41.97],[-124.13,41.1],[-123.9,40],[-123.69,39.64],[-123.49,39.34],[-122.95,38.9],[-122.7,38.71],[-122.63,38.67],[-119.94,37.76],[-119.88,37.76],[-119.86,37.77],[-119.6,38.18],[-119.6,38.24],[-121.34,45.36],[-121.35,45.4],[-121.41,45.53],[-121.42,45.55],[-121.44,45.56],[-122.53,44.94],[-124.19,41.97]]]}},{"type":"Feature","id":"geom_evt_20250331_northern_california_2025_03_31_winter_d1_hover","properties":{"event_id":"evt_20250331_northern_california_2025_03_31_winter","day_index":1,"geometry_role":"hover_geometry"},"geometry":{"type":"Polygon","coordinates":[[[-123.72,41.59],[-123.66,41.38],[-120.77,38.06],[-120.34,37.73],[-120.28,37.73],[-119.88,37.76],[-119.86,37.77],[-119.6,38.18],[-119.54,38.48],[-119.54,38.5],[-120,41.18],[-122.15,42.01],[-123.19,42.01],[-123.52,42],[-123.64,41.89],[-123.65,41.88],[-123.7,41.83],[-123.72,41.61],[-123.72,41.59]]]}},{"type":"Feature","id":"geom_evt_20250306_desert_southwest_2025_03_06_winter_d1_hover","properties":{"event_id":"evt_20250306_desert_southwest_2025_03_06_winter","day_index":1,"geometry_role":"hover_geometry"},"geometry":{"type":"Polygon","coordinates":[[[-114.29,42.33],[-114.28,41.99],[-114.05,37.38],[-113.96,37.12],[-113.9,37],[-113.73,37],[-111.66,37.48],[-110.67,37.85],[-110.61,37.9],[-111.69,42.42],[-111.99,43.1],[-112.06,43.25],[-112.1,43.27],[-114.29,42.42],[-114.29,42.33]]]}},{"type":"Feature","id":"geom_evt_20250329_great_lakes_2025_03_29_winter_d1_hover","properties":{"event_id":"evt_20250329_great_lakes_2025_03_29_winter","day_index":1,"geometry_role":"hover_geometry"},"geometry":{"type":"Polygon","coordinates":[[[-72.45,43.16],[-72.43,43.14],[-72.38,43.13],[-71.41,43.01],[-71.39,43.01],[-70.87,43.08],[-70.82,43.12],[-70.03,43.97],[-69.65,45.12],[-69.65,45.87],[-69.68,45.98],[-69.79,45.98],[-70.26,45.96],[-71.44,45.24],[-72.07,44.28],[-72.38,43.57],[-72.4,43.52],[-72.44,43.26],[-72.45,43.19],[-72.45,43.16]]]}},{"type":"Feature","id":"geom_evt_20250302_southern_plains_2025_03_02_severe_d1_hover","properties":{"event_id":"evt_20250302_southern_plains_2025_03_02_severe","day_index":1,"geometry_role":"hover_geometry"},"geometry":{"type":"Polygon","coordinates":[[[-100.86,35.08],[-100.48,34.58],[-99.7,33.82],[-98.72,33.85],[-98.46,34.53],[-99.25,36.05],[-100.19,36.07],[-100.86,35.76],[-100.86,35.08]]]}},{"type":"Feature","id":"geom_evt_20250303_southern_plains_2025_03_03_severe_d1_hover","properties":{"event_id":"evt_20250302_southern_plains_2025_03_02_severe","day_index":2,"geometry_role":"hover_geometry"},"geometry":{"type":"Polygon","coordinates":[[[-99.06,32.58],[-98.08,32.55],[-97.31,32.85],[-96.49,33.28],[-96.2,33.59],[-96.08,33.84],[-96.07,34.31],[-96.37,34.83],[-97.03,35.82],[-97.58,36.15],[-98.37,36.08],[-98.72,35.58],[-98.97,35],[-99.06,32.58]]]}},{"type":"Feature","id":"geom_evt_20250304_gulf_coast_2025_03_04_severe_d1_hover","properties":{"event_id":"evt_20250304_gulf_coast_2025_03_04_severe","day_index":1,"geometry_role":"hover_geometry"},"geometry":{"type":"Polygon","coordinates":[[[-94.52,30.53],[-90.49,29.22],[-88.58,29.53],[-85.56,30.45],[-85.03,31.12],[-84.88,31.64],[-85.2,32.29],[-91.16,34.49],[-92.15,34.74],[-92.96,34.64],[-93.19,34.41],[-94.47,30.94],[-94.52,30.53]]]}},{"type":"Feature","id":"geom_evt_20250305_southeast_2025_03_05_severe_d1_hover","properties":{"event_id":"evt_20250305_southeast_2025_03_05_severe","day_index":1,"geometry_role":"hover_geometry"},"geometry":{"type":"Polygon","coordinates":[[[-80.64,32.53],[-80.49,31.91],[-80.21,32.07],[-76.26,34.38],[-75.28,34.98],[-75.17,35.24],[-75.12,35.65],[-75.32,37.41],[-75.5,37.53],[-76.65,37.89],[-77.21,37.89],[-78.09,37.69],[-78.51,37.43],[-80.47,33.99],[-80.54,33.74],[-80.64,32.53]]]}},{"type":"Feature","id":"geom_evt_20250331_southeast_2025_03_31_severe_d1_hover","properties":{"event_id":"evt_20250331_southeast_2025_03_31_severe","day_index":1,"geometry_role":"hover_geometry"},"geometry":{"type":"Polygon","coordinates":[[[-85.27,32],[-84.98,31.65],[-84.11,31.51],[-81.75,31.93],[-79.75,33.51],[-77.36,36.08],[-78.5,36.55],[-79.8,36.53],[-84.49,34.2],[-85.27,32]]]}},{"type":"Feature","id":"geom_evt_20250316_great_lakes_2025_03_16_severe_d1_hover","properties":{"event_id":"evt_20250316_great_lakes_2025_03_16_severe","day_index":1,"geometry_role":"hover_geometry"},"geometry":{"type":"Polygon","coordinates":[[[-80.79,39.77],[-80.4,39.19],[-79.6,39.01],[-78.71,39.26],[-78.27,39.78],[-78.16,41.44],[-78.68,42.23],[-79.51,42.43],[-80.64,41.94],[-80.79,39.77]]]}},{"type":"Feature","id":"geom_evt_20250319_mid_atlantic_2025_03_19_severe_d1_hover","properties":{"event_id":"evt_20250319_mid_atlantic_2025_03_19_severe","day_index":1,"geometry_role":"hover_geometry"},"geometry":{"type":"Polygon","coordinates":[[[-90.25,41.11],[-90.22,40.35],[-89.43,39.65],[-88.32,39.03],[-87.86,38.92],[-87.5,39.05],[-87.22,39.32],[-87.1,39.71],[-87.1,40.49],[-87.32,41.09],[-87.67,41.38],[-88.6,41.64],[-89.72,41.5],[-90.25,41.11]]]}},{"type":"Feature","id":"geom_evt_20250330_mid_atlantic_2025_03_30_severe_d1_hover","properties":{"event_id":"evt_20250330_mid_atlantic_2025_03_30_severe","day_index":1,"geometry_role":"hover_geometry"},"geometry":{"type":"Polygon","coordinates":[[[-95.2,31.91],[-94.55,31.43],[-92.24,31.49],[-89.79,31.64],[-88.43,31.83],[-87.21,32.75],[-86.08,33.82],[-83.54,36.81],[-82.66,38.13],[-82.3,39.55],[-82.1,40.9],[-81.95,41.9],[-82.1,43.62],[-82.14,43.8],[-85.72,43.08],[-88.52,40.67],[-92.93,36.62],[-94.16,34.7],[-94.58,34],[-95.19,32.51],[-95.2,31.91]]]}},{"type":"Feature","id":"geom_evt_20250312_southern_plains_2025_03_12_severe_d1_hover","properties":{"event_id":"evt_20250312_southern_plains_2025_03_12_severe","day_index":1,"geometry_role":"hover_geometry"},"geometry":{"type":"Polygon","coordinates":[[[-96.89,32.94],[-96.85,31.36],[-95.83,30.9],[-95.16,30.99],[-94.23,31.35],[-92.75,32.06],[-92.35,33.14],[-92.33,33.93],[-93.15,35.03],[-94.02,35.5],[-94.62,35.51],[-95.39,35.38],[-96,35.08],[-96.72,34.09],[-96.89,32.94]]]}},{"type":"Feature","id":"geom_evt_20250322_southern_plains_2025_03_22_severe_d1_hover","properties":{"event_id":"evt_20250322_southern_plains_2025_03_22_severe","day_index":1,"geometry_role":"hover_geometry"},"geometry":{"type":"Polygon","coordinates":[[[-95.29,36.5],[-94.77,36.27],[-93.52,36.37],[-92.27,37],[-92.23,37.37],[-93.19,37.72],[-94.03,37.8],[-94.31,37.7],[-95.11,37.01],[-95.29,36.5]]]}},{"type":"Feature","id":"geom_evt_20250323_southern_plains_2025_03_23_severe_d1_hover","properties":{"event_id":"evt_20250322_southern_plains_2025_03_22_severe","day_index":2,"geometry_role":"hover_geometry"},"geometry":{"type":"Polygon","coordinates":[[[-98.11,30.17],[-97.08,30.19],[-89.72,31.98],[-88.85,32.43],[-88.41,32.96],[-86.86,35.05],[-86.48,36.35],[-86.72,36.76],[-87.49,36.99],[-88.74,36.7],[-95.34,32.59],[-97.97,30.66],[-98.11,30.17]]]}},{"type":"Feature","id":"geom_evt_20250329_southern_plains_2025_03_29_severe_d1_hover","properties":{"event_id":"evt_20250329_southern_plains_2025_03_29_severe","day_index":1,"geometry_role":"hover_geometry"},"geometry":{"type":"Polygon","coordinates":[[[-99.53,31.82],[-99.34,31.44],[-98.85,31.32],[-96.45,32.5],[-92.15,37.66],[-92.08,38.3],[-92.17,38.98],[-93.04,39.23],[-95.66,38.8],[-96.75,38.33],[-97.6,37.74],[-98.75,36.41],[-99.07,35.71],[-99.53,31.82]]]}},{"type":"Feature","id":"geom_evt_20250326_pacific_northwest_2025_03_26_severe_d1_hover","properties":{"event_id":"evt_20250326_pacific_northwest_2025_03_26_severe","day_index":1,"geometry_role":"hover_geometry"},"geometry":{"type":"Polygon","coordinates":[[[-123.56,46.08],[-123.44,44.03],[-123.29,43.38],[-122.79,43.22],[-122.18,43.72],[-121.59,44.98],[-121.39,45.81],[-121.37,47.22],[-121.55,48.04],[-122.19,48.12],[-123.14,47.42],[-123.56,46.08]]]}},{"type":"Feature","id":"geom_evt_20250327_upper_midwest_2025_03_27_severe_d1_hover","properties":{"event_id":"evt_20250327_upper_midwest_2025_03_27_severe","day_index":1,"geometry_role":"hover_geometry"},"geometry":{"type":"Polygon","coordinates":[[[-97.49,39.71],[-97.3,39.33],[-96.51,39.37],[-94.07,39.72],[-93.68,40.03],[-93.66,40.76],[-94.27,41.13],[-95.39,41.02],[-96.38,40.66],[-97.06,40.23],[-97.49,39.71]]]}}]}