{"type":"FeatureCollection","features":[{"type":"Feature","id":"geom_evt_2025_al07_gabrielle_d1_hover","properties":{"event_id":"evt_2025_al07_gabrielle","day_index":1,"geometry_role":"hover_geometry"},"geometry":{"type":"Polygon","coordinates":[[[-49.9,19],[-49.61,18.07],[-48.8,17.38],[-47.7,17.13],[-46.6,17.38],[-45.79,18.06],[-45.5,19],[-45.79,19.93],[-46.6,20.62],[-47.7,20.87],[-48.8,20.62],[-49.61,19.93],[-49.9,19]]]}},{"type":"Feature","id":"geom_evt_2025_al07_gabrielle_d2_hover","properties":{"event_id":"evt_2025_al07_gabrielle","day_index":2,"geometry_role":"hover_geometry"},"geometry":{"type":"Polygon","coordinates":[[[-54.4,20.5],[-54.11,19.57],[-53.3,18.88],[-52.2,18.63],[-51.1,18.88],[-50.29,19.56],[-50,20.5],[-50.29,21.44],[-51.1,22.12],[-52.2,22.37],[-53.3,22.12],[-54.11,21.44],[-54.4,20.5]]]}},{"type":"Feature","id":"geom_evt_2025_al07_gabrielle_d3_hover","properties":{"event_id":"evt_2025_al07_gabrielle","day_index":3,"geometry_role":"hover_geometry"},"geometry":{"type":"Polygon","coordinates":[[[-58.3,22.1],[-58.01,21.17],[-57.2,20.48],[-56.1,20.23],[-55,20.48],[-54.19,21.17],[-53.9,22.1],[-54.19,23.04],[-55,23.72],[-56.1,23.97],[-57.2,23.72],[-58.01,23.04],[-58.3,22.1]]]}},{"type":"Feature","id":"geom_evt_2025_al07_gabrielle_d4_hover","properties":{"event_id":"evt_2025_al07_gabrielle","day_index":4,"geometry_role":"hover_geometry"},"geometry":{"type":"Polygon","coordinates":[[[-60.8,25.2],[-60.51,24.27],[-59.7,23.58],[-58.6,23.33],[-57.5,23.58],[-56.69,24.26],[-56.4,25.2],[-56.69,26.14],[-57.5,26.82],[-58.6,27.07],[-59.7,26.82],[-60.51,26.14],[-60.8,25.2]]]}},{"type":"Feature","id":"geom_evt_2025_al07_gabrielle_d5_hover","properties":{"event_id":"evt_2025_al07_gabrielle","day_index":5,"geometry_role":"hover_geometry"},"geometry":{"type":"Polygon","coordinates":[[[-64.5,28.1],[-64.1,26.83],[-63,25.89],[-61.5,25.55],[-60,25.89],[-58.9,26.83],[-58.5,28.1],[-58.9,29.38],[-60,30.31],[-61.5,30.65],[-63,30.31],[-64.1,29.38],[-64.5,28.1]]]}},{"type":"Feature","id":"geom_evt_2025_al07_gabrielle_d6_hover","properties":{"event_id":"evt_2025_al07_gabrielle","day_index":6,"geometry_role":"hover_geometry"},"geometry":{"type":"Polygon","coordinates":[[[-65.1,31.3],[-64.7,30.03],[-63.6,29.09],[-62.1,28.75],[-60.6,29.09],[-59.5,30.03],[-59.1,31.3],[-59.5,32.58],[-60.6,33.51],[-62.1,33.85],[-63.6,33.51],[-64.7,32.58],[-65.1,31.3]]]}},{"type":"Feature","id":"geom_evt_2025_al07_gabrielle_d7_hover","properties":{"event_id":"evt_2025_al07_gabrielle","day_index":7,"geometry_role":"hover_geometry"},"geometry":{"type":"Polygon","coordinates":[[[-60.4,34.3],[-60,33.03],[-58.9,32.09],[-57.4,31.75],[-55.9,32.09],[-54.8,33.03],[-54.4,34.3],[-54.8,35.57],[-55.9,36.51],[-57.4,36.85],[-58.9,36.51],[-60,35.57],[-60.4,34.3]]]}},{"type":"Feature","id":"geom_evt_2025_al07_gabrielle_d8_hover","properties":{"event_id":"evt_2025_al07_gabrielle","day_index":8,"geometry_role":"hover_geometry"},"geometry":{"type":"Polygon","coordinates":[[[-50.2,35.9],[-49.8,34.63],[-48.7,33.69],[-47.2,33.35],[-45.7,33.69],[-44.6,34.63],[-44.2,35.9],[-44.6,37.17],[-45.7,38.11],[-47.2,38.45],[-48.7,38.11],[-49.8,37.17],[-50.2,35.9]]]}},{"type":"Feature","id":"geom_evt_2025_al07_gabrielle_d9_hover","properties":{"event_id":"evt_2025_al07_gabrielle","day_index":9,"geometry_role":"hover_geometry"},"geometry":{"type":"Polygon","coordinates":[[[-35.8,36.8],[-35.51,35.86],[-34.7,35.18],[-33.6,34.93],[-32.5,35.18],[-31.69,35.86],[-31.4,36.8],[-31.69,37.74],[-32.5,38.42],[-33.6,38.67],[-34.7,38.42],[-35.51,37.74],[-35.8,36.8]]]}},{"type":"Feature","id":"geom_evt_2025_al07_gabrielle_d10_hover","properties":{"event_id":"evt_2025_al07_gabrielle","day_index":10,"geometry_role":"hover_geometry"},"geometry":{"type":"Polygon","coordinates":[[[-23.6,40.4],[-23.31,39.46],[-22.5,38.78],[-21.4,38.53],[-20.3,38.78],[-19.49,39.46],[-19.2,40.4],[-19.49,41.34],[-20.3,42.02],[-21.4,42.27],[-22.5,42.02],[-23.31,41.34],[-23.6,40.4]]]}},{"type":"Feature","id":"geom_evt_2025_al07_gabrielle_d11_hover","properties":{"event_id":"evt_2025_al07_gabrielle","day_index":11,"geometry_role":"hover_geometry"},"geometry":{"type":"Polygon","coordinates":[[[-13.4,41.4],[-13.11,40.46],[-12.3,39.78],[-11.2,39.53],[-10.1,39.78],[-9.29,40.46],[-9,41.4],[-9.29,42.34],[-10.1,43.02],[-11.2,43.27],[-12.3,43.02],[-13.11,42.34],[-13.4,41.4]]]}},{"type":"Feature","id":"geom_evt_2025_al07_gabrielle_d12_hover","properties":{"event_id":"evt_2025_al07_gabrielle","day_index":12,"geometry_role":"hover_geometry"},"geometry":{"type":"Polygon","coordinates":[[[-8,38.5],[-7.8,37.86],[-7.25,37.4],[-6.5,37.23],[-5.75,37.4],[-5.2,37.86],[-5,38.5],[-5.2,39.14],[-5.75,39.6],[-6.5,39.78],[-7.25,39.6],[-7.8,39.14],[-8,38.5]]]}},{"type":"Feature","id":"geom_evt_2025_al08_humberto_d1_hover","properties":{"event_id":"evt_2025_al08_humberto","day_index":1,"geometry_role":"hover_geometry"},"geometry":{"type":"Polygon","coordinates":[[[-56.7,19.8],[-56.41,18.87],[-55.6,18.18],[-54.5,17.93],[-53.4,18.18],[-52.59,18.86],[-52.3,19.8],[-52.59,20.74],[-53.4,21.42],[-54.5,21.67],[-55.6,21.42],[-56.41,20.74],[-56.7,19.8]]]}},{"type":"Feature","id":"geom_evt_2025_al08_humberto_d2_hover","properties":{"event_id":"evt_2025_al08_humberto","day_index":2,"geometry_role":"hover_geometry"},"geometry":{"type":"Polygon","coordinates":[[[-58.9,21.5],[-58.61,20.57],[-57.8,19.88],[-56.7,19.63],[-55.6,19.88],[-54.79,20.57],[-54.5,21.5],[-54.79,22.44],[-55.6,23.12],[-56.7,23.37],[-57.8,23.12],[-58.61,22.44],[-58.9,21.5]]]}},{"type":"Feature","id":"geom_evt_2025_al08_humberto_d3_hover","properties":{"event_id":"evt_2025_al08_humberto","day_index":3,"geometry_role":"hover_geometry"},"geometry":{"type":"Polygon","coordinates":[[[-60.8,22.2],[-60.4,20.93],[-59.3,19.99],[-57.8,19.65],[-56.3,19.99],[-55.2,20.92],[-54.8,22.2],[-55.2,23.48],[-56.3,24.41],[-57.8,24.75],[-59.3,24.41],[-60.4,23.48],[-60.8,22.2]]]}},{"type":"Feature","id":"geom_evt_2025_al08_humberto_d4_hover","properties":{"event_id":"evt_2025_al08_humberto","day_index":4,"geometry_role":"hover_geometry"},"geometry":{"type":"Polygon","coordinates":[[[-63.7,22.7],[-63.3,21.43],[-62.2,20.49],[-60.7,20.15],[-59.2,20.49],[-58.1,21.42],[-57.7,22.7],[-58.1,23.98],[-59.2,24.91],[-60.7,25.25],[-62.2,24.91],[-63.3,23.98],[-63.7,22.7]]]}},{"type":"Feature","id":"geom_evt_2025_al08_humberto_d5_hover","properties":{"event_id":"evt_2025_al08_humberto","day_index":5,"geometry_role":"hover_geometry"},"geometry":{"type":"Polygon","coordinates":[[[-67.8,25.1],[-67.4,23.83],[-66.3,22.89],[-64.8,22.55],[-63.3,22.89],[-62.2,23.83],[-61.8,25.1],[-62.2,26.38],[-63.3,27.31],[-64.8,27.65],[-66.3,27.31],[-67.4,26.38],[-67.8,25.1]]]}},{"type":"Feature","id":"geom_evt_2025_al08_humberto_d6_hover","properties":{"event_id":"evt_2025_al08_humberto","day_index":6,"geometry_role":"hover_geometry"},"geometry":{"type":"Polygon","coordinates":[[[-70.9,28.5],[-70.5,27.23],[-69.4,26.29],[-67.9,25.95],[-66.4,26.29],[-65.3,27.23],[-64.9,28.5],[-65.3,29.78],[-66.4,30.71],[-67.9,31.05],[-69.4,30.71],[-70.5,29.78],[-70.9,28.5]]]}},{"type":"Feature","id":"geom_evt_2025_al08_humberto_d7_hover","properties":{"event_id":"evt_2025_al08_humberto","day_index":7,"geometry_role":"hover_geometry"},"geometry":{"type":"Polygon","coordinates":[[[-72.9,33.5],[-72.5,32.23],[-71.4,31.29],[-69.9,30.95],[-68.4,31.29],[-67.3,32.23],[-66.9,33.5],[-67.3,34.78],[-68.4,35.71],[-69.9,36.05],[-71.4,35.71],[-72.5,34.78],[-72.9,33.5]]]}},{"type":"Feature","id":"geom_evt_2025_al09_imelda_d1_hover","properties":{"event_id":"evt_2025_al09_imelda","day_index":1,"geometry_role":"hover_geometry"},"geometry":{"type":"Polygon","coordinates":[[[-76.4,20.9],[-76.2,20.26],[-75.65,19.8],[-74.9,19.63],[-74.15,19.8],[-73.6,20.26],[-73.4,20.9],[-73.6,21.54],[-74.15,22],[-74.9,22.17],[-75.65,22],[-76.2,21.54],[-76.4,20.9]]]}},{"type":"Feature","id":"geom_evt_2025_al09_imelda_d2_hover","properties":{"event_id":"evt_2025_al09_imelda","day_index":2,"geometry_role":"hover_geometry"},"geometry":{"type":"Polygon","coordinates":[[[-77.9,22.1],[-77.7,21.46],[-77.15,21],[-76.4,20.83],[-75.65,21],[-75.1,21.46],[-74.9,22.1],[-75.1,22.74],[-75.65,23.2],[-76.4,23.38],[-77.15,23.2],[-77.7,22.74],[-77.9,22.1]]]}},{"type":"Feature","id":"geom_evt_2025_al09_imelda_d3_hover","properties":{"event_id":"evt_2025_al09_imelda","day_index":3,"geometry_role":"hover_geometry"},"geometry":{"type":"Polygon","coordinates":[[[-79.5,23.8],[-79.21,22.87],[-78.4,22.18],[-77.3,21.93],[-76.2,22.18],[-75.39,22.87],[-75.1,23.8],[-75.39,24.74],[-76.2,25.42],[-77.3,25.67],[-78.4,25.42],[-79.21,24.74],[-79.5,23.8]]]}},{"type":"Feature","id":"geom_evt_2025_al09_imelda_d4_hover","properties":{"event_id":"evt_2025_al09_imelda","day_index":4,"geometry_role":"hover_geometry"},"geometry":{"type":"Polygon","coordinates":[[[-79.5,27.3],[-79.21,26.37],[-78.4,25.68],[-77.3,25.43],[-76.2,25.68],[-75.39,26.37],[-75.1,27.3],[-75.39,28.24],[-76.2,28.92],[-77.3,29.17],[-78.4,28.92],[-79.21,28.24],[-79.5,27.3]]]}},{"type":"Feature","id":"geom_evt_2025_al09_imelda_d5_hover","properties":{"event_id":"evt_2025_al09_imelda","day_index":5,"geometry_role":"hover_geometry"},"geometry":{"type":"Polygon","coordinates":[[[-79,29.2],[-78.6,27.93],[-77.5,26.99],[-76,26.65],[-74.5,26.99],[-73.4,27.92],[-73,29.2],[-73.4,30.48],[-74.5,31.41],[-76,31.75],[-77.5,31.41],[-78.6,30.48],[-79,29.2]]]}},{"type":"Feature","id":"geom_evt_20250925_pacific_northwest_2025_09_25_fire_d1_hover","properties":{"event_id":"evt_20250925_pacific_northwest_2025_09_25_fire","day_index":1,"geometry_role":"hover_geometry"},"geometry":{"type":"Polygon","coordinates":[[[-121.45,45.44],[-121.35,45.14],[-121.08,44.94],[-120.75,44.89],[-119.35,45.31],[-119.01,45.49],[-117.89,47.29],[-117.99,47.54],[-119.34,48.29],[-119.73,48.29],[-120.14,48.04],[-120.57,47.67],[-120.73,47.42],[-121.2,46.21],[-121.39,45.71],[-121.45,45.44]]]}},{"type":"Feature","id":"geom_evt_20250921_southern_plains_2025_09_21_severe_d1_hover","properties":{"event_id":"evt_20250921_southern_plains_2025_09_21_severe","day_index":1,"geometry_role":"hover_geometry"},"geometry":{"type":"Polygon","coordinates":[[[-99.75,32.98],[-99.56,32.51],[-99.13,32.39],[-98.08,32.61],[-97.41,33],[-96.4,33.71],[-96.12,34.01],[-95.98,34.39],[-96.14,34.64],[-96.75,34.66],[-97.47,34.51],[-98.93,34.07],[-99.72,33.53],[-99.75,32.98]]]}},{"type":"Feature","id":"geom_evt_20250922_southern_plains_2025_09_22_severe_d1_hover","properties":{"event_id":"evt_20250921_southern_plains_2025_09_21_severe","day_index":2,"geometry_role":"hover_geometry"},"geometry":{"type":"Polygon","coordinates":[[[-101.83,38.48],[-101.73,37.5],[-100.85,36.74],[-99.9,36.06],[-98.64,35.72],[-97.16,35.73],[-84.57,36.71],[-83.76,37.3],[-82,38.62],[-81.43,39.43],[-81.27,40.16],[-81.3,40.71],[-81.5,41.11],[-91.57,43.43],[-92.78,43.5],[-93.76,43.47],[-94.83,43.18],[-96.32,42.62],[-97.08,42.19],[-101.83,38.48]]]}},{"type":"Feature","id":"geom_evt_20250923_southern_plains_2025_09_23_severe_d1_hover","properties":{"event_id":"evt_20250921_southern_plains_2025_09_21_severe","day_index":3,"geometry_role":"hover_geometry"},"geometry":{"type":"Polygon","coordinates":[[[-95.37,35.56],[-95.2,35.34],[-93.96,35.23],[-93.56,35.38],[-93.35,35.76],[-93.42,36.09],[-93.71,36.28],[-95.12,36.24],[-95.35,35.98],[-95.37,35.56]]]}},{"type":"Feature","id":"geom_evt_20250903_southern_plains_2025_09_03_severe_d1_hover","properties":{"event_id":"evt_20250903_southern_plains_2025_09_03_severe","day_index":1,"geometry_role":"hover_geometry"},"geometry":{"type":"Polygon","coordinates":[[[-99.16,37.75],[-98.82,37.37],[-97.09,37.4],[-93.66,38.09],[-93.23,38.46],[-93.17,38.89],[-93.36,39.32],[-93.93,39.49],[-98.34,39.07],[-99.13,38.43],[-99.16,37.75]]]}},{"type":"Feature","id":"geom_evt_20250918_southern_plains_2025_09_18_severe_d1_hover","properties":{"event_id":"evt_20250918_southern_plains_2025_09_18_severe","day_index":1,"geometry_role":"hover_geometry"},"geometry":{"type":"Polygon","coordinates":[[[-94.2,37.7],[-93.88,37],[-93.13,36.98],[-92.26,38.87],[-92.15,39.73],[-92.33,40.07],[-92.55,40.18],[-93.02,39.97],[-93.6,39.42],[-93.98,38.64],[-94.2,37.7]]]}},{"type":"Feature","id":"geom_evt_20250905_mid_atlantic_2025_09_05_severe_d1_hover","properties":{"event_id":"evt_20250905_mid_atlantic_2025_09_05_severe","day_index":1,"geometry_role":"hover_geometry"},"geometry":{"type":"Polygon","coordinates":[[[-89.16,35.08],[-88.78,34.62],[-88.2,34.52],[-87.06,34.69],[-84.41,35.64],[-83.23,36.47],[-80.44,39.46],[-80.71,39.76],[-81.4,39.8],[-88.6,36.26],[-89.04,35.76],[-89.16,35.08]]]}},{"type":"Feature","id":"geom_evt_20250906_great_lakes_2025_09_06_severe_d1_hover","properties":{"event_id":"evt_20250906_great_lakes_2025_09_06_severe","day_index":1,"geometry_role":"hover_geometry"},"geometry":{"type":"Polygon","coordinates":[[[-76.46,39.59],[-75.88,39.42],[-75.29,39.54],[-74.12,40.35],[-70.77,42.72],[-69.41,44.16],[-69.22,44.72],[-69.66,45.04],[-73.61,42.59],[-76.33,40.07],[-76.46,39.59]]]}},{"type":"Feature","id":"geom_evt_20250908_central_plains_2025_09_08_severe_d1_hover","properties":{"event_id":"evt_20250908_central_plains_2025_09_08_severe","day_index":1,"geometry_role":"hover_geometry"},"geometry":{"type":"Polygon","coordinates":[[[-101.73,35.55],[-101.04,34.92],[-100.04,34.96],[-98.94,37.36],[-99.67,37.94],[-100.46,37.9],[-101.06,37.54],[-101.73,35.55]]]}},{"type":"Feature","id":"geom_evt_20250909_central_plains_2025_09_09_severe_d1_hover","properties":{"event_id":"evt_20250908_central_plains_2025_09_08_severe","day_index":2,"geometry_role":"hover_geometry"},"geometry":{"type":"Polygon","coordinates":[[[-103.13,39.81],[-102.64,38.31],[-102.13,37.83],[-100.93,37.81],[-100.49,38.43],[-101.36,39.56],[-103.02,40.19],[-103.13,39.81]]]}},{"type":"Feature","id":"geom_evt_20250917_central_plains_2025_09_17_severe_d1_hover","properties":{"event_id":"evt_20250917_central_plains_2025_09_17_severe","day_index":1,"geometry_role":"hover_geometry"},"geometry":{"type":"Polygon","coordinates":[[[-104.89,38.48],[-104.88,38.07],[-103.79,36.13],[-102.44,35.47],[-101.7,35.55],[-101.1,36.01],[-101.01,36.62],[-101.46,36.96],[-104.45,38.82],[-104.74,38.84],[-104.89,38.48]]]}},{"type":"Feature","id":"geom_evt_20250911_northern_plains_2025_09_11_severe_d1_hover","properties":{"event_id":"evt_20250911_northern_plains_2025_09_11_severe","day_index":1,"geometry_role":"hover_geometry"},"geometry":{"type":"Polygon","coordinates":[[[-108.68,46.25],[-107.72,45.32],[-106.64,45.12],[-103.58,46.45],[-101.24,47.78],[-101.64,48.16],[-103.85,48.01],[-107.93,47.18],[-108.68,46.25]]]}},{"type":"Feature","id":"geom_evt_20250916_northern_plains_2025_09_16_severe_d1_hover","properties":{"event_id":"evt_20250916_northern_plains_2025_09_16_severe","day_index":1,"geometry_role":"hover_geometry"},"geometry":{"type":"Polygon","coordinates":[[[-103.78,41.29],[-103.7,41.02],[-102.41,39.54],[-101.56,39.55],[-100.5,40.08],[-99.62,40.92],[-99.53,41.62],[-99.74,42.27],[-100.23,42.7],[-101.09,42.56],[-103.36,41.7],[-103.78,41.29]]]}},{"type":"Feature","id":"geom_evt_20250912_northern_rockies_2025_09_12_severe_d1_hover","properties":{"event_id":"evt_20250912_northern_rockies_2025_09_12_severe","day_index":1,"geometry_role":"hover_geometry"},"geometry":{"type":"Polygon","coordinates":[[[-109.07,36.5],[-108.57,36.14],[-107.75,36.5],[-107.2,37.11],[-101.56,44.06],[-101.1,45.23],[-101.12,46.03],[-102.01,47.51],[-103.76,48.22],[-104.79,47.89],[-106.3,45.46],[-109.07,36.5]]]}},{"type":"Feature","id":"geom_evt_20250913_southwest_2025_09_13_severe_d1_hover","properties":{"event_id":"evt_20250913_southwest_2025_09_13_severe","day_index":1,"geometry_role":"hover_geometry"},"geometry":{"type":"Polygon","coordinates":[[[-108.39,32.07],[-107.96,31.84],[-106.37,31.81],[-104.22,32.22],[-103.31,33.51],[-103.14,35.24],[-103.61,35.7],[-104.77,35.73],[-106.73,35.12],[-108.34,32.5],[-108.39,32.07]]]}},{"type":"Feature","id":"geom_evt_20250926_southwest_2025_09_26_severe_d1_hover","properties":{"event_id":"evt_20250926_southwest_2025_09_26_severe","day_index":1,"geometry_role":"hover_geometry"},"geometry":{"type":"Polygon","coordinates":[[[-112.42,33.71],[-112.23,33.22],[-111.75,32.66],[-111.14,32.02],[-110.5,31.83],[-109.71,31.87],[-109.37,32.29],[-109.41,32.69],[-109.75,33.13],[-110.77,33.67],[-111.63,33.97],[-112.14,33.97],[-112.42,33.71]]]}},{"type":"Feature","id":"geom_evt_20250914_upper_midwest_2025_09_14_severe_d1_hover","properties":{"event_id":"evt_20250914_upper_midwest_2025_09_14_severe","day_index":1,"geometry_role":"hover_geometry"},"geometry":{"type":"Polygon","coordinates":[[[-100.89,47.63],[-100.85,36.52],[-100.81,35.82],[-100.11,35.48],[-99.38,35.99],[-98.85,36.88],[-98.35,40.44],[-97.9,47.34],[-98.45,48.3],[-99.33,48.82],[-100.05,48.78],[-100.74,48.29],[-100.89,47.63]]]}}]}