{"type":"FeatureCollection","features":[{"type":"Feature","id":"geom_evt_20250608_southern_plains_2025_06_08_severe_d1_hover","properties":{"event_id":"evt_20250608_southern_plains_2025_06_08_severe","day_index":1,"geometry_role":"hover_geometry"},"geometry":{"type":"Polygon","coordinates":[[[-101.77,33.96],[-101.08,33.49],[-99.44,32.65],[-98.08,32.16],[-96.82,32.05],[-96.38,32.29],[-95.93,32.82],[-95.74,33.46],[-95.85,34.25],[-98.49,35.3],[-99.53,35.39],[-100.6,35.4],[-101.22,35.14],[-101.77,34.53],[-101.77,33.96]]]}},{"type":"Feature","id":"geom_evt_20250609_southern_plains_2025_06_09_severe_d1_hover","properties":{"event_id":"evt_20250608_southern_plains_2025_06_08_severe","day_index":2,"geometry_role":"hover_geometry"},"geometry":{"type":"Polygon","coordinates":[[[-105.63,35.12],[-104.67,33.51],[-103.27,31.34],[-102.33,30.99],[-95.34,29.31],[-88.28,30.24],[-82.87,31.05],[-81.13,31.57],[-79.23,32.92],[-77.82,34.8],[-76.38,41.65],[-76.94,42.7],[-83.81,43.67],[-84.07,43.69],[-84.3,43.69],[-84.62,43.66],[-105.05,36.08],[-105.63,35.12]]]}},{"type":"Feature","id":"geom_evt_20250617_southern_plains_2025_06_17_severe_d1_hover","properties":{"event_id":"evt_20250617_southern_plains_2025_06_17_severe","day_index":1,"geometry_role":"hover_geometry"},"geometry":{"type":"Polygon","coordinates":[[[-100.71,36.82],[-99.42,36.17],[-96.72,36],[-95.72,36.2],[-95.03,36.88],[-95.23,37.46],[-95.71,37.75],[-96.97,38.08],[-98.86,38.11],[-100.2,37.61],[-100.71,36.82]]]}},{"type":"Feature","id":"geom_evt_20250613_northern_california_2025_06_13_fire_d1_hover","properties":{"event_id":"evt_20250613_northern_california_2025_06_13_fire","day_index":1,"geometry_role":"hover_geometry"},"geometry":{"type":"Polygon","coordinates":[[[-119.93,40.8],[-119.64,38.75],[-118.63,38.74],[-117.76,39.75],[-117.83,40.78],[-118.8,41.5],[-119.93,40.8]]]}},{"type":"Feature","id":"geom_evt_20250619_northern_california_2025_06_19_fire_d1_hover","properties":{"event_id":"evt_20250619_northern_california_2025_06_19_fire","day_index":1,"geometry_role":"hover_geometry"},"geometry":{"type":"Polygon","coordinates":[[[-120.48,40.42],[-119.91,39.28],[-118.85,38.31],[-114.71,35.11],[-113.33,35.14],[-112.5,35.55],[-111.69,36.35],[-111.38,37.84],[-111.38,38.87],[-111.74,39.88],[-112.28,40.81],[-113.12,41.88],[-113.96,41.94],[-117.79,41.85],[-118.97,41.66],[-120.05,41.2],[-120.48,40.42]]]}},{"type":"Feature","id":"geom_evt_20250616_desert_southwest_2025_06_16_fire_d1_hover","properties":{"event_id":"evt_20250616_desert_southwest_2025_06_16_fire","day_index":1,"geometry_role":"hover_geometry"},"geometry":{"type":"Polygon","coordinates":[[[-116.28,36.88],[-116.06,36.27],[-115.42,35.76],[-114.35,35.25],[-113.17,35.35],[-111.84,36.23],[-109.78,37.87],[-109.5,38.14],[-109.51,38.58],[-109.87,38.95],[-110.66,39.37],[-111.47,39.62],[-112.73,39.66],[-114.35,39.03],[-115.72,37.96],[-116.28,36.88]]]}},{"type":"Feature","id":"geom_evt_20250617_southwest_2025_06_17_fire_d1_hover","properties":{"event_id":"evt_20250617_southwest_2025_06_17_fire","day_index":1,"geometry_role":"hover_geometry"},"geometry":{"type":"Polygon","coordinates":[[[-110.27,34.89],[-110.08,32.78],[-109.76,32.14],[-109.22,31.69],[-108.21,31.34],[-106.76,31.77],[-106.05,32.63],[-105.97,33.89],[-106.06,35.42],[-106.58,36.42],[-107.67,36.65],[-109.2,36.62],[-109.67,36.35],[-110.13,35.71],[-110.27,34.89]]]}},{"type":"Feature","id":"geom_evt_20250620_southwest_2025_06_20_fire_d1_hover","properties":{"event_id":"evt_20250620_southwest_2025_06_20_fire","day_index":1,"geometry_role":"hover_geometry"},"geometry":{"type":"Polygon","coordinates":[[[-119.37,39.26],[-119.36,39.14],[-118.79,38.36],[-114.68,35.37],[-112.71,34.43],[-111.2,33.9],[-109.49,33.89],[-108.73,34.12],[-108.23,34.44],[-107.54,35.66],[-105.84,41.89],[-105.87,42.27],[-106.14,42.45],[-106.65,42.58],[-113.32,42.57],[-114.55,42.35],[-116.08,41.76],[-117.78,41.08],[-118.71,40.67],[-119.34,39.94],[-119.37,39.26]]]}},{"type":"Feature","id":"geom_evt_20250621_southwest_2025_06_21_fire_d1_hover","properties":{"event_id":"evt_20250620_southwest_2025_06_20_fire","day_index":2,"geometry_role":"hover_geometry"},"geometry":{"type":"Polygon","coordinates":[[[-115.24,35.72],[-114.92,35.21],[-114.38,34.93],[-113.87,34.93],[-109.78,35.97],[-108.95,36.39],[-108.2,37.29],[-106.23,41.85],[-106.23,42.25],[-106.61,42.59],[-107.16,42.6],[-107.87,42.37],[-113.25,39.01],[-114.48,38.03],[-115.08,36.64],[-115.24,35.72]]]}},{"type":"Feature","id":"geom_evt_20250611_gulf_coast_2025_06_11_rain_d1_hover","properties":{"event_id":"evt_20250611_gulf_coast_2025_06_11_rain","day_index":1,"geometry_role":"hover_geometry"},"geometry":{"type":"Polygon","coordinates":[[[-99.16,30.72],[-99.16,30.69],[-99.15,30.66],[-99.15,30.63],[-99.14,30.6],[-99.13,30.58],[-99.1,30.53],[-99.09,30.51],[-99.08,30.49],[-98.98,30.38],[-98.96,30.36],[-98.94,30.33],[-98.92,30.32],[-98.91,30.31],[-98.88,30.28],[-98.86,30.27],[-98.47,30.05],[-98.45,30.04],[-98.07,29.87],[-97.98,29.83],[-97.95,29.82],[-97.92,29.81],[-97.89,29.81],[-97.86,29.81],[-97.79,29.8],[-97.69,29.8],[-97.48,29.8],[-97.38,29.8],[-97.31,29.81],[-97.28,29.81],[-97.25,29.81],[-97.22,29.82],[-96.94,29.87],[-96.69,29.92],[-96.66,29.93],[-96.64,29.94],[-96.62,29.95],[-96.14,30.22],[-96.12,30.23],[-96.09,30.25],[-96.08,30.26],[-95.47,30.82],[-95.41,30.87],[-95.35,30.92],[-95.3,30.98],[-95.26,31.03],[-95.25,31.04],[-95.24,31.06],[-95.19,31.15],[-95.18,31.17],[-95.14,31.26],[-95.13,31.29],[-95.09,31.43],[-95.08,31.46],[-95.07,31.48],[-95.02,31.79],[-95.02,31.82],[-95.01,31.85],[-95.01,31.88],[-95.01,31.92],[-95.01,31.98],[-95.01,32.01],[-95.01,32.05],[-95.01,32.08],[-95.02,32.11],[-95.02,32.14],[-95.03,32.16],[-95.04,32.18],[-95.06,32.24],[-95.07,32.26],[-95.08,32.28],[-95.09,32.29],[-95.12,32.32],[-95.13,32.34],[-95.17,32.38],[-95.19,32.39],[-95.2,32.41],[-95.22,32.42],[-95.24,32.43],[-95.25,32.44],[-95.28,32.45],[-95.31,32.45],[-95.34,32.46],[-95.37,32.46],[-95.4,32.46],[-95.44,32.46],[-95.51,32.46],[-95.89,32.46],[-96,32.46],[-96.03,32.46],[-96.06,32.46],[-96.09,32.45],[-96.12,32.45],[-96.4,32.39],[-96.62,32.34],[-96.85,32.28],[-97.28,32.17],[-97.31,32.16],[-97.57,32.06],[-97.59,32.05],[-97.68,32.01],[-98.12,31.79],[-98.14,31.78],[-98.58,31.5],[-98.6,31.49],[-98.65,31.45],[-98.7,31.39],[-98.9,31.18],[-98.92,31.17],[-99.07,30.96],[-99.09,30.95],[-99.1,30.93],[-99.11,30.91],[-99.13,30.85],[-99.14,30.83],[-99.15,30.81],[-99.15,30.78],[-99.16,30.75],[-99.16,30.72]]]}},{"type":"Feature","id":"geom_evt_20250612_gulf_coast_2025_06_12_rain_d1_hover","properties":{"event_id":"evt_20250611_gulf_coast_2025_06_11_rain","day_index":2,"geometry_role":"hover_geometry"},"geometry":{"type":"Polygon","coordinates":[[[-97.7,28.75],[-97.7,28.73],[-97.7,28.72],[-97.69,28.7],[-97.67,28.64],[-97.66,28.63],[-97.65,28.61],[-97.63,28.59],[-97.62,28.58],[-97.61,28.57],[-97.59,28.55],[-97.38,28.4],[-97.37,28.39],[-97.35,28.38],[-97.33,28.37],[-97.28,28.34],[-97.26,28.34],[-97.24,28.33],[-97.21,28.33],[-96.2,28.21],[-96.17,28.2],[-96.14,28.2],[-96.1,28.2],[-96.07,28.2],[-96.04,28.2],[-96.01,28.2],[-95.97,28.21],[-95.94,28.21],[-95.92,28.22],[-95.82,28.26],[-95.32,28.49],[-95.3,28.49],[-95.21,28.54],[-95.2,28.55],[-94.07,29.28],[-94.02,29.31],[-94,29.32],[-93.99,29.34],[-93.98,29.36],[-93.97,29.38],[-93.96,29.4],[-93.92,29.55],[-93.91,29.58],[-93.91,29.61],[-93.9,29.64],[-93.9,29.67],[-93.9,29.74],[-93.9,29.77],[-93.9,29.84],[-93.9,29.91],[-93.9,29.94],[-93.9,29.97],[-93.91,30],[-93.91,30.03],[-93.92,30.06],[-93.93,30.08],[-93.96,30.13],[-93.97,30.15],[-93.98,30.17],[-94,30.18],[-94.14,30.29],[-94.15,30.3],[-94.19,30.33],[-94.21,30.34],[-94.23,30.35],[-94.26,30.35],[-94.29,30.36],[-94.32,30.36],[-94.36,30.36],[-94.39,30.36],[-94.42,30.36],[-94.45,30.36],[-94.49,30.35],[-94.52,30.35],[-94.54,30.34],[-94.69,30.29],[-94.71,30.28],[-96.26,29.67],[-96.36,29.63],[-97.04,29.34],[-97.13,29.3],[-97.15,29.29],[-97.24,29.24],[-97.26,29.23],[-97.52,29.08],[-97.54,29.07],[-97.55,29.05],[-97.58,29.03],[-97.6,29.01],[-97.61,29],[-97.63,28.97],[-97.65,28.95],[-97.66,28.93],[-97.67,28.9],[-97.7,28.79],[-97.7,28.77],[-97.7,28.75]]]}},{"type":"Feature","id":"geom_evt_20250615_mid_atlantic_2025_06_15_rain_d1_hover","properties":{"event_id":"evt_20250615_mid_atlantic_2025_06_15_rain","day_index":1,"geometry_role":"hover_geometry"},"geometry":{"type":"Polygon","coordinates":[[[-78.57,36.87],[-78.57,36.85],[-78.57,36.82],[-78.56,36.8],[-78.52,36.68],[-78.51,36.66],[-78.5,36.63],[-78.49,36.62],[-78.48,36.6],[-78.46,36.59],[-78.45,36.58],[-78.43,36.56],[-78.41,36.55],[-78.34,36.51],[-78.32,36.51],[-78.23,36.46],[-78.01,36.35],[-77.99,36.34],[-77.89,36.3],[-77.87,36.29],[-77.62,36.19],[-77.59,36.18],[-77.09,36.07],[-77.06,36.07],[-77.03,36.06],[-76.6,36.02],[-76.57,36.02],[-76.55,36.02],[-76.52,36.02],[-76.28,36.06],[-76.25,36.07],[-76.22,36.07],[-76.1,36.11],[-76.08,36.12],[-76.05,36.13],[-76.03,36.14],[-76,36.16],[-75.98,36.17],[-75.97,36.19],[-75.95,36.2],[-75.94,36.22],[-75.93,36.24],[-75.92,36.27],[-75.92,36.29],[-75.89,36.4],[-75.89,36.42],[-75.89,36.44],[-75.89,36.46],[-75.89,36.48],[-75.92,36.62],[-75.95,36.73],[-75.96,36.74],[-75.97,36.75],[-75.98,36.76],[-76,36.77],[-76.1,36.82],[-76.12,36.83],[-76.22,36.86],[-76.25,36.87],[-76.28,36.88],[-77.85,37.2],[-77.88,37.2],[-77.9,37.2],[-78.28,37.19],[-78.29,37.19],[-78.31,37.18],[-78.36,37.16],[-78.38,37.15],[-78.4,37.14],[-78.41,37.13],[-78.44,37.11],[-78.46,37.1],[-78.47,37.08],[-78.5,37.05],[-78.51,37.04],[-78.53,37.02],[-78.54,37.01],[-78.55,36.99],[-78.56,36.97],[-78.56,36.95],[-78.57,36.93],[-78.57,36.9],[-78.57,36.87]]]}},{"type":"Feature","id":"geom_evt_20250617_mid_atlantic_2025_06_17_rain_d1_hover","properties":{"event_id":"evt_20250617_mid_atlantic_2025_06_17_rain","day_index":1,"geometry_role":"hover_geometry"},"geometry":{"type":"Polygon","coordinates":[[[-99.05,38.68],[-99.04,38.65],[-99.04,38.62],[-99.04,38.6],[-99.03,38.57],[-99.02,38.55],[-99,38.49],[-98.99,38.47],[-98.98,38.46],[-98.86,38.29],[-98.25,37.4],[-98.24,37.39],[-98.2,37.34],[-98.15,37.29],[-98.09,37.23],[-98.05,37.19],[-98.03,37.18],[-98.02,37.17],[-97.93,37.12],[-97.91,37.11],[-97.81,37.07],[-97.8,37.06],[-97.7,37.02],[-97.68,37.01],[-97.65,37],[-97.55,36.97],[-96.95,36.84],[-96.93,36.84],[-96.62,36.79],[-96.6,36.79],[-96.57,36.79],[-96.1,36.78],[-96.07,36.78],[-96.04,36.78],[-96.01,36.78],[-95.97,36.78],[-95.94,36.79],[-78.17,39.74],[-78.15,39.74],[-77.91,39.83],[-77.88,39.84],[-77.87,39.85],[-77.83,39.87],[-77.82,39.89],[-77.76,39.94],[-77.7,39.99],[-77.65,40.05],[-77.64,40.07],[-77.62,40.1],[-77.61,40.12],[-77.6,40.14],[-77.59,40.17],[-77.54,40.42],[-77.53,40.45],[-77.53,40.49],[-77.53,40.52],[-77.52,40.59],[-77.52,40.66],[-77.52,40.69],[-77.53,40.73],[-77.53,40.76],[-77.53,40.79],[-77.54,40.82],[-77.55,40.84],[-77.56,40.86],[-77.57,40.88],[-77.59,40.89],[-77.6,40.9],[-77.62,40.92],[-77.64,40.93],[-77.71,40.97],[-77.73,40.98],[-77.82,41.02],[-77.85,41.02],[-77.88,41.03],[-78.27,41.08],[-78.3,41.09],[-78.34,41.09],[-78.37,41.09],[-78.47,41.09],[-78.58,41.09],[-78.68,41.09],[-78.79,41.09],[-78.82,41.09],[-78.86,41.09],[-98.09,39.25],[-98.12,39.25],[-98.36,39.2],[-98.39,39.2],[-98.59,39.15],[-98.61,39.14],[-98.64,39.13],[-98.66,39.12],[-98.79,39.04],[-98.81,39.03],[-98.83,39.01],[-98.87,38.98],[-98.93,38.92],[-98.98,38.86],[-98.99,38.85],[-99.02,38.81],[-99.03,38.8],[-99.04,38.77],[-99.04,38.74],[-99.04,38.71],[-99.05,38.68]]]}},{"type":"Feature","id":"geom_evt_20250624_southwest_2025_06_24_rain_d1_hover","properties":{"event_id":"evt_20250624_southwest_2025_06_24_rain","day_index":1,"geometry_role":"hover_geometry"},"geometry":{"type":"Polygon","coordinates":[[[-107.88,32.77],[-107.75,32.1],[-107.34,31.77],[-106.68,31.64],[-105.84,31.79],[-105.44,32.04],[-105.1,32.43],[-104.46,35.81],[-104.43,36.13],[-104.53,36.61],[-104.83,36.82],[-105.22,36.8],[-105.59,36.6],[-106.61,35.67],[-107.73,33.83],[-107.82,33.64],[-107.88,32.77]]]}},{"type":"Feature","id":"geom_evt_2025_al01_andrea_d1_hover","properties":{"event_id":"evt_2025_al01_andrea","day_index":1,"geometry_role":"hover_geometry"},"geometry":{"type":"Polygon","coordinates":[[[-58.9,31.5],[-58.7,30.86],[-58.15,30.4],[-57.4,30.23],[-56.65,30.4],[-56.1,30.86],[-55.9,31.5],[-56.1,32.14],[-56.65,32.6],[-57.4,32.78],[-58.15,32.6],[-58.7,32.14],[-58.9,31.5]]]}},{"type":"Feature","id":"geom_evt_2025_al01_andrea_d2_hover","properties":{"event_id":"evt_2025_al01_andrea","day_index":2,"geometry_role":"hover_geometry"},"geometry":{"type":"Polygon","coordinates":[[[-56.4,33.9],[-56.11,32.96],[-55.3,32.28],[-54.2,32.03],[-53.1,32.28],[-52.29,32.96],[-52,33.9],[-52.29,34.84],[-53.1,35.52],[-54.2,35.77],[-55.3,35.52],[-56.11,34.84],[-56.4,33.9]]]}},{"type":"Feature","id":"geom_evt_2025_al01_andrea_d3_hover","properties":{"event_id":"evt_2025_al01_andrea","day_index":3,"geometry_role":"hover_geometry"},"geometry":{"type":"Polygon","coordinates":[[[-50.4,37.3],[-50.11,36.36],[-49.3,35.68],[-48.2,35.43],[-47.1,35.68],[-46.29,36.36],[-46,37.3],[-46.29,38.24],[-47.1,38.92],[-48.2,39.17],[-49.3,38.92],[-50.11,38.24],[-50.4,37.3]]]}},{"type":"Feature","id":"geom_evt_2025_al01_andrea_d4_hover","properties":{"event_id":"evt_2025_al01_andrea","day_index":4,"geometry_role":"hover_geometry"},"geometry":{"type":"Polygon","coordinates":[[[-43.7,39.3],[-43.5,38.66],[-42.95,38.2],[-42.2,38.03],[-41.45,38.2],[-40.9,38.66],[-40.7,39.3],[-40.9,39.94],[-41.45,40.4],[-42.2,40.57],[-42.95,40.4],[-43.5,39.94],[-43.7,39.3]]]}},{"type":"Feature","id":"geom_evt_2025_al02_barry_d1_hover","properties":{"event_id":"evt_2025_al02_barry","day_index":1,"geometry_role":"hover_geometry"},"geometry":{"type":"Polygon","coordinates":[[[-95.4,19.2],[-95.2,18.56],[-94.65,18.1],[-93.9,17.93],[-93.15,18.1],[-92.6,18.56],[-92.4,19.2],[-92.6,19.84],[-93.15,20.3],[-93.9,20.47],[-94.65,20.3],[-95.2,19.84],[-95.4,19.2]]]}},{"type":"Feature","id":"geom_evt_2025_al02_barry_d2_hover","properties":{"event_id":"evt_2025_al02_barry","day_index":2,"geometry_role":"hover_geometry"},"geometry":{"type":"Polygon","coordinates":[[[-98.9,20.9],[-98.61,19.97],[-97.8,19.28],[-96.7,19.03],[-95.6,19.28],[-94.79,19.96],[-94.5,20.9],[-94.79,21.83],[-95.6,22.52],[-96.7,22.77],[-97.8,22.52],[-98.61,21.83],[-98.9,20.9]]]}},{"type":"Feature","id":"geom_evt_2025_al02_barry_d3_hover","properties":{"event_id":"evt_2025_al02_barry","day_index":3,"geometry_role":"hover_geometry"},"geometry":{"type":"Polygon","coordinates":[[[-99.7,22.3],[-99.5,21.66],[-98.95,21.2],[-98.2,21.03],[-97.45,21.2],[-96.9,21.66],[-96.7,22.3],[-96.9,22.94],[-97.45,23.4],[-98.2,23.58],[-98.95,23.4],[-99.5,22.94],[-99.7,22.3]]]}},{"type":"Feature","id":"geom_evt_20250602_central_plains_2025_06_02_severe_d1_hover","properties":{"event_id":"evt_20250602_central_plains_2025_06_02_severe","day_index":1,"geometry_role":"hover_geometry"},"geometry":{"type":"Polygon","coordinates":[[[-102.04,38.39],[-102.03,36.29],[-101.41,35.06],[-100.96,34.85],[-100.25,34.98],[-99.48,35.94],[-99.56,38.73],[-100.12,39.11],[-101.27,39.07],[-102.04,38.39]]]}},{"type":"Feature","id":"geom_evt_20250604_central_plains_2025_06_04_severe_d1_hover","properties":{"event_id":"evt_20250604_central_plains_2025_06_04_severe","day_index":1,"geometry_role":"hover_geometry"},"geometry":{"type":"Polygon","coordinates":[[[-105.58,35.22],[-105.35,34.33],[-104.38,33.81],[-102.5,33.72],[-101.1,34.17],[-100.99,34.75],[-101.33,35.22],[-101.8,35.49],[-103.55,35.93],[-104.74,35.88],[-105.24,35.78],[-105.58,35.22]]]}},{"type":"Feature","id":"geom_evt_20250605_central_plains_2025_06_05_severe_d1_hover","properties":{"event_id":"evt_20250604_central_plains_2025_06_04_severe","day_index":2,"geometry_role":"hover_geometry"},"geometry":{"type":"Polygon","coordinates":[[[-104.08,32.65],[-103.91,30.73],[-103.38,30.44],[-102.75,30.44],[-100.29,32.21],[-99.42,33.04],[-97.18,36.05],[-97.22,36.75],[-98.53,37.41],[-100.13,37.97],[-101.95,38.24],[-102.45,37.93],[-102.7,37.63],[-103.96,33.42],[-104.08,32.65]]]}},{"type":"Feature","id":"geom_evt_20250606_central_plains_2025_06_06_severe_d1_hover","properties":{"event_id":"evt_20250604_central_plains_2025_06_04_severe","day_index":3,"geometry_role":"hover_geometry"},"geometry":{"type":"Polygon","coordinates":[[[-104.77,38.94],[-104.69,38.26],[-103.99,33.57],[-103.44,32.94],[-101.57,32.71],[-100.12,33.37],[-100.09,34.15],[-100.59,37.8],[-103.7,39.24],[-104.5,39.22],[-104.77,38.94]]]}},{"type":"Feature","id":"geom_evt_20250607_southeast_2025_06_07_severe_d1_hover","properties":{"event_id":"evt_20250607_southeast_2025_06_07_severe","day_index":1,"geometry_role":"hover_geometry"},"geometry":{"type":"Polygon","coordinates":[[[-90.87,33.97],[-90.86,33.53],[-85.94,32.96],[-84.88,32.94],[-83.05,33.83],[-83.35,35.01],[-85.45,35.74],[-88.7,35.58],[-90.87,33.97]]]}},{"type":"Feature","id":"geom_evt_20250625_southeast_2025_06_25_severe_d1_hover","properties":{"event_id":"evt_20250625_southeast_2025_06_25_severe","day_index":1,"geometry_role":"hover_geometry"},"geometry":{"type":"Polygon","coordinates":[[[-84.15,33.53],[-83.58,32.86],[-82.65,32.76],[-80.5,33.73],[-79.62,34.56],[-79.76,35.1],[-80.33,35.74],[-81.14,35.78],[-83.01,35.29],[-83.71,34.75],[-84.15,33.53]]]}},{"type":"Feature","id":"geom_evt_20250613_northern_rockies_2025_06_13_severe_d1_hover","properties":{"event_id":"evt_20250613_northern_rockies_2025_06_13_severe","day_index":1,"geometry_role":"hover_geometry"},"geometry":{"type":"Polygon","coordinates":[[[-112.53,47.19],[-112.27,46.21],[-108.05,45.43],[-107.03,45.8],[-108.22,46.96],[-109.62,48.06],[-110.88,48.07],[-112.53,47.19]]]}},{"type":"Feature","id":"geom_evt_20250615_northern_rockies_2025_06_15_severe_d1_hover","properties":{"event_id":"evt_20250615_northern_rockies_2025_06_15_severe","day_index":1,"geometry_role":"hover_geometry"},"geometry":{"type":"Polygon","coordinates":[[[-110.25,46.41],[-110.12,46.02],[-109.73,45.69],[-105.3,44.3],[-104.77,44.3],[-103.91,44.41],[-102.99,44.76],[-102.55,45.09],[-102.11,45.54],[-102.04,46.07],[-102.25,46.66],[-104.1,47.28],[-106.12,47.37],[-108.41,47.34],[-109.41,47.28],[-110.06,46.93],[-110.25,46.41]]]}},{"type":"Feature","id":"geom_evt_20250616_upper_midwest_2025_06_16_severe_d1_hover","properties":{"event_id":"evt_20250616_upper_midwest_2025_06_16_severe","day_index":1,"geometry_role":"hover_geometry"},"geometry":{"type":"Polygon","coordinates":[[[-103.02,41.17],[-102.44,40.59],[-101.94,40.37],[-100.17,40.36],[-99.11,40.47],[-98.5,40.8],[-93.7,43.76],[-92.87,44.36],[-92.2,45.25],[-92.07,45.82],[-92.34,46.4],[-92.82,46.8],[-93.28,47.05],[-93.95,47.21],[-94.61,47.14],[-102.82,41.76],[-103.02,41.17]]]}},{"type":"Feature","id":"geom_evt_20250620_upper_midwest_2025_06_20_severe_d1_hover","properties":{"event_id":"evt_20250620_upper_midwest_2025_06_20_severe","day_index":1,"geometry_role":"hover_geometry"},"geometry":{"type":"Polygon","coordinates":[[[-105.29,47.21],[-104.83,46.62],[-102.57,46.16],[-91.65,46.46],[-91.37,46.55],[-91.21,46.69],[-90.96,47.19],[-91.15,47.49],[-91.68,47.98],[-93.84,48.4],[-95.47,48.5],[-102.49,48.05],[-103.95,47.89],[-104.91,47.74],[-105.29,47.21]]]}},{"type":"Feature","id":"geom_evt_20250618_mid_atlantic_2025_06_18_severe_d1_hover","properties":{"event_id":"evt_20250618_mid_atlantic_2025_06_18_severe","day_index":1,"geometry_role":"hover_geometry"},"geometry":{"type":"Polygon","coordinates":[[[-91.75,36.48],[-91.25,36.4],[-90.45,36.41],[-89.3,36.48],[-88.1,36.68],[-86.11,37.05],[-84.05,38.24],[-83.02,39.25],[-82.98,41.22],[-83.45,42.36],[-84.1,42.85],[-84.72,42.98],[-85.65,42.88],[-86.08,42.77],[-87.18,42.07],[-88.15,41.01],[-91.75,36.84],[-91.75,36.48]]]}},{"type":"Feature","id":"geom_evt_20250619_great_lakes_2025_06_19_severe_d1_hover","properties":{"event_id":"evt_20250619_great_lakes_2025_06_19_severe","day_index":1,"geometry_role":"hover_geometry"},"geometry":{"type":"Polygon","coordinates":[[[-78.64,37.75],[-78.08,37.13],[-77.19,37.06],[-75.84,37.68],[-75.11,38.24],[-74.14,39.7],[-74.03,40.13],[-73.72,41.47],[-74.29,41.62],[-75.38,40.98],[-76.92,39.7],[-78.64,37.75]]]}},{"type":"Feature","id":"geom_evt_20250601_gulf_coast_2025_06_01_severe_d1_hover","properties":{"event_id":"evt_20250601_gulf_coast_2025_06_01_severe","day_index":1,"geometry_role":"hover_geometry"},"geometry":{"type":"Polygon","coordinates":[[[-98.29,31.2],[-98.01,30.78],[-97.18,30.24],[-95.35,29.77],[-94.77,29.94],[-94.5,30.58],[-94.58,31.16],[-95.95,32.69],[-96.52,33.02],[-97.64,32.85],[-98.09,32.27],[-98.29,31.7],[-98.29,31.2]]]}},{"type":"Feature","id":"geom_evt_20250610_central_plains_2025_06_10_severe_d1_hover","properties":{"event_id":"evt_20250610_central_plains_2025_06_10_severe","day_index":1,"geometry_role":"hover_geometry"},"geometry":{"type":"Polygon","coordinates":[[[-105.57,31.78],[-103.69,29.54],[-102.97,29.06],[-100.09,28.1],[-99.85,28.26],[-99.32,28.74],[-99.24,29.52],[-99.62,30.03],[-103.29,32.68],[-103.79,32.83],[-104.53,32.82],[-105.47,32.49],[-105.57,31.78]]]}},{"type":"Feature","id":"geom_evt_20250603_southern_plains_2025_06_03_severe_d1_hover","properties":{"event_id":"evt_20250603_southern_plains_2025_06_03_severe","day_index":1,"geometry_role":"hover_geometry"},"geometry":{"type":"Polygon","coordinates":[[[-101.07,30.79],[-99.88,30.52],[-98.31,30.69],[-96.97,31.92],[-89.8,40.58],[-90.38,41.29],[-91.81,41.23],[-98.36,37.03],[-99.36,36.14],[-100.98,31.69],[-101.07,30.79]]]}},{"type":"Feature","id":"geom_evt_20250611_southern_plains_2025_06_11_severe_d1_hover","properties":{"event_id":"evt_20250611_southern_plains_2025_06_11_severe","day_index":1,"geometry_role":"hover_geometry"},"geometry":{"type":"Polygon","coordinates":[[[-99.11,29.48],[-98.81,28.95],[-98.61,28.75],[-98.08,28.71],[-96.76,29.03],[-94.14,29.9],[-93.88,30.26],[-90,42.93],[-90.27,43.2],[-91.3,43.48],[-95.87,43.71],[-96.05,43.16],[-99.11,29.48]]]}},{"type":"Feature","id":"geom_evt_20250612_northern_plains_2025_06_12_severe_d1_hover","properties":{"event_id":"evt_20250612_northern_plains_2025_06_12_severe","day_index":1,"geometry_role":"hover_geometry"},"geometry":{"type":"Polygon","coordinates":[[[-104.54,41.98],[-103.24,40.19],[-102.49,40.26],[-98.22,43.37],[-97.7,44.27],[-98.7,44.49],[-99.46,44.38],[-104.46,42.5],[-104.54,41.98]]]}},{"type":"Feature","id":"geom_evt_20250614_northern_plains_2025_06_14_severe_d1_hover","properties":{"event_id":"evt_20250614_northern_plains_2025_06_14_severe","day_index":1,"geometry_role":"hover_geometry"},"geometry":{"type":"Polygon","coordinates":[[[-110.77,46.14],[-109.95,45.39],[-97.99,35.44],[-96.97,34.82],[-94.95,34.52],[-93.84,34.51],[-93.43,34.95],[-93.63,35.36],[-100.39,43.89],[-103.01,45.28],[-105.39,46.47],[-107.5,47.27],[-109.57,47.35],[-110.71,47.11],[-110.77,46.14]]]}},{"type":"Feature","id":"geom_evt_20250624_northern_plains_2025_06_24_severe_d1_hover","properties":{"event_id":"evt_20250624_northern_plains_2025_06_24_severe","day_index":1,"geometry_role":"hover_geometry"},"geometry":{"type":"Polygon","coordinates":[[[-106.94,44.21],[-105.12,38.8],[-104.05,38.76],[-101.25,39.54],[-100.87,40.33],[-100.81,40.91],[-101.05,41.5],[-101.75,43.22],[-102.69,44.51],[-103.29,44.97],[-103.85,45.2],[-104.52,45.32],[-104.86,45.36],[-105.7,45.33],[-106.53,45],[-106.94,44.21]]]}},{"type":"Feature","id":"geom_evt_20250622_upper_midwest_2025_06_22_severe_d1_hover","properties":{"event_id":"evt_20250622_upper_midwest_2025_06_22_severe","day_index":1,"geometry_role":"hover_geometry"},"geometry":{"type":"Polygon","coordinates":[[[-104.1,35.05],[-103.99,34.51],[-103.72,34.29],[-103.26,34.28],[-75.8,39.42],[-74.91,40.03],[-75.14,40.88],[-75.65,41.56],[-76.35,42.02],[-87.95,48.15],[-88.44,48.34],[-94.88,49.36],[-95.19,49.34],[-97.37,48.99],[-103.16,42.65],[-103.31,41.84],[-104.1,35.05]]]}},{"type":"Feature","id":"geom_evt_20250627_upper_midwest_2025_06_27_severe_d1_hover","properties":{"event_id":"evt_20250627_upper_midwest_2025_06_27_severe","day_index":1,"geometry_role":"hover_geometry"},"geometry":{"type":"Polygon","coordinates":[[[-103.11,44.79],[-101.85,41.26],[-100.54,41.19],[-86.35,40.83],[-85.31,40.94],[-82.97,41.4],[-82.6,41.7],[-82.1,43.62],[-82.2,44.15],[-82.34,44.65],[-97.34,48.99],[-99.69,49],[-101.73,48.99],[-102.55,47.66],[-103.11,44.79]]]}},{"type":"Feature","id":"geom_evt_20250628_upper_midwest_2025_06_28_severe_d1_hover","properties":{"event_id":"evt_20250627_upper_midwest_2025_06_27_severe","day_index":2,"geometry_role":"hover_geometry"},"geometry":{"type":"Polygon","coordinates":[[[-105.23,44.91],[-105.17,43.77],[-103.67,42.56],[-101.04,41.39],[-77.19,39.43],[-75.96,39.44],[-74.57,40.35],[-73.15,41.82],[-73.08,42.53],[-73.8,42.76],[-95.24,47.11],[-105.23,44.91]]]}},{"type":"Feature","id":"geom_evt_20250629_upper_midwest_2025_06_29_severe_d1_hover","properties":{"event_id":"evt_20250627_upper_midwest_2025_06_27_severe","day_index":3,"geometry_role":"hover_geometry"},"geometry":{"type":"Polygon","coordinates":[[[-105.52,43.28],[-104.92,39.75],[-104.4,38.89],[-102.55,38.15],[-95.24,37.31],[-93.24,37.32],[-87.64,43.77],[-86.56,45.13],[-86.15,45.9],[-86.32,46.36],[-86.8,46.54],[-88.24,46.54],[-104.48,44.44],[-105.51,44.14],[-105.52,43.28]]]}},{"type":"Feature","id":"geom_evt_20250623_mid_atlantic_2025_06_23_severe_d1_hover","properties":{"event_id":"evt_20250623_mid_atlantic_2025_06_23_severe","day_index":1,"geometry_role":"hover_geometry"},"geometry":{"type":"Polygon","coordinates":[[[-99.57,39.4],[-99.5,39.05],[-99.42,38.75],[-99.07,38.65],[-98.33,38.57],[-96.97,39.03],[-82.47,45.14],[-82.53,45.34],[-83.52,46.1],[-84.14,46.51],[-84.85,46.89],[-85.58,47.18],[-88.04,46.25],[-90.91,44.88],[-92.88,43.75],[-97.63,40.71],[-99.57,39.4]]]}},{"type":"Feature","id":"geom_evt_20250626_mid_atlantic_2025_06_26_severe_d1_hover","properties":{"event_id":"evt_20250626_mid_atlantic_2025_06_26_severe","day_index":1,"geometry_role":"hover_geometry"},"geometry":{"type":"Polygon","coordinates":[[[-95.7,40.62],[-95.51,39.56],[-84.84,33.29],[-83.26,33.68],[-77.61,37.47],[-75.73,39.13],[-75.57,40.26],[-76,41.06],[-76.45,41.21],[-90.07,44.91],[-90.77,44.97],[-91.55,44.86],[-92.18,44.74],[-93.33,44.4],[-94.22,43.63],[-95.67,41.48],[-95.7,40.62]]]}},{"type":"Feature","id":"geom_evt_20250621_great_lakes_2025_06_21_severe_d1_hover","properties":{"event_id":"evt_20250621_great_lakes_2025_06_21_severe","day_index":1,"geometry_role":"hover_geometry"},"geometry":{"type":"Polygon","coordinates":[[[-77.09,43.62],[-76.54,43.15],[-75.23,42.88],[-73.7,43.05],[-72.64,43.72],[-71.91,45.02],[-74.88,45.03],[-75.49,44.76],[-76.38,44.15],[-77.09,43.62]]]}}]}