{"type":"FeatureCollection","features":[{"type":"Feature","id":"geom_evt_2025_al05_erin_d1_hover","properties":{"event_id":"evt_2025_al05_erin","day_index":1,"geometry_role":"hover_geometry"},"geometry":{"type":"Polygon","coordinates":[[[-31.5,17.4],[-31.21,16.47],[-30.4,15.78],[-29.3,15.53],[-28.2,15.78],[-27.39,16.46],[-27.1,17.4],[-27.39,18.33],[-28.2,19.02],[-29.3,19.27],[-30.4,19.02],[-31.21,18.33],[-31.5,17.4]]]}},{"type":"Feature","id":"geom_evt_2025_al05_erin_d2_hover","properties":{"event_id":"evt_2025_al05_erin","day_index":2,"geometry_role":"hover_geometry"},"geometry":{"type":"Polygon","coordinates":[[[-39.6,17.1],[-39.31,16.17],[-38.5,15.48],[-37.4,15.23],[-36.3,15.48],[-35.49,16.17],[-35.2,17.1],[-35.49,18.04],[-36.3,18.72],[-37.4,18.97],[-38.5,18.72],[-39.31,18.04],[-39.6,17.1]]]}},{"type":"Feature","id":"geom_evt_2025_al05_erin_d3_hover","properties":{"event_id":"evt_2025_al05_erin","day_index":3,"geometry_role":"hover_geometry"},"geometry":{"type":"Polygon","coordinates":[[[-46.5,16.3],[-46.21,15.37],[-45.4,14.68],[-44.3,14.43],[-43.2,14.68],[-42.39,15.37],[-42.1,16.3],[-42.39,17.24],[-43.2,17.92],[-44.3,18.17],[-45.4,17.92],[-46.21,17.24],[-46.5,16.3]]]}},{"type":"Feature","id":"geom_evt_2025_al05_erin_d4_hover","properties":{"event_id":"evt_2025_al05_erin","day_index":4,"geometry_role":"hover_geometry"},"geometry":{"type":"Polygon","coordinates":[[[-52.6,16.6],[-52.31,15.67],[-51.5,14.98],[-50.4,14.73],[-49.3,14.98],[-48.49,15.67],[-48.2,16.6],[-48.49,17.54],[-49.3,18.22],[-50.4,18.47],[-51.5,18.22],[-52.31,17.54],[-52.6,16.6]]]}},{"type":"Feature","id":"geom_evt_2025_al05_erin_d5_hover","properties":{"event_id":"evt_2025_al05_erin","day_index":5,"geometry_role":"hover_geometry"},"geometry":{"type":"Polygon","coordinates":[[[-59.8,18.7],[-59.4,17.43],[-58.3,16.49],[-56.8,16.15],[-55.3,16.49],[-54.2,17.42],[-53.8,18.7],[-54.2,19.97],[-55.3,20.91],[-56.8,21.25],[-58.3,20.91],[-59.4,19.97],[-59.8,18.7]]]}},{"type":"Feature","id":"geom_evt_2025_al05_erin_d6_hover","properties":{"event_id":"evt_2025_al05_erin","day_index":6,"geometry_role":"hover_geometry"},"geometry":{"type":"Polygon","coordinates":[[[-66.4,19.8],[-66,18.53],[-64.9,17.59],[-63.4,17.25],[-61.9,17.59],[-60.8,18.52],[-60.4,19.8],[-60.8,21.08],[-61.9,22.01],[-63.4,22.35],[-64.9,22.01],[-66,21.08],[-66.4,19.8]]]}},{"type":"Feature","id":"geom_evt_2025_al05_erin_d7_hover","properties":{"event_id":"evt_2025_al05_erin","day_index":7,"geometry_role":"hover_geometry"},"geometry":{"type":"Polygon","coordinates":[[[-71,21.5],[-70.6,20.23],[-69.5,19.29],[-68,18.95],[-66.5,19.29],[-65.4,20.22],[-65,21.5],[-65.4,22.78],[-66.5,23.71],[-68,24.05],[-69.5,23.71],[-70.6,22.78],[-71,21.5]]]}},{"type":"Feature","id":"geom_evt_2025_al05_erin_d8_hover","properties":{"event_id":"evt_2025_al05_erin","day_index":8,"geometry_role":"hover_geometry"},"geometry":{"type":"Polygon","coordinates":[[[-74,23.5],[-73.6,22.23],[-72.5,21.29],[-71,20.95],[-69.5,21.29],[-68.4,22.23],[-68,23.5],[-68.4,24.78],[-69.5,25.71],[-71,26.05],[-72.5,25.71],[-73.6,24.78],[-74,23.5]]]}},{"type":"Feature","id":"geom_evt_2025_al05_erin_d9_hover","properties":{"event_id":"evt_2025_al05_erin","day_index":9,"geometry_role":"hover_geometry"},"geometry":{"type":"Polygon","coordinates":[[[-75.5,26.1],[-75.1,24.83],[-74,23.89],[-72.5,23.55],[-71,23.89],[-69.9,24.83],[-69.5,26.1],[-69.9,27.38],[-71,28.31],[-72.5,28.65],[-74,28.31],[-75.1,27.38],[-75.5,26.1]]]}},{"type":"Feature","id":"geom_evt_2025_al05_erin_d10_hover","properties":{"event_id":"evt_2025_al05_erin","day_index":10,"geometry_role":"hover_geometry"},"geometry":{"type":"Polygon","coordinates":[[[-76.6,30.7],[-76.2,29.43],[-75.1,28.49],[-73.6,28.15],[-72.1,28.49],[-71,29.42],[-70.6,30.7],[-71,31.98],[-72.1,32.91],[-73.6,33.25],[-75.1,32.91],[-76.2,31.98],[-76.6,30.7]]]}},{"type":"Feature","id":"geom_evt_2025_al05_erin_d11_hover","properties":{"event_id":"evt_2025_al05_erin","day_index":11,"geometry_role":"hover_geometry"},"geometry":{"type":"Polygon","coordinates":[[[-73.1,35.9],[-72.7,34.63],[-71.6,33.69],[-70.1,33.35],[-68.6,33.69],[-67.5,34.63],[-67.1,35.9],[-67.5,37.17],[-68.6,38.11],[-70.1,38.45],[-71.6,38.11],[-72.7,37.17],[-73.1,35.9]]]}},{"type":"Feature","id":"geom_evt_2025_al05_erin_d12_hover","properties":{"event_id":"evt_2025_al05_erin","day_index":12,"geometry_role":"hover_geometry"},"geometry":{"type":"Polygon","coordinates":[[[-64.4,39.4],[-64,38.13],[-62.9,37.19],[-61.4,36.85],[-59.9,37.19],[-58.8,38.13],[-58.4,39.4],[-58.8,40.67],[-59.9,41.61],[-61.4,41.95],[-62.9,41.61],[-64,40.67],[-64.4,39.4]]]}},{"type":"Feature","id":"geom_evt_2025_al05_erin_d13_hover","properties":{"event_id":"evt_2025_al05_erin","day_index":13,"geometry_role":"hover_geometry"},"geometry":{"type":"Polygon","coordinates":[[[-48,43],[-47.6,41.73],[-46.5,40.79],[-45,40.45],[-43.5,40.79],[-42.4,41.73],[-42,43],[-42.4,44.28],[-43.5,45.21],[-45,45.55],[-46.5,45.21],[-47.6,44.28],[-48,43]]]}},{"type":"Feature","id":"geom_evt_2025_al05_erin_d14_hover","properties":{"event_id":"evt_2025_al05_erin","day_index":14,"geometry_role":"hover_geometry"},"geometry":{"type":"Polygon","coordinates":[[[-31.2,52.6],[-30.8,51.33],[-29.7,50.39],[-28.2,50.05],[-26.7,50.39],[-25.6,51.33],[-25.2,52.6],[-25.6,53.88],[-26.7,54.81],[-28.2,55.15],[-29.7,54.81],[-30.8,53.88],[-31.2,52.6]]]}},{"type":"Feature","id":"geom_evt_2025_al05_erin_d15_hover","properties":{"event_id":"evt_2025_al05_erin","day_index":15,"geometry_role":"hover_geometry"},"geometry":{"type":"Polygon","coordinates":[[[-23.5,57.3],[-23.21,56.36],[-22.4,55.68],[-21.3,55.43],[-20.2,55.68],[-19.39,56.36],[-19.1,57.3],[-19.39,58.24],[-20.2,58.92],[-21.3,59.17],[-22.4,58.92],[-23.21,58.24],[-23.5,57.3]]]}},{"type":"Feature","id":"geom_evt_2025_al05_erin_d16_hover","properties":{"event_id":"evt_2025_al05_erin","day_index":16,"geometry_role":"hover_geometry"},"geometry":{"type":"Polygon","coordinates":[[[-24.7,60.3],[-24.41,59.36],[-23.6,58.68],[-22.5,58.43],[-21.4,58.68],[-20.59,59.36],[-20.3,60.3],[-20.59,61.24],[-21.4,61.92],[-22.5,62.17],[-23.6,61.92],[-24.41,61.24],[-24.7,60.3]]]}},{"type":"Feature","id":"geom_evt_2025_al05_erin_d17_hover","properties":{"event_id":"evt_2025_al05_erin","day_index":17,"geometry_role":"hover_geometry"},"geometry":{"type":"Polygon","coordinates":[[[-21.2,58],[-20.91,57.07],[-20.1,56.38],[-19,56.13],[-17.9,56.38],[-17.09,57.07],[-16.8,58],[-17.09,58.94],[-17.9,59.62],[-19,59.87],[-20.1,59.62],[-20.91,58.94],[-21.2,58]]]}},{"type":"Feature","id":"geom_evt_2025_al04_dexter_d1_hover","properties":{"event_id":"evt_2025_al04_dexter","day_index":1,"geometry_role":"hover_geometry"},"geometry":{"type":"Polygon","coordinates":[[[-77.1,33.2],[-76.9,32.56],[-76.35,32.1],[-75.6,31.93],[-74.85,32.1],[-74.3,32.56],[-74.1,33.2],[-74.3,33.84],[-74.85,34.3],[-75.6,34.48],[-76.35,34.3],[-76.9,33.84],[-77.1,33.2]]]}},{"type":"Feature","id":"geom_evt_2025_al04_dexter_d2_hover","properties":{"event_id":"evt_2025_al04_dexter","day_index":2,"geometry_role":"hover_geometry"},"geometry":{"type":"Polygon","coordinates":[[[-73.2,33.7],[-72.91,32.77],[-72.1,32.08],[-71,31.83],[-69.9,32.08],[-69.09,32.77],[-68.8,33.7],[-69.09,34.64],[-69.9,35.32],[-71,35.57],[-72.1,35.32],[-72.91,34.64],[-73.2,33.7]]]}},{"type":"Feature","id":"geom_evt_2025_al04_dexter_d3_hover","properties":{"event_id":"evt_2025_al04_dexter","day_index":3,"geometry_role":"hover_geometry"},"geometry":{"type":"Polygon","coordinates":[[[-69.1,35.7],[-68.81,34.77],[-68,34.08],[-66.9,33.83],[-65.8,34.08],[-64.99,34.77],[-64.7,35.7],[-64.99,36.64],[-65.8,37.32],[-66.9,37.57],[-68,37.32],[-68.81,36.64],[-69.1,35.7]]]}},{"type":"Feature","id":"geom_evt_2025_al04_dexter_d4_hover","properties":{"event_id":"evt_2025_al04_dexter","day_index":4,"geometry_role":"hover_geometry"},"geometry":{"type":"Polygon","coordinates":[[[-65,38.2],[-64.71,37.27],[-63.9,36.58],[-62.8,36.33],[-61.7,36.58],[-60.89,37.27],[-60.6,38.2],[-60.89,39.14],[-61.7,39.82],[-62.8,40.07],[-63.9,39.82],[-64.71,39.14],[-65,38.2]]]}},{"type":"Feature","id":"geom_evt_2025_al04_dexter_d5_hover","properties":{"event_id":"evt_2025_al04_dexter","day_index":5,"geometry_role":"hover_geometry"},"geometry":{"type":"Polygon","coordinates":[[[-59.4,39.8],[-59.11,38.86],[-58.3,38.18],[-57.2,37.93],[-56.1,38.18],[-55.29,38.86],[-55,39.8],[-55.29,40.74],[-56.1,41.42],[-57.2,41.67],[-58.3,41.42],[-59.11,40.74],[-59.4,39.8]]]}},{"type":"Feature","id":"geom_evt_2025_al04_dexter_d6_hover","properties":{"event_id":"evt_2025_al04_dexter","day_index":6,"geometry_role":"hover_geometry"},"geometry":{"type":"Polygon","coordinates":[[[-51.1,41.4],[-50.81,40.46],[-50,39.78],[-48.9,39.53],[-47.8,39.78],[-46.99,40.46],[-46.7,41.4],[-46.99,42.34],[-47.8,43.02],[-48.9,43.27],[-50,43.02],[-50.81,42.34],[-51.1,41.4]]]}},{"type":"Feature","id":"geom_evt_2025_al04_dexter_d7_hover","properties":{"event_id":"evt_2025_al04_dexter","day_index":7,"geometry_role":"hover_geometry"},"geometry":{"type":"Polygon","coordinates":[[[-43.8,45.2],[-43.51,44.27],[-42.7,43.58],[-41.6,43.33],[-40.5,43.58],[-39.69,44.27],[-39.4,45.2],[-39.69,46.14],[-40.5,46.82],[-41.6,47.07],[-42.7,46.82],[-43.51,46.14],[-43.8,45.2]]]}},{"type":"Feature","id":"geom_evt_2025_al04_dexter_d8_hover","properties":{"event_id":"evt_2025_al04_dexter","day_index":8,"geometry_role":"hover_geometry"},"geometry":{"type":"Polygon","coordinates":[[[-33.7,46.4],[-33.41,45.47],[-32.6,44.78],[-31.5,44.53],[-30.4,44.78],[-29.59,45.47],[-29.3,46.4],[-29.59,47.34],[-30.4,48.02],[-31.5,48.27],[-32.6,48.02],[-33.41,47.34],[-33.7,46.4]]]}},{"type":"Feature","id":"geom_evt_2025_al04_dexter_d9_hover","properties":{"event_id":"evt_2025_al04_dexter","day_index":9,"geometry_role":"hover_geometry"},"geometry":{"type":"Polygon","coordinates":[[[-26,47.9],[-25.8,47.26],[-25.25,46.8],[-24.5,46.63],[-23.75,46.8],[-23.2,47.26],[-23,47.9],[-23.2,48.54],[-23.75,49],[-24.5,49.18],[-25.25,49],[-25.8,48.54],[-26,47.9]]]}},{"type":"Feature","id":"geom_evt_2025_al04_dexter_d10_hover","properties":{"event_id":"evt_2025_al04_dexter","day_index":10,"geometry_role":"hover_geometry"},"geometry":{"type":"Polygon","coordinates":[[[-20.8,48.6],[-20.6,47.96],[-20.05,47.5],[-19.3,47.33],[-18.55,47.5],[-18,47.96],[-17.8,48.6],[-18,49.24],[-18.55,49.7],[-19.3,49.88],[-20.05,49.7],[-20.6,49.24],[-20.8,48.6]]]}},{"type":"Feature","id":"geom_evt_2025_al04_dexter_d11_hover","properties":{"event_id":"evt_2025_al04_dexter","day_index":11,"geometry_role":"hover_geometry"},"geometry":{"type":"Polygon","coordinates":[[[-16.3,48.7],[-16.1,48.06],[-15.55,47.6],[-14.8,47.43],[-14.05,47.6],[-13.5,48.06],[-13.3,48.7],[-13.5,49.34],[-14.05,49.8],[-14.8,49.98],[-15.55,49.8],[-16.1,49.34],[-16.3,48.7]]]}},{"type":"Feature","id":"geom_evt_2025_al04_dexter_d12_hover","properties":{"event_id":"evt_2025_al04_dexter","day_index":12,"geometry_role":"hover_geometry"},"geometry":{"type":"Polygon","coordinates":[[[-13.7,49.4],[-13.5,48.76],[-12.95,48.3],[-12.2,48.13],[-11.45,48.3],[-10.9,48.76],[-10.7,49.4],[-10.9,50.04],[-11.45,50.5],[-12.2,50.68],[-12.95,50.5],[-13.5,50.04],[-13.7,49.4]]]}},{"type":"Feature","id":"geom_evt_20250802_southwest_2025_08_02_fire_d1_hover","properties":{"event_id":"evt_20250802_southwest_2025_08_02_fire","day_index":1,"geometry_role":"hover_geometry"},"geometry":{"type":"Polygon","coordinates":[[[-112.99,37.15],[-112.95,37],[-112.05,36.77],[-109.96,36.92],[-108.86,37.11],[-107.47,41.04],[-107.94,41.23],[-110.42,40.35],[-112.99,37.15]]]}},{"type":"Feature","id":"geom_evt_20250804_southwest_2025_08_04_fire_d1_hover","properties":{"event_id":"evt_20250804_southwest_2025_08_04_fire","day_index":1,"geometry_role":"hover_geometry"},"geometry":{"type":"Polygon","coordinates":[[[-114.34,38.59],[-114.16,37.62],[-113.85,36.88],[-113.44,36.38],[-113,36.17],[-112.11,36.23],[-109.56,37.94],[-107.7,39.77],[-106.4,41.65],[-106.33,41.87],[-106.53,42.09],[-108.02,42.76],[-109.5,43.07],[-110.16,43.04],[-110.56,42.8],[-114.1,39.47],[-114.34,38.59]]]}},{"type":"Feature","id":"geom_evt_20250805_southwest_2025_08_05_fire_d1_hover","properties":{"event_id":"evt_20250804_southwest_2025_08_04_fire","day_index":2,"geometry_role":"hover_geometry"},"geometry":{"type":"Polygon","coordinates":[[[-114.34,38.62],[-114.19,37.64],[-113.78,36.89],[-113.37,36.46],[-112.69,36.45],[-111.82,36.75],[-108.68,38.69],[-107.14,40.22],[-107.24,40.8],[-107.79,41.01],[-108.74,40.92],[-113.69,39.75],[-114.25,39.4],[-114.34,38.62]]]}},{"type":"Feature","id":"geom_evt_20250806_southwest_2025_08_06_fire_d1_hover","properties":{"event_id":"evt_20250804_southwest_2025_08_04_fire","day_index":3,"geometry_role":"hover_geometry"},"geometry":{"type":"Polygon","coordinates":[[[-116.45,37.69],[-115.97,36.99],[-111.88,36.77],[-106.92,39.92],[-106.61,40.34],[-106.67,40.76],[-106.85,41.53],[-106.99,41.88],[-107.83,42.23],[-109.06,42.56],[-110.12,42.44],[-115.55,39.82],[-116.33,39.27],[-116.44,38.6],[-116.45,37.69]]]}},{"type":"Feature","id":"geom_evt_20250808_southwest_2025_08_08_fire_d1_hover","properties":{"event_id":"evt_20250808_southwest_2025_08_08_fire","day_index":1,"geometry_role":"hover_geometry"},"geometry":{"type":"Polygon","coordinates":[[[-114.88,36.35],[-114.66,36.09],[-114.2,35.94],[-113.74,35.82],[-112.88,35.77],[-112.16,35.74],[-111.34,35.81],[-110.53,35.98],[-109.87,36.17],[-109.19,36.49],[-108.55,36.87],[-108.12,37.23],[-106.92,38.93],[-106.34,39.93],[-106.07,40.43],[-106.02,40.79],[-106.41,42.69],[-106.96,42.94],[-107.85,43.03],[-108.75,42.88],[-109.72,42.66],[-110.26,42.27],[-114.85,36.75],[-114.88,36.35]]]}},{"type":"Feature","id":"geom_evt_20250807_northern_rockies_2025_08_07_fire_d1_hover","properties":{"event_id":"evt_20250807_northern_rockies_2025_08_07_fire","day_index":1,"geometry_role":"hover_geometry"},"geometry":{"type":"Polygon","coordinates":[[[-116.28,38.78],[-115.94,37.5],[-114.74,36.59],[-113.01,36.5],[-110.93,36.76],[-109.05,38.09],[-105.37,41.42],[-104.98,42.03],[-105.2,42.81],[-106.15,43.41],[-108.15,43.32],[-110.23,42.29],[-114.77,39.76],[-116.28,38.78]]]}},{"type":"Feature","id":"geom_evt_20250813_desert_southwest_2025_08_13_fire_d1_hover","properties":{"event_id":"evt_20250813_desert_southwest_2025_08_13_fire","day_index":1,"geometry_role":"hover_geometry"},"geometry":{"type":"Polygon","coordinates":[[[-115.57,42.47],[-114.86,42.19],[-113.41,42.31],[-112.1,42.71],[-111.23,43.37],[-111.54,44.03],[-112.05,44.03],[-113.24,43.79],[-114.55,43.24],[-115.31,42.8],[-115.57,42.47]]]}},{"type":"Feature","id":"geom_evt_20250809_upper_midwest_2025_08_09_rain_d1_hover","properties":{"event_id":"evt_20250809_upper_midwest_2025_08_09_rain","day_index":1,"geometry_role":"hover_geometry"},"geometry":{"type":"Polygon","coordinates":[[[-94.54,40.74],[-94.48,40.56],[-94.19,40.25],[-93.62,40.07],[-92.58,40.15],[-91.94,40.4],[-91.53,40.7],[-88.83,43.21],[-88.7,43.33],[-88.44,43.71],[-88.42,43.88],[-88.54,43.97],[-88.89,44.07],[-89.79,44.14],[-90.51,43.99],[-91.12,43.7],[-93.77,42.05],[-94.12,41.79],[-94.48,41.26],[-94.54,40.74]]]}},{"type":"Feature","id":"geom_evt_20250810_southern_plains_2025_08_10_rain_d1_hover","properties":{"event_id":"evt_20250810_southern_plains_2025_08_10_rain","day_index":1,"geometry_role":"hover_geometry"},"geometry":{"type":"Polygon","coordinates":[[[-99.77,37.49],[-99.65,37.18],[-99.13,36.88],[-98.46,36.76],[-97.35,36.87],[-95.11,37.46],[-93.93,37.99],[-93.53,38.39],[-93.52,38.7],[-93.75,38.84],[-94.32,38.84],[-98.61,38.05],[-99.62,37.76],[-99.77,37.49]]]}},{"type":"Feature","id":"geom_evt_20250827_southern_plains_2025_08_27_rain_d1_hover","properties":{"event_id":"evt_20250827_southern_plains_2025_08_27_rain","day_index":1,"geometry_role":"hover_geometry"},"geometry":{"type":"Polygon","coordinates":[[[-98.23,38.41],[-98,38.19],[-96.4,37.46],[-94.5,36.66],[-94.17,36.66],[-94.11,36.93],[-95.17,37.77],[-96.93,38.74],[-97.68,38.91],[-97.96,38.9],[-98.13,38.77],[-98.23,38.41]]]}},{"type":"Feature","id":"geom_evt_2025_al06_fernand_d1_hover","properties":{"event_id":"evt_2025_al06_fernand","day_index":1,"geometry_role":"hover_geometry"},"geometry":{"type":"Polygon","coordinates":[[[-63.9,26.6],[-63.61,25.67],[-62.8,24.98],[-61.7,24.73],[-60.6,24.98],[-59.79,25.67],[-59.5,26.6],[-59.79,27.54],[-60.6,28.22],[-61.7,28.47],[-62.8,28.22],[-63.61,27.54],[-63.9,26.6]]]}},{"type":"Feature","id":"geom_evt_2025_al06_fernand_d2_hover","properties":{"event_id":"evt_2025_al06_fernand","day_index":2,"geometry_role":"hover_geometry"},"geometry":{"type":"Polygon","coordinates":[[[-62.2,31.3],[-61.91,30.37],[-61.1,29.68],[-60,29.43],[-58.9,29.68],[-58.09,30.37],[-57.8,31.3],[-58.09,32.24],[-58.9,32.92],[-60,33.17],[-61.1,32.92],[-61.91,32.24],[-62.2,31.3]]]}},{"type":"Feature","id":"geom_evt_2025_al06_fernand_d3_hover","properties":{"event_id":"evt_2025_al06_fernand","day_index":3,"geometry_role":"hover_geometry"},"geometry":{"type":"Polygon","coordinates":[[[-59.8,34.8],[-59.51,33.86],[-58.7,33.18],[-57.6,32.93],[-56.5,33.18],[-55.69,33.86],[-55.4,34.8],[-55.69,35.74],[-56.5,36.42],[-57.6,36.67],[-58.7,36.42],[-59.51,35.74],[-59.8,34.8]]]}},{"type":"Feature","id":"geom_evt_2025_al06_fernand_d4_hover","properties":{"event_id":"evt_2025_al06_fernand","day_index":4,"geometry_role":"hover_geometry"},"geometry":{"type":"Polygon","coordinates":[[[-56.2,37.8],[-55.91,36.86],[-55.1,36.18],[-54,35.93],[-52.9,36.18],[-52.09,36.86],[-51.8,37.8],[-52.09,38.74],[-52.9,39.42],[-54,39.67],[-55.1,39.42],[-55.91,38.74],[-56.2,37.8]]]}},{"type":"Feature","id":"geom_evt_2025_al06_fernand_d5_hover","properties":{"event_id":"evt_2025_al06_fernand","day_index":5,"geometry_role":"hover_geometry"},"geometry":{"type":"Polygon","coordinates":[[[-50.6,38.9],[-50.31,37.96],[-49.5,37.28],[-48.4,37.03],[-47.3,37.28],[-46.49,37.96],[-46.2,38.9],[-46.49,39.84],[-47.3,40.52],[-48.4,40.77],[-49.5,40.52],[-50.31,39.84],[-50.6,38.9]]]}},{"type":"Feature","id":"geom_evt_2025_al06_fernand_d6_hover","properties":{"event_id":"evt_2025_al06_fernand","day_index":6,"geometry_role":"hover_geometry"},"geometry":{"type":"Polygon","coordinates":[[[-41.3,43],[-41.01,42.07],[-40.2,41.38],[-39.1,41.13],[-38,41.38],[-37.19,42.07],[-36.9,43],[-37.19,43.94],[-38,44.62],[-39.1,44.87],[-40.2,44.62],[-41.01,43.94],[-41.3,43]]]}},{"type":"Feature","id":"geom_evt_20250807_northern_plains_2025_08_07_severe_d1_hover","properties":{"event_id":"evt_20250807_northern_plains_2025_08_07_severe","day_index":1,"geometry_role":"hover_geometry"},"geometry":{"type":"Polygon","coordinates":[[[-104.06,47.66],[-103.82,47.04],[-102.77,46.3],[-101.66,46.07],[-99.66,45.83],[-98.05,45.96],[-96.64,46.69],[-96.51,47.31],[-96.77,47.68],[-97.63,48.07],[-99.29,48.53],[-102.83,48.76],[-104.01,48.33],[-104.06,47.66]]]}},{"type":"Feature","id":"geom_evt_20250801_northern_plains_2025_08_01_severe_d1_hover","properties":{"event_id":"evt_20250801_northern_plains_2025_08_01_severe","day_index":1,"geometry_role":"hover_geometry"},"geometry":{"type":"Polygon","coordinates":[[[-105.03,41.02],[-103.77,38.47],[-103.3,38.29],[-102.8,38.27],[-102.17,38.87],[-101.32,40.69],[-100.37,43.7],[-100.33,44.64],[-101.18,45.65],[-101.83,45.73],[-102.9,45.66],[-103.79,44.84],[-104.94,41.79],[-105.03,41.02]]]}},{"type":"Feature","id":"geom_evt_20250804_northern_plains_2025_08_04_severe_d1_hover","properties":{"event_id":"evt_20250804_northern_plains_2025_08_04_severe","day_index":1,"geometry_role":"hover_geometry"},"geometry":{"type":"Polygon","coordinates":[[[-112.08,46.81],[-103.41,36.09],[-102.25,35.14],[-101.62,35.14],[-101.34,35.62],[-99.1,41.09],[-99.08,43.01],[-99.95,44.01],[-106.03,48.3],[-106.94,48.6],[-108.07,48.8],[-109.02,48.86],[-111,48.7],[-111.92,47.74],[-112.08,46.81]]]}},{"type":"Feature","id":"geom_evt_20250805_northern_plains_2025_08_05_severe_d1_hover","properties":{"event_id":"evt_20250804_northern_plains_2025_08_04_severe","day_index":2,"geometry_role":"hover_geometry"},"geometry":{"type":"Polygon","coordinates":[[[-104,44.5],[-103.4,43.54],[-102.5,43.1],[-100.79,42.97],[-98.35,42.88],[-97.48,43.06],[-97.12,43.65],[-97.08,45.43],[-98,47.36],[-99.09,47.84],[-100.36,48.18],[-101.98,48.21],[-102.98,47.76],[-103.33,47.23],[-103.93,45.21],[-104,44.5]]]}},{"type":"Feature","id":"geom_evt_20250813_northern_plains_2025_08_13_severe_d1_hover","properties":{"event_id":"evt_20250813_northern_plains_2025_08_13_severe","day_index":1,"geometry_role":"hover_geometry"},"geometry":{"type":"Polygon","coordinates":[[[-104.2,44.33],[-103.97,43.73],[-103.3,43.11],[-102.16,42.69],[-100.83,42.48],[-99.29,42.45],[-98.35,42.82],[-98.05,43.35],[-98.39,43.85],[-99.48,44.32],[-100.5,44.58],[-101.93,44.84],[-103.08,44.93],[-104.03,44.76],[-104.2,44.33]]]}},{"type":"Feature","id":"geom_evt_20250829_northern_plains_2025_08_29_severe_d1_hover","properties":{"event_id":"evt_20250829_northern_plains_2025_08_29_severe","day_index":1,"geometry_role":"hover_geometry"},"geometry":{"type":"Polygon","coordinates":[[[-101.67,41.44],[-101.57,40.58],[-101.25,40.37],[-100.64,40.23],[-99.62,40.82],[-99.07,42.05],[-99.14,42.66],[-99.71,42.9],[-100.31,42.94],[-101.05,42.7],[-101.67,41.44]]]}},{"type":"Feature","id":"geom_evt_20250802_central_plains_2025_08_02_severe_d1_hover","properties":{"event_id":"evt_20250802_central_plains_2025_08_02_severe","day_index":1,"geometry_role":"hover_geometry"},"geometry":{"type":"Polygon","coordinates":[[[-104.07,40.08],[-103.96,36.63],[-103.29,35.06],[-101.52,33.73],[-100.48,33.71],[-99.69,33.99],[-99.3,34.44],[-99.38,35.28],[-101.55,41.54],[-102.48,42.03],[-103.77,41.63],[-104.07,40.08]]]}},{"type":"Feature","id":"geom_evt_20250803_central_plains_2025_08_03_severe_d1_hover","properties":{"event_id":"evt_20250802_central_plains_2025_08_02_severe","day_index":2,"geometry_role":"hover_geometry"},"geometry":{"type":"Polygon","coordinates":[[[-103.29,38.54],[-102.9,32.47],[-102.47,32.05],[-102.02,31.63],[-100.72,31.45],[-100.03,31.72],[-99.61,32.17],[-99.48,32.65],[-101.66,38.83],[-102.64,38.88],[-103.29,38.54]]]}},{"type":"Feature","id":"geom_evt_20250810_central_plains_2025_08_10_severe_d1_hover","properties":{"event_id":"evt_20250810_central_plains_2025_08_10_severe","day_index":1,"geometry_role":"hover_geometry"},"geometry":{"type":"Polygon","coordinates":[[[-105.24,39.95],[-105.23,38.42],[-104.95,36.52],[-104.64,36.27],[-100.05,36.28],[-98.9,36.49],[-98.32,36.89],[-98.24,37.64],[-98.54,38.14],[-103.82,39.89],[-104.85,40.04],[-105.24,39.95]]]}},{"type":"Feature","id":"geom_evt_20250808_upper_midwest_2025_08_08_severe_d1_hover","properties":{"event_id":"evt_20250808_upper_midwest_2025_08_08_severe","day_index":1,"geometry_role":"hover_geometry"},"geometry":{"type":"Polygon","coordinates":[[[-98.39,43.63],[-97.71,43.2],[-95.29,43.52],[-91.51,45],[-89.23,46.58],[-88.69,47.88],[-88.71,48.23],[-94.44,48.75],[-95.88,47.6],[-97.2,45.78],[-98.39,43.63]]]}},{"type":"Feature","id":"geom_evt_20250809_upper_midwest_2025_08_09_severe_d1_hover","properties":{"event_id":"evt_20250808_upper_midwest_2025_08_08_severe","day_index":2,"geometry_role":"hover_geometry"},"geometry":{"type":"Polygon","coordinates":[[[-105.08,38.98],[-104.76,38.29],[-103.96,37.6],[-102.83,37.22],[-99.71,37.89],[-92.03,39.84],[-91.05,40.32],[-89.26,41.44],[-87.56,43],[-87.13,43.63],[-86.4,44.99],[-85.91,46.29],[-87.01,46.14],[-102.36,41.52],[-103.65,40.89],[-104.74,39.73],[-105.08,38.98]]]}},{"type":"Feature","id":"geom_evt_20250814_upper_midwest_2025_08_14_severe_d1_hover","properties":{"event_id":"evt_20250814_upper_midwest_2025_08_14_severe","day_index":1,"geometry_role":"hover_geometry"},"geometry":{"type":"Polygon","coordinates":[[[-99.79,46.55],[-99.74,45.77],[-99.12,45.52],[-96.93,45.96],[-94.98,47.31],[-93.74,48.56],[-94.88,49.36],[-95.19,49.34],[-97.92,48.99],[-99.79,46.55]]]}},{"type":"Feature","id":"geom_evt_20250815_upper_midwest_2025_08_15_severe_d1_hover","properties":{"event_id":"evt_20250814_upper_midwest_2025_08_14_severe","day_index":2,"geometry_role":"hover_geometry"},"geometry":{"type":"Polygon","coordinates":[[[-102.45,42.81],[-101.78,42.47],[-91.97,41.21],[-90.28,41.66],[-89.32,42.66],[-88.58,44.36],[-88.49,44.95],[-89.03,45.56],[-90.28,45.96],[-91.57,46.02],[-93.04,45.96],[-95.8,45.72],[-98.77,45.2],[-100.95,44.56],[-102.04,43.61],[-102.45,42.81]]]}},{"type":"Feature","id":"geom_evt_20250816_upper_midwest_2025_08_16_severe_d1_hover","properties":{"event_id":"evt_20250814_upper_midwest_2025_08_14_severe","day_index":3,"geometry_role":"hover_geometry"},"geometry":{"type":"Polygon","coordinates":[[[-104.24,44.67],[-104.19,44.04],[-103.82,43.3],[-102.14,42.84],[-88.55,40.73],[-87.95,40.69],[-87.5,40.78],[-86.49,41.29],[-86.25,41.64],[-86.23,42.32],[-86.47,42.65],[-87.39,43.15],[-90.8,44.27],[-98.52,45.87],[-103.57,46.09],[-104.18,45.65],[-104.24,44.67]]]}},{"type":"Feature","id":"geom_evt_20250817_upper_midwest_2025_08_17_severe_d1_hover","properties":{"event_id":"evt_20250814_upper_midwest_2025_08_14_severe","day_index":4,"geometry_role":"hover_geometry"},"geometry":{"type":"Polygon","coordinates":[[[-97.62,42.55],[-97.51,42.16],[-97.24,41.71],[-96.75,41.61],[-96.34,41.65],[-94.8,42.08],[-94.16,42.43],[-93.92,42.95],[-93.74,43.7],[-93.82,44.17],[-94.08,44.36],[-94.89,44.53],[-95.71,44.52],[-96.62,44.33],[-96.98,44.13],[-97.28,43.65],[-97.6,43.03],[-97.62,42.55]]]}},{"type":"Feature","id":"geom_evt_20250818_upper_midwest_2025_08_18_severe_d1_hover","properties":{"event_id":"evt_20250814_upper_midwest_2025_08_14_severe","day_index":5,"geometry_role":"hover_geometry"},"geometry":{"type":"Polygon","coordinates":[[[-104.08,43.9],[-103.44,39.93],[-102.77,39.04],[-101.92,39.04],[-88.54,41.34],[-87.52,42.04],[-87.68,43.32],[-88.81,43.67],[-101.38,45.52],[-102.02,45.48],[-103.6,45.01],[-104.08,43.9]]]}},{"type":"Feature","id":"geom_evt_20250821_upper_midwest_2025_08_21_severe_d1_hover","properties":{"event_id":"evt_20250821_upper_midwest_2025_08_21_severe","day_index":1,"geometry_role":"hover_geometry"},"geometry":{"type":"Polygon","coordinates":[[[-99.68,44.73],[-99.47,44.26],[-98.44,44.17],[-97.29,44.39],[-96.45,44.92],[-95.23,46.19],[-94.43,47.49],[-94.39,48.67],[-94.57,48.79],[-94.64,48.83],[-94.69,48.86],[-95.47,48.9],[-95.96,48.7],[-99.61,45.16],[-99.68,44.73]]]}},{"type":"Feature","id":"geom_evt_20250828_southern_plains_2025_08_28_severe_d1_hover","properties":{"event_id":"evt_20250828_southern_plains_2025_08_28_severe","day_index":1,"geometry_role":"hover_geometry"},"geometry":{"type":"Polygon","coordinates":[[[-96.42,33.92],[-96.24,33.43],[-94.97,32.4],[-94.04,32.23],[-93.41,32.49],[-93.09,32.82],[-93.3,33.27],[-94.05,33.85],[-95.04,34.33],[-96.02,34.36],[-96.42,33.92]]]}}]}