{"type":"FeatureCollection","features":[{"type":"Feature","id":"geom_evt_20251224_southern_california_2025_12_24_rain_d1_hover","properties":{"event_id":"evt_20251224_southern_california_2025_12_24_rain","day_index":1,"geometry_role":"hover_geometry"},"geometry":{"type":"Polygon","coordinates":[[[-120.68,35.04],[-120.59,34.64],[-120.15,33.93],[-119.02,33.55],[-117.3,33.2],[-116.77,33.28],[-116.53,34.04],[-116.57,34.26],[-116.77,34.42],[-118.54,34.95],[-120.24,35.29],[-120.45,35.26],[-120.68,35.04]]]}},{"type":"Feature","id":"geom_evt_20251225_southern_california_2025_12_25_rain_d1_hover","properties":{"event_id":"evt_20251224_southern_california_2025_12_24_rain","day_index":2,"geometry_role":"hover_geometry"},"geometry":{"type":"Polygon","coordinates":[[[-122.04,34.86],[-121.81,34.4],[-119.18,34.03],[-118.44,33.96],[-117.91,34.03],[-117.6,34.17],[-117.59,34.4],[-120.45,35.71],[-121.26,35.82],[-121.59,35.76],[-122.04,34.86]]]}},{"type":"Feature","id":"geom_evt_20251219_northern_plains_2025_12_19_fire_d1_hover","properties":{"event_id":"evt_20251219_northern_plains_2025_12_19_fire","day_index":1,"geometry_role":"hover_geometry"},"geometry":{"type":"Polygon","coordinates":[[[-105.64,41.26],[-105.57,39.11],[-105.5,38.83],[-105.23,38.34],[-104.79,37.57],[-104.57,37.36],[-104.23,37.43],[-104.08,37.47],[-103.91,37.69],[-101.8,42.12],[-101.86,42.48],[-102.32,42.68],[-103.2,42.81],[-104.52,42.76],[-105.24,42.61],[-105.46,42.42],[-105.55,42],[-105.64,41.26]]]}},{"type":"Feature","id":"geom_evt_20251218_southern_plains_2025_12_18_fire_d1_hover","properties":{"event_id":"evt_20251218_southern_plains_2025_12_18_fire","day_index":1,"geometry_role":"hover_geometry"},"geometry":{"type":"Polygon","coordinates":[[[-101.88,37.77],[-101.77,37.48],[-101.53,37.12],[-101.06,36.78],[-100.58,36.65],[-100.09,36.61],[-97.37,36.56],[-96.78,36.55],[-96.36,36.56],[-95.97,36.74],[-95.77,37.13],[-95.78,37.5],[-95.99,37.97],[-96.52,38.3],[-97.66,38.78],[-98.59,39.13],[-99.65,39.18],[-100.52,39.09],[-101.01,38.94],[-101.45,38.76],[-101.73,38.36],[-101.81,38.08],[-101.88,37.77]]]}},{"type":"Feature","id":"geom_evt_20251220_central_plains_2025_12_20_fire_d1_hover","properties":{"event_id":"evt_20251220_central_plains_2025_12_20_fire","day_index":1,"geometry_role":"hover_geometry"},"geometry":{"type":"Polygon","coordinates":[[[-104.05,33.05],[-103.58,32.64],[-102.92,32.47],[-101.84,32.65],[-101.15,33],[-101.1,33.2],[-101.18,33.58],[-101.46,33.83],[-101.96,34.19],[-102.35,34.42],[-102.94,34.51],[-103.62,34.4],[-103.93,34.26],[-104.03,33.57],[-104.05,33.05]]]}},{"type":"Feature","id":"geom_evt_20251222_northern_rockies_2025_12_22_fire_d1_hover","properties":{"event_id":"evt_20251222_northern_rockies_2025_12_22_fire","day_index":1,"geometry_role":"hover_geometry"},"geometry":{"type":"Polygon","coordinates":[[[-105.45,40.61],[-105.39,39.73],[-105.27,39.54],[-105.13,39.48],[-104.91,39.61],[-104.41,41.15],[-104.37,41.47],[-104.6,41.76],[-105.14,41.58],[-105.4,41.24],[-105.45,40.61]]]}},{"type":"Feature","id":"geom_evt_20251221_northern_california_2025_12_21_rain_d1_hover","properties":{"event_id":"evt_20251221_northern_california_2025_12_21_rain","day_index":1,"geometry_role":"hover_geometry"},"geometry":{"type":"Polygon","coordinates":[[[-121.51,39.81],[-121.18,39.19],[-120.89,38.96],[-120.64,38.91],[-120.36,38.95],[-120.22,39.06],[-120.25,39.42],[-120.7,39.84],[-121.41,40.1],[-121.51,39.81]]]}},{"type":"Feature","id":"geom_evt_20251202_great_lakes_2025_12_02_winter_d1_hover","properties":{"event_id":"evt_20251202_great_lakes_2025_12_02_winter","day_index":1,"geometry_role":"hover_geometry"},"geometry":{"type":"Polygon","coordinates":[[[-77.6,41.44],[-77.54,41.36],[-76.95,40.63],[-76.93,40.61],[-76.44,40.5],[-76.39,40.5],[-76.3,40.51],[-76.23,40.52],[-76.02,40.57],[-74.69,40.9],[-71.5,42.02],[-70.9,42.64],[-69.93,43.72],[-69.89,43.77],[-69.88,43.81],[-69.86,43.92],[-69.86,43.95],[-69.93,44.6],[-69.94,44.63],[-70,44.79],[-70.03,44.86],[-70.08,44.86],[-74.85,44.07],[-77.6,41.54],[-77.6,41.44]]]}},{"type":"Feature","id":"geom_evt_20251210_great_lakes_2025_12_10_winter_d1_hover","properties":{"event_id":"evt_20251210_great_lakes_2025_12_10_winter","day_index":1,"geometry_role":"hover_geometry"},"geometry":{"type":"Polygon","coordinates":[[[-79.69,39.02],[-79.51,38.97],[-79.28,38.91],[-74.12,43.1],[-74.05,43.77],[-74.05,43.8],[-74.28,44.12],[-75.83,44.39],[-75.85,44.39],[-76,44.35],[-76.15,44.29],[-76.3,44.19],[-76.31,44.18],[-76.37,44.11],[-79.48,39.72],[-79.69,39.02]]]}},{"type":"Feature","id":"geom_evt_20251211_great_lakes_2025_12_11_winter_d1_hover","properties":{"event_id":"evt_20251210_great_lakes_2025_12_10_winter","day_index":2,"geometry_role":"hover_geometry"},"geometry":{"type":"Polygon","coordinates":[[[-77.37,43.03],[-76.27,42.77],[-75.89,42.72],[-75.87,42.72],[-75.3,42.74],[-75.28,42.75],[-75.25,42.78],[-75.2,42.88],[-75.07,43.23],[-75.15,43.29],[-76.62,43.41],[-76.64,43.41],[-77.37,43.28],[-77.37,43.03]]]}},{"type":"Feature","id":"geom_evt_20251213_great_lakes_2025_12_13_winter_d1_hover","properties":{"event_id":"evt_20251213_great_lakes_2025_12_13_winter","day_index":1,"geometry_role":"hover_geometry"},"geometry":{"type":"Polygon","coordinates":[[[-82.32,39.01],[-81.9,38.87],[-81.89,38.87],[-79.28,38.91],[-75.11,43.61],[-75.11,43.63],[-75.12,43.73],[-75.13,43.81],[-75.16,44.04],[-75.17,44.1],[-75.23,44.13],[-75.8,44.38],[-75.83,44.39],[-75.85,44.39],[-76,44.35],[-76.15,44.29],[-81.97,41.51],[-82.29,39.42],[-82.31,39.21],[-82.32,39.1],[-82.32,39.01]]]}},{"type":"Feature","id":"geom_evt_20251226_great_lakes_2025_12_26_winter_d1_hover","properties":{"event_id":"evt_20251226_great_lakes_2025_12_26_winter","day_index":1,"geometry_role":"hover_geometry"},"geometry":{"type":"Polygon","coordinates":[[[-80.52,41.49],[-79.78,39.72],[-79.26,39.33],[-74.28,39.51],[-72.89,40.72],[-72.88,40.73],[-72.87,40.74],[-72.86,40.79],[-72.88,40.96],[-73.07,41.3],[-74.03,42.43],[-75.29,42.74],[-75.9,42.79],[-76,42.79],[-76.14,42.78],[-76.27,42.77],[-77.66,42.58],[-79.76,42.22],[-80.52,41.93],[-80.52,41.49]]]}},{"type":"Feature","id":"geom_evt_20251229_great_lakes_2025_12_29_winter_d1_hover","properties":{"event_id":"evt_20251229_great_lakes_2025_12_29_winter","day_index":1,"geometry_role":"hover_geometry"},"geometry":{"type":"Polygon","coordinates":[[[-80.52,41.49],[-80.35,41.48],[-80.13,41.48],[-78.42,41.6],[-78.2,41.62],[-69.73,45.98],[-69.72,46.39],[-69.72,46.57],[-70.02,46.57],[-76,44.35],[-76.15,44.29],[-80.52,41.93],[-80.52,41.49]]]}},{"type":"Feature","id":"geom_evt_20251230_great_lakes_2025_12_30_winter_d1_hover","properties":{"event_id":"evt_20251229_great_lakes_2025_12_29_winter","day_index":2,"geometry_role":"hover_geometry"},"geometry":{"type":"Polygon","coordinates":[[[-77.37,43.03],[-76.27,42.77],[-75.89,42.72],[-75.87,42.72],[-75.3,42.74],[-75.28,42.75],[-75.25,42.78],[-75.2,42.88],[-75.07,43.23],[-75.08,43.4],[-75.09,43.48],[-75.11,43.61],[-75.12,43.61],[-76.64,43.41],[-77.37,43.28],[-77.37,43.03]]]}},{"type":"Feature","id":"geom_evt_20251231_great_lakes_2025_12_31_winter_d1_hover","properties":{"event_id":"evt_20251229_great_lakes_2025_12_29_winter","day_index":3,"geometry_role":"hover_geometry"},"geometry":{"type":"Polygon","coordinates":[[[-80.23,39.11],[-80.07,38.95],[-79.28,38.91],[-78.8,39.73],[-78.77,39.79],[-78.76,39.82],[-78.66,40.23],[-78.66,40.24],[-78.93,40.29],[-79.06,40.29],[-79.48,40.14],[-79.49,40.13],[-80.2,39.39],[-80.23,39.17],[-80.23,39.11]]]}},{"type":"Feature","id":"geom_evt_20251208_mid_atlantic_2025_12_08_winter_d1_hover","properties":{"event_id":"evt_20251208_mid_atlantic_2025_12_08_winter","day_index":1,"geometry_role":"hover_geometry"},"geometry":{"type":"Polygon","coordinates":[[[-78.74,36.55],[-78.73,36.54],[-77.3,36.54],[-77.3,36.55],[-77.4,37.17],[-77.44,37.22],[-77.47,37.23],[-77.61,37.27],[-78.24,37.37],[-78.59,37.4],[-78.6,37.39],[-78.67,37.28],[-78.68,37.26],[-78.69,37.22],[-78.74,36.56],[-78.74,36.55]]]}},{"type":"Feature","id":"geom_evt_20251209_mid_atlantic_2025_12_09_winter_d1_hover","properties":{"event_id":"evt_20251208_mid_atlantic_2025_12_08_winter","day_index":2,"geometry_role":"hover_geometry"},"geometry":{"type":"Polygon","coordinates":[[[-90.32,44.69],[-89.6,43.98],[-88.89,43.98],[-88.25,44.58],[-88.24,44.61],[-88.12,45.02],[-88.12,45.11],[-88.31,45.37],[-88.34,45.38],[-89.43,45.56],[-90.04,45.56],[-90.31,45.03],[-90.32,45],[-90.32,44.69]]]}},{"type":"Feature","id":"geom_evt_20251210_mid_atlantic_2025_12_10_winter_d1_hover","properties":{"event_id":"evt_20251208_mid_atlantic_2025_12_08_winter","day_index":3,"geometry_role":"hover_geometry"},"geometry":{"type":"Polygon","coordinates":[[[-88.89,43.9],[-80.36,38.11],[-79.8,38.26],[-79.5,38.53],[-79.32,38.84],[-79.28,38.91],[-86.81,45.43],[-86.83,45.43],[-86.94,45.42],[-88.49,45.03],[-88.74,44.59],[-88.89,44.24],[-88.89,43.9]]]}},{"type":"Feature","id":"geom_evt_20251213_mid_atlantic_2025_12_13_winter_d1_hover","properties":{"event_id":"evt_20251213_mid_atlantic_2025_12_13_winter","day_index":1,"geometry_role":"hover_geometry"},"geometry":{"type":"Polygon","coordinates":[[[-85.44,38.91],[-81.44,37.97],[-81.38,37.97],[-80.36,38.11],[-79.8,38.26],[-79.79,38.27],[-79.73,38.36],[-79.36,38.93],[-79.35,38.95],[-79.35,38.96],[-79.36,38.97],[-82.18,40.24],[-82.49,40.27],[-82.72,40.28],[-82.75,40.28],[-85.2,40],[-85.3,39.79],[-85.44,39.2],[-85.44,38.91]]]}},{"type":"Feature","id":"geom_evt_20251228_mid_atlantic_2025_12_28_winter_d1_hover","properties":{"event_id":"evt_20251228_mid_atlantic_2025_12_28_winter","day_index":1,"geometry_role":"hover_geometry"},"geometry":{"type":"Polygon","coordinates":[[[-90.42,46.56],[-90.32,44.69],[-89.98,43.9],[-89.96,43.86],[-89.79,43.64],[-89.6,43.64],[-89.22,44.24],[-88.93,45.98],[-88.86,46.68],[-88.86,46.76],[-88.93,47.03],[-88.94,47.03],[-89.14,46.99],[-89.8,46.82],[-90.34,46.61],[-90.42,46.57],[-90.42,46.56]]]}},{"type":"Feature","id":"geom_evt_20251229_mid_atlantic_2025_12_29_winter_d1_hover","properties":{"event_id":"evt_20251228_mid_atlantic_2025_12_28_winter","day_index":2,"geometry_role":"hover_geometry"},"geometry":{"type":"Polygon","coordinates":[[[-89.6,43.98],[-86.22,42.07],[-85.29,42.07],[-85.07,42.42],[-83.4,45.21],[-83.38,45.26],[-83.38,45.27],[-83.4,45.29],[-85.24,46.76],[-88.43,48.19],[-88.44,48.19],[-88.57,48.17],[-88.61,48.16],[-88.64,48.15],[-89.18,47.94],[-89.21,47.92],[-89.25,47.88],[-89.6,44.25],[-89.6,43.98]]]}},{"type":"Feature","id":"geom_evt_20251231_mid_atlantic_2025_12_31_winter_d1_hover","properties":{"event_id":"evt_20251231_mid_atlantic_2025_12_31_winter","day_index":1,"geometry_role":"hover_geometry"},"geometry":{"type":"Polygon","coordinates":[[[-80.68,38.5],[-80.66,38.41],[-80.63,38.35],[-80.36,38.11],[-79.8,38.26],[-79.5,38.53],[-79.32,38.84],[-79.28,38.91],[-79.36,38.97],[-79.82,39.12],[-79.83,39.12],[-80.24,39.11],[-80.3,39.1],[-80.68,38.5]]]}},{"type":"Feature","id":"geom_evt_20251202_northeast_2025_12_02_winter_d1_hover","properties":{"event_id":"evt_20251202_northeast_2025_12_02_winter","day_index":1,"geometry_role":"hover_geometry"},"geometry":{"type":"Polygon","coordinates":[[[-70.13,44.37],[-70.05,43.99],[-70.02,43.94],[-69.86,43.7],[-69.85,43.7],[-68.85,43.78],[-67.26,44.6],[-67.19,44.64],[-67.16,44.66],[-66.95,44.81],[-66.95,44.82],[-66.98,44.91],[-67.12,45.13],[-67.43,45.59],[-67.45,45.6],[-67.73,45.69],[-67.9,45.68],[-68.86,45.53],[-68.96,45.51],[-69.66,45.12],[-69.76,45.06],[-69.94,44.95],[-70.08,44.86],[-70.13,44.49],[-70.13,44.37]]]}},{"type":"Feature","id":"geom_evt_20251223_northeast_2025_12_23_winter_d1_hover","properties":{"event_id":"evt_20251223_northeast_2025_12_23_winter","day_index":1,"geometry_role":"hover_geometry"},"geometry":{"type":"Polygon","coordinates":[[[-70.13,44.37],[-70.05,43.99],[-70.02,43.94],[-69.86,43.7],[-69.85,43.7],[-68.85,43.78],[-68.24,44.14],[-67.97,44.39],[-67.96,44.4],[-67.96,44.41],[-67.99,44.59],[-68.02,44.68],[-69.34,44.75],[-69.4,44.75],[-69.59,44.71],[-69.63,44.7],[-70.04,44.59],[-70.13,44.49],[-70.13,44.37]]]}},{"type":"Feature","id":"geom_evt_20251229_northeast_2025_12_29_winter_d1_hover","properties":{"event_id":"evt_20251229_northeast_2025_12_29_winter","day_index":1,"geometry_role":"hover_geometry"},"geometry":{"type":"Polygon","coordinates":[[[-70.02,46.57],[-69.78,45.54],[-69.66,45.1],[-69.62,45.01],[-69.52,45.02],[-67.44,45.33],[-67.43,45.34],[-67.42,45.37],[-67.42,45.57],[-67.79,47.07],[-67.95,47.2],[-68.15,47.33],[-68.23,47.36],[-69.17,47.46],[-69.22,47.46],[-69.28,47.41],[-69.73,46.97],[-70,46.7],[-70.02,46.57]]]}},{"type":"Feature","id":"geom_evt_20251205_northern_rockies_2025_12_05_winter_d1_hover","properties":{"event_id":"evt_20251205_northern_rockies_2025_12_05_winter","day_index":1,"geometry_role":"hover_geometry"},"geometry":{"type":"Polygon","coordinates":[[[-112.31,44.8],[-112.19,41.99],[-111.83,39.76],[-111.82,39.74],[-111.8,39.72],[-111.71,39.71],[-111.68,39.71],[-111.59,39.74],[-110.03,40.54],[-109.98,40.57],[-109.82,46.7],[-109.83,46.72],[-110.4,47.51],[-110.49,47.57],[-110.51,47.58],[-110.63,47.57],[-110.75,47.54],[-111.9,46.93],[-111.91,46.92],[-111.92,46.9],[-112.23,45.57],[-112.31,44.8]]]}},{"type":"Feature","id":"geom_evt_20251209_northern_rockies_2025_12_09_winter_d1_hover","properties":{"event_id":"evt_20251209_northern_rockies_2025_12_09_winter","day_index":1,"geometry_role":"hover_geometry"},"geometry":{"type":"Polygon","coordinates":[[[-111.05,42.25],[-110.9,41.85],[-110.86,41.83],[-110.63,41.82],[-108.87,42.37],[-108.68,42.44],[-108.53,42.53],[-108.52,42.54],[-108.52,42.55],[-109.22,45.11],[-109.29,45.19],[-109.87,45.61],[-110.23,45.65],[-110.8,45.65],[-110.86,45.59],[-110.92,45.53],[-111.04,45.35],[-111.05,45.18],[-111.05,42.25]]]}},{"type":"Feature","id":"geom_evt_20251212_northern_rockies_2025_12_12_winter_d1_hover","properties":{"event_id":"evt_20251212_northern_rockies_2025_12_12_winter","day_index":1,"geometry_role":"hover_geometry"},"geometry":{"type":"Polygon","coordinates":[[[-112.18,48.09],[-112.05,47.3],[-111.48,46.79],[-110.28,45.78],[-110.22,45.74],[-109.44,45.43],[-107.66,45],[-106.63,44.99],[-105.93,44.99],[-105.04,45],[-104.61,46.66],[-104.6,46.83],[-104.6,46.86],[-105.19,48.07],[-105.8,48.56],[-107.18,49],[-111.92,49],[-112.18,48.13],[-112.18,48.09]]]}},{"type":"Feature","id":"geom_evt_20251217_northern_rockies_2025_12_17_winter_d1_hover","properties":{"event_id":"evt_20251217_northern_rockies_2025_12_17_winter","day_index":1,"geometry_role":"hover_geometry"},"geometry":{"type":"Polygon","coordinates":[[[-111.15,45.05],[-111.05,42.25],[-110.9,41.85],[-110.86,41.83],[-110.63,41.82],[-108.87,42.37],[-108.68,42.44],[-108.53,42.53],[-108.52,42.54],[-108.52,42.55],[-108.82,43.85],[-109.26,45.01],[-111.09,45.11],[-111.11,45.11],[-111.13,45.1],[-111.15,45.06],[-111.15,45.05]]]}},{"type":"Feature","id":"geom_evt_20251225_northern_rockies_2025_12_25_winter_d1_hover","properties":{"event_id":"evt_20251225_northern_rockies_2025_12_25_winter","day_index":1,"geometry_role":"hover_geometry"},"geometry":{"type":"Polygon","coordinates":[[[-112.18,48.09],[-112.05,47.3],[-111.57,47],[-111.53,47.01],[-108.91,47.73],[-108.89,47.74],[-108.43,47.98],[-108.26,48.74],[-108.24,48.91],[-108.24,49],[-111.92,49],[-112.18,48.13],[-112.18,48.09]]]}},{"type":"Feature","id":"geom_evt_20251205_desert_southwest_2025_12_05_winter_d1_hover","properties":{"event_id":"evt_20251205_desert_southwest_2025_12_05_winter","day_index":1,"geometry_role":"hover_geometry"},"geometry":{"type":"Polygon","coordinates":[[[-116.34,45.26],[-116.3,45.11],[-112.63,42],[-111.73,42],[-111.72,42.06],[-111.68,42.31],[-111.69,42.42],[-113.06,47.48],[-113.13,47.59],[-113.14,47.6],[-114.02,47.6],[-115.63,46.47],[-115.64,46.46],[-115.73,46.37],[-116.22,45.87],[-116.34,45.26]]]}},{"type":"Feature","id":"geom_evt_20251212_desert_southwest_2025_12_12_winter_d1_hover","properties":{"event_id":"evt_20251212_desert_southwest_2025_12_12_winter","day_index":1,"geometry_role":"hover_geometry"},"geometry":{"type":"Polygon","coordinates":[[[-114.07,49],[-114.05,48.88],[-113.06,47.18],[-112.8,47.04],[-112.78,47.03],[-112.69,47],[-112.19,46.98],[-112.17,47],[-112.04,47.24],[-111.87,48.39],[-111.85,48.53],[-111.85,48.85],[-111.92,49],[-114.07,49]]]}},{"type":"Feature","id":"geom_evt_20251218_desert_southwest_2025_12_18_winter_d1_hover","properties":{"event_id":"evt_20251218_desert_southwest_2025_12_18_winter","day_index":1,"geometry_role":"hover_geometry"},"geometry":{"type":"Polygon","coordinates":[[[-116.34,45.26],[-116.3,45.11],[-115.28,43.24],[-115.11,43.2],[-114.38,43.2],[-113.63,43.45],[-113.6,43.46],[-113.59,43.47],[-113.56,43.5],[-113.31,46.48],[-113.32,46.51],[-113.39,46.65],[-113.9,46.85],[-113.97,46.85],[-114.42,46.8],[-115.63,46.47],[-115.64,46.46],[-115.73,46.37],[-116.22,45.87],[-116.34,45.26]]]}},{"type":"Feature","id":"geom_evt_20251223_northern_california_2025_12_23_winter_d1_hover","properties":{"event_id":"evt_20251223_northern_california_2025_12_23_winter","day_index":1,"geometry_role":"hover_geometry"},"geometry":{"type":"Polygon","coordinates":[[[-123.72,41.59],[-123.66,41.38],[-123.38,41.15],[-123.25,41.08],[-123.04,41],[-122.94,40.99],[-122.93,40.99],[-120.04,41.18],[-120.01,42],[-122.11,42.01],[-123.19,42.01],[-123.52,42],[-123.64,41.89],[-123.65,41.88],[-123.7,41.83],[-123.72,41.61],[-123.72,41.59]]]}},{"type":"Feature","id":"geom_evt_20251224_northern_california_2025_12_24_winter_d1_hover","properties":{"event_id":"evt_20251223_northern_california_2025_12_23_winter","day_index":2,"geometry_role":"hover_geometry"},"geometry":{"type":"Polygon","coordinates":[[[-121.92,40.48],[-121.7,40.02],[-120.3,38.07],[-120.08,37.83],[-120.07,37.82],[-120.05,37.81],[-119.94,37.76],[-118.86,37.48],[-118.78,37.46],[-117.93,37.46],[-117.84,37.47],[-120,41.18],[-121.33,41.18],[-121.89,40.88],[-121.91,40.71],[-121.92,40.48]]]}},{"type":"Feature","id":"geom_evt_20251218_northern_plains_2025_12_18_winter_d1_hover","properties":{"event_id":"evt_20251218_northern_plains_2025_12_18_winter","day_index":1,"geometry_role":"hover_geometry"},"geometry":{"type":"Polygon","coordinates":[[[-104.05,48.63],[-102.62,47.8],[-102.6,47.79],[-102.57,47.78],[-100.67,47.33],[-100.03,47.33],[-100.03,47.67],[-100.18,49],[-104.05,49],[-104.05,48.63]]]}},{"type":"Feature","id":"geom_evt_20251206_upper_midwest_2025_12_06_winter_d1_hover","properties":{"event_id":"evt_20251206_upper_midwest_2025_12_06_winter","day_index":1,"geometry_role":"hover_geometry"},"geometry":{"type":"Polygon","coordinates":[[[-95.39,42.47],[-95.32,42.21],[-95.09,41.86],[-93.7,41.86],[-93.46,42.21],[-93.46,42.47],[-93.5,43.5],[-94.91,43.5],[-95.39,42.56],[-95.39,42.47]]]}},{"type":"Feature","id":"geom_evt_20251207_upper_midwest_2025_12_07_winter_d1_hover","properties":{"event_id":"evt_20251206_upper_midwest_2025_12_06_winter","day_index":2,"geometry_role":"hover_geometry"},"geometry":{"type":"Polygon","coordinates":[[[-93.82,41.84],[-93.81,41.6],[-93.79,41.51],[-93.35,41.48],[-93.34,41.48],[-92.3,41.51],[-92.06,42.3],[-92.06,42.47],[-92.08,42.64],[-93.02,43.5],[-93.5,43.5],[-93.82,41.86],[-93.82,41.84]]]}},{"type":"Feature","id":"geom_evt_20251209_upper_midwest_2025_12_09_winter_d1_hover","properties":{"event_id":"evt_20251209_upper_midwest_2025_12_09_winter","day_index":1,"geometry_role":"hover_geometry"},"geometry":{"type":"Polygon","coordinates":[[[-99.85,48.02],[-98.93,43.94],[-98.79,43.5],[-98.71,43.37],[-98.13,42.82],[-98.06,42.77],[-98.03,42.76],[-98,42.76],[-97.16,42.8],[-89.72,44.25],[-89.72,44.37],[-89.73,44.51],[-89.93,46.3],[-90.39,47.08],[-95.09,48.92],[-95.32,49],[-99.53,49],[-99.85,48.37],[-99.85,48.02]]]}},{"type":"Feature","id":"geom_evt_20251210_upper_midwest_2025_12_10_winter_d1_hover","properties":{"event_id":"evt_20251209_upper_midwest_2025_12_09_winter","day_index":2,"geometry_role":"hover_geometry"},"geometry":{"type":"Polygon","coordinates":[[[-97.16,42.8],[-97.02,42.26],[-95.67,41.86],[-92.3,41.86],[-92.06,42.3],[-92.06,42.47],[-92.08,42.91],[-93.52,44.54],[-93.77,44.67],[-93.89,44.72],[-95.25,45.15],[-96.42,45.27],[-96.45,45.27],[-97.16,43.08],[-97.16,42.8]]]}},{"type":"Feature","id":"geom_evt_20251218_upper_midwest_2025_12_18_winter_d1_hover","properties":{"event_id":"evt_20251218_upper_midwest_2025_12_18_winter","day_index":1,"geometry_role":"hover_geometry"},"geometry":{"type":"Polygon","coordinates":[[[-100.28,48.37],[-100.24,48.02],[-100.2,47.85],[-100.03,47.33],[-97.98,44.63],[-97.86,44.54],[-97.49,44.54],[-89.57,47.96],[-89.49,48],[-89.48,48.01],[-94.95,49.37],[-95.14,49.38],[-95.15,49.38],[-100.18,49],[-100.28,48.54],[-100.28,48.37]]]}},{"type":"Feature","id":"geom_evt_20251228_upper_midwest_2025_12_28_winter_d1_hover","properties":{"event_id":"evt_20251228_upper_midwest_2025_12_28_winter","day_index":1,"geometry_role":"hover_geometry"},"geometry":{"type":"Polygon","coordinates":[[[-97.99,47.33],[-97.96,47.24],[-97.68,46.63],[-96.45,44.63],[-94.91,43.26],[-94.44,42.91],[-92.08,42.91],[-89.79,43.64],[-89.72,44.25],[-89.72,44.37],[-89.73,44.51],[-89.93,46.3],[-90.39,47.08],[-94.81,49.32],[-94.95,49.37],[-95.14,49.38],[-95.15,49.38],[-97.95,49],[-97.99,47.6],[-97.99,47.33]]]}},{"type":"Feature","id":"geom_evt_20251206_pacific_northwest_2025_12_06_winter_d1_hover","properties":{"event_id":"evt_20251206_pacific_northwest_2025_12_06_winter","day_index":1,"geometry_role":"hover_geometry"},"geometry":{"type":"Polygon","coordinates":[[[-166.18,61.57],[-166.17,61.55],[-166.11,61.49],[-165.57,61.09],[-165.14,60.92],[-135.08,58.19],[-135.07,58.19],[-135.06,58.2],[-134.31,58.96],[-141,67.47],[-142,67.6],[-144,67.55],[-150.51,67.13],[-157.91,66.48],[-159.6,65.96],[-161.7,65.2],[-162.75,64.53],[-164.64,63.1],[-166,62.05],[-166.01,62.03],[-166.13,61.78],[-166.16,61.68],[-166.17,61.64],[-166.18,61.6],[-166.18,61.57]]]}},{"type":"Feature","id":"geom_evt_20251207_pacific_northwest_2025_12_07_winter_d1_hover","properties":{"event_id":"evt_20251206_pacific_northwest_2025_12_06_winter","day_index":2,"geometry_role":"hover_geometry"},"geometry":{"type":"Polygon","coordinates":[[[-173.12,60.66],[-173.07,60.5],[-172.77,60.19],[-166.2,59.75],[-136.42,57.83],[-135.24,57.78],[-135.01,57.78],[-133.7,57.79],[-133.52,57.91],[-133.3,58.06],[-133.17,58.15],[-133.38,58.43],[-133.84,58.73],[-134.31,58.96],[-136.44,59.26],[-163.98,61.02],[-164.15,61.03],[-173.07,60.71],[-173.09,60.7],[-173.11,60.68],[-173.12,60.67],[-173.12,60.66]]]}},{"type":"Feature","id":"geom_evt_20251214_pacific_northwest_2025_12_14_winter_d1_hover","properties":{"event_id":"evt_20251214_pacific_northwest_2025_12_14_winter","day_index":1,"geometry_role":"hover_geometry"},"geometry":{"type":"Polygon","coordinates":[[[-137.94,58.79],[-137.93,58.78],[-135.85,56.99],[-134.34,55.84],[-134.32,55.83],[-132.2,55.63],[-132.18,55.63],[-132.11,55.65],[-131.98,55.69],[-131.96,55.7],[-131.37,56.01],[-131.01,56.25],[-131,56.27],[-131,56.28],[-131.01,56.31],[-131.08,56.4],[-131.09,56.41],[-133.38,58.43],[-133.84,58.73],[-134.31,58.96],[-136.44,59.26],[-136.49,59.26],[-136.83,59.16],[-137.94,58.81],[-137.94,58.79]]]}},{"type":"Feature","id":"geom_evt_20251217_pacific_northwest_2025_12_17_winter_d1_hover","properties":{"event_id":"evt_20251217_pacific_northwest_2025_12_17_winter","day_index":1,"geometry_role":"hover_geometry"},"geometry":{"type":"Polygon","coordinates":[[[-146.5,69.8],[-124.18,47.61],[-123.9,47.36],[-122.54,46.4],[-121.52,46.04],[-121.49,46.03],[-121.43,46.03],[-121.39,46.04],[-121.37,46.06],[-121.35,46.1],[-120.43,48.25],[-120.75,48.94],[-141,69.65],[-141.08,69.67],[-142.68,70.03],[-143.23,70.15],[-146.15,70.21],[-146.21,70.21],[-146.43,70.19],[-146.5,70.18],[-146.5,69.8]]]}},{"type":"Feature","id":"geom_evt_20251222_pacific_northwest_2025_12_22_winter_d1_hover","properties":{"event_id":"evt_20251222_pacific_northwest_2025_12_22_winter","day_index":1,"geometry_role":"hover_geometry"},"geometry":{"type":"Polygon","coordinates":[[[-165.36,68.03],[-165.35,68.02],[-163.73,67.12],[-161.83,66.21],[-158.72,66.13],[-157.91,66.13],[-155.55,66.3],[-154.21,66.74],[-154.15,66.82],[-154.15,67.17],[-154.69,67.6],[-155.32,68.03],[-157.15,68.21],[-159.69,68.29],[-162.72,68.29],[-164.5,68.21],[-165.36,68.03]]]}},{"type":"Feature","id":"geom_evt_20251224_pacific_northwest_2025_12_24_winter_d1_hover","properties":{"event_id":"evt_20251224_pacific_northwest_2025_12_24_winter","day_index":1,"geometry_role":"hover_geometry"},"geometry":{"type":"Polygon","coordinates":[[[-154.6,64.63],[-153,62.73],[-152.99,62.73],[-147,63.7],[-143.71,64.65],[-143.65,64.67],[-143.51,64.75],[-142.85,65.14],[-142.78,65.19],[-142.76,65.21],[-142.75,65.23],[-141,69.5],[-141,69.65],[-141.08,69.67],[-142.68,70.03],[-143.23,70.15],[-146.15,70.21],[-146.21,70.21],[-146.43,70.19],[-146.5,70.18],[-153.73,65.4],[-154.6,64.63]]]}},{"type":"Feature","id":"geom_evt_20251227_pacific_northwest_2025_12_27_winter_d1_hover","properties":{"event_id":"evt_20251227_pacific_northwest_2025_12_27_winter","day_index":1,"geometry_role":"hover_geometry"},"geometry":{"type":"Polygon","coordinates":[[[-143.89,60],[-133.53,54.76],[-132.78,54.67],[-132.67,54.67],[-130.65,54.72],[-130.36,54.91],[-130.31,54.95],[-130.29,54.97],[-130.23,55.03],[-129.99,55.28],[-129.99,55.29],[-130,56.01],[-130.1,56.12],[-133.38,58.43],[-135.23,59.7],[-135.48,59.8],[-139.07,60.35],[-141.79,60.52],[-143.19,60.52],[-143.37,60.4],[-143.72,60.15],[-143.89,60.02],[-143.89,60]]]}},{"type":"Feature","id":"geom_evt_20251224_southern_california_2025_12_24_winter_d1_hover","properties":{"event_id":"evt_20251224_southern_california_2025_12_24_winter","day_index":1,"geometry_role":"hover_geometry"},"geometry":{"type":"Polygon","coordinates":[[[-119.61,37.44],[-118.67,35.65],[-118.65,35.62],[-118.64,35.61],[-118.63,35.61],[-118.62,35.6],[-118.19,35.54],[-118.11,35.54],[-118.06,35.54],[-118.03,35.56],[-117.9,35.8],[-117.69,36.4],[-117.97,37.46],[-119.13,37.73],[-119.14,37.74],[-119.17,37.74],[-119.18,37.74],[-119.19,37.74],[-119.25,37.73],[-119.25,37.73],[-119.58,37.53],[-119.58,37.53],[-119.6,37.49],[-119.61,37.46],[-119.61,37.46],[-119.61,37.44]]]}},{"type":"Feature","id":"geom_evt_20251206_southwest_2025_12_06_winter_d1_hover","properties":{"event_id":"evt_20251206_southwest_2025_12_06_winter","day_index":1,"geometry_role":"hover_geometry"},"geometry":{"type":"Polygon","coordinates":[[[-108.12,40.33],[-107.92,39.72],[-107.67,39.37],[-106.25,38.27],[-106.2,38.26],[-106.1,38.27],[-106.09,38.28],[-105.37,39.1],[-105.33,39.28],[-105.33,39.29],[-105.34,39.52],[-105.38,39.89],[-105.49,40.18],[-105.53,40.19],[-107.15,40.4],[-108.11,40.36],[-108.12,40.33]]]}},{"type":"Feature","id":"geom_evt_20251229_southwest_2025_12_29_winter_d1_hover","properties":{"event_id":"evt_20251229_southwest_2025_12_29_winter","day_index":1,"geometry_role":"hover_geometry"},"geometry":{"type":"Polygon","coordinates":[[[-106.07,32.04],[-106.06,32],[-104.85,32],[-104.84,32.52],[-104.84,32.96],[-104.91,33.14],[-105.32,33.31],[-105.73,33.39],[-105.9,33.39],[-105.91,33.37],[-105.94,33.29],[-106.06,32.18],[-106.07,32.08],[-106.07,32.04]]]}},{"type":"Feature","id":"geom_evt_20251228_mid_atlantic_2025_12_28_severe_d1_hover","properties":{"event_id":"evt_20251228_mid_atlantic_2025_12_28_severe","day_index":1,"geometry_role":"hover_geometry"},"geometry":{"type":"Polygon","coordinates":[[[-89.34,38.42],[-89.3,37.7],[-89.06,37.32],[-88.44,37.15],[-87.88,37.3],[-86.68,37.96],[-85.96,38.8],[-85.59,39.53],[-85.38,41.07],[-85.43,41.31],[-85.72,41.42],[-86.93,41.43],[-88.12,41.07],[-89.2,39.18],[-89.34,38.42]]]}}]}