{"type":"FeatureCollection","features":[{"type":"Feature","id":"geom_evt_20250726_upper_midwest_2025_07_26_severe_d1_hover","properties":{"event_id":"evt_20250726_upper_midwest_2025_07_26_severe","day_index":1,"geometry_role":"hover_geometry"},"geometry":{"type":"Polygon","coordinates":[[[-105.83,45],[-105.62,44.61],[-76.86,38.66],[-76.32,38.75],[-75.77,39.67],[-77.63,40.75],[-95.46,48.6],[-96.94,48.89],[-105.32,45.57],[-105.83,45]]]}},{"type":"Feature","id":"geom_evt_20250727_upper_midwest_2025_07_27_severe_d1_hover","properties":{"event_id":"evt_20250726_upper_midwest_2025_07_26_severe","day_index":2,"geometry_role":"hover_geometry"},"geometry":{"type":"Polygon","coordinates":[[[-97.28,45.03],[-97.27,44.76],[-94.14,44.04],[-93.04,44.2],[-92.78,44.38],[-92.62,46.13],[-93.31,46.75],[-93.98,46.82],[-95.9,45.91],[-97.28,45.03]]]}},{"type":"Feature","id":"geom_evt_20250728_upper_midwest_2025_07_28_severe_d1_hover","properties":{"event_id":"evt_20250726_upper_midwest_2025_07_26_severe","day_index":3,"geometry_role":"hover_geometry"},"geometry":{"type":"Polygon","coordinates":[[[-98.9,44.37],[-98.8,44.1],[-97.7,43.51],[-96.68,43.13],[-94.82,42.6],[-92.95,42.46],[-92.23,42.82],[-92.27,43.49],[-93.74,44.58],[-95.97,45.45],[-97.23,45.49],[-98.65,45.35],[-98.89,44.91],[-98.9,44.37]]]}},{"type":"Feature","id":"geom_evt_20250701_northern_california_2025_07_01_fire_d1_hover","properties":{"event_id":"evt_20250701_northern_california_2025_07_01_fire","day_index":1,"geometry_role":"hover_geometry"},"geometry":{"type":"Polygon","coordinates":[[[-118.09,38.21],[-117.65,37.49],[-117.27,37.32],[-116.88,37.31],[-116.09,37.47],[-115.1,37.82],[-114.69,38.43],[-114.47,39.51],[-114.56,40.58],[-114.91,40.85],[-116.83,39.78],[-118.01,38.78],[-118.09,38.21]]]}},{"type":"Feature","id":"geom_evt_20250709_northern_california_2025_07_09_fire_d1_hover","properties":{"event_id":"evt_20250709_northern_california_2025_07_09_fire","day_index":1,"geometry_role":"hover_geometry"},"geometry":{"type":"Polygon","coordinates":[[[-117.59,39.49],[-117.29,38.88],[-116.69,38.52],[-116.11,38.25],[-114.97,37.82],[-114.19,37.65],[-113.37,37.68],[-112.83,37.98],[-112.5,38.6],[-112.48,39.31],[-114.07,41.54],[-114.58,41.77],[-115.54,41.68],[-116.83,41.24],[-117.33,40.47],[-117.51,39.96],[-117.59,39.49]]]}},{"type":"Feature","id":"geom_evt_20250721_northern_california_2025_07_21_fire_d1_hover","properties":{"event_id":"evt_20250721_northern_california_2025_07_21_fire","day_index":1,"geometry_role":"hover_geometry"},"geometry":{"type":"Polygon","coordinates":[[[-119.57,40.61],[-119.55,39.87],[-119.38,39.14],[-119.12,38.78],[-118.93,38.68],[-118.31,38.79],[-116.53,40.08],[-115.62,41.48],[-115.67,41.8],[-115.82,41.97],[-116.46,41.89],[-119,41.23],[-119.45,40.9],[-119.57,40.61]]]}},{"type":"Feature","id":"geom_evt_20250704_desert_southwest_2025_07_04_fire_d1_hover","properties":{"event_id":"evt_20250704_desert_southwest_2025_07_04_fire","day_index":1,"geometry_role":"hover_geometry"},"geometry":{"type":"Polygon","coordinates":[[[-116.19,37.66],[-115.44,37.31],[-114.38,37.6],[-113.45,38.32],[-112.97,39.07],[-113.06,39.82],[-113.53,40.07],[-114.33,40.18],[-114.97,39.83],[-116.01,39.07],[-116.19,38.1],[-116.19,37.66]]]}},{"type":"Feature","id":"geom_evt_20250715_desert_southwest_2025_07_15_fire_d1_hover","properties":{"event_id":"evt_20250715_desert_southwest_2025_07_15_fire","day_index":1,"geometry_role":"hover_geometry"},"geometry":{"type":"Polygon","coordinates":[[[-116.69,38.44],[-116.05,37.39],[-113.24,36.31],[-112.86,36.27],[-112.45,36.42],[-112.35,36.62],[-112.51,39.13],[-112.76,39.72],[-113.62,40],[-115.59,39.63],[-116.3,39.08],[-116.69,38.44]]]}},{"type":"Feature","id":"geom_evt_20250730_desert_southwest_2025_07_30_fire_d1_hover","properties":{"event_id":"evt_20250730_desert_southwest_2025_07_30_fire","day_index":1,"geometry_role":"hover_geometry"},"geometry":{"type":"Polygon","coordinates":[[[-114.68,37.85],[-114.47,37.37],[-114.37,37.16],[-114.15,37],[-113.76,36.96],[-113.38,37.03],[-113.13,37.24],[-112.77,38.01],[-112.57,38.54],[-112.58,38.83],[-112.85,39.14],[-113.3,39.26],[-113.73,39.17],[-114.25,38.87],[-114.55,38.43],[-114.68,37.85]]]}},{"type":"Feature","id":"geom_evt_20250714_pacific_northwest_2025_07_14_fire_d1_hover","properties":{"event_id":"evt_20250714_pacific_northwest_2025_07_14_fire","day_index":1,"geometry_role":"hover_geometry"},"geometry":{"type":"Polygon","coordinates":[[[-120.51,46.1],[-120.43,45.86],[-120.21,45.8],[-119.87,45.9],[-119.49,46.05],[-118.77,46.51],[-118.63,47.09],[-118.62,47.68],[-119.13,49],[-119.68,49],[-119.95,48.34],[-120.43,47],[-120.51,46.1]]]}},{"type":"Feature","id":"geom_evt_20250731_southwest_2025_07_31_fire_d1_hover","properties":{"event_id":"evt_20250731_southwest_2025_07_31_fire","day_index":1,"geometry_role":"hover_geometry"},"geometry":{"type":"Polygon","coordinates":[[[-114.39,38.31],[-114.34,36.4],[-114.31,36.27],[-114.05,36.02],[-113.13,36.06],[-112.44,36.25],[-109.79,38.08],[-108.32,40.21],[-108.32,40.46],[-108.42,40.61],[-108.62,40.81],[-108.78,40.9],[-109.39,40.91],[-112.02,40.26],[-112.7,40.07],[-113.08,39.85],[-113.29,39.69],[-113.61,39.43],[-114.08,38.93],[-114.39,38.31]]]}},{"type":"Feature","id":"geom_evt_20250701_great_lakes_2025_07_01_rain_d1_hover","properties":{"event_id":"evt_20250701_great_lakes_2025_07_01_rain","day_index":1,"geometry_role":"hover_geometry"},"geometry":{"type":"Polygon","coordinates":[[[-78.9,38.67],[-78.76,38.44],[-78.22,38.25],[-77.76,38.29],[-77.39,38.43],[-75.47,39.53],[-75.18,39.85],[-75.32,40.31],[-75.58,40.47],[-75.93,40.51],[-76.41,40.43],[-77.81,39.73],[-78.45,39.3],[-78.79,38.97],[-78.9,38.67]]]}},{"type":"Feature","id":"geom_evt_20250731_great_lakes_2025_07_31_rain_d1_hover","properties":{"event_id":"evt_20250731_great_lakes_2025_07_31_rain","day_index":1,"geometry_role":"hover_geometry"},"geometry":{"type":"Polygon","coordinates":[[[-77.71,38.91],[-77.58,38.68],[-77.47,38.62],[-77.1,38.45],[-76.99,38.44],[-76.59,38.44],[-75.83,38.54],[-75.15,38.77],[-74.7,39.03],[-74.14,39.55],[-73.11,41.12],[-73.13,41.3],[-73.42,41.33],[-73.66,41.32],[-74.2,41.25],[-74.94,41.07],[-75.19,41.01],[-75.57,40.87],[-76.82,40.12],[-77.02,39.96],[-77.51,39.43],[-77.71,38.91]]]}},{"type":"Feature","id":"geom_evt_20250704_gulf_coast_2025_07_04_rain_d1_hover","properties":{"event_id":"evt_20250704_gulf_coast_2025_07_04_rain","day_index":1,"geometry_role":"hover_geometry"},"geometry":{"type":"Polygon","coordinates":[[[-99.84,30.04],[-99.67,29.86],[-99.41,29.78],[-98.99,29.92],[-98.53,30.3],[-98.23,30.9],[-98.2,31.67],[-98.53,31.93],[-98.9,31.93],[-99.11,31.83],[-99.52,31.46],[-99.82,30.86],[-99.84,30.04]]]}},{"type":"Feature","id":"geom_evt_20250707_gulf_coast_2025_07_07_rain_d1_hover","properties":{"event_id":"evt_20250707_gulf_coast_2025_07_07_rain","day_index":1,"geometry_role":"hover_geometry"},"geometry":{"type":"Polygon","coordinates":[[[-100.96,30.45],[-100.96,30.36],[-100.89,30.09],[-100.73,29.96],[-100.35,29.79],[-99.98,29.8],[-99.62,29.91],[-99.41,30],[-98.9,30.29],[-98.33,30.76],[-98.28,30.94],[-98.4,31.12],[-98.61,31.3],[-98.78,31.43],[-99.15,31.51],[-99.63,31.45],[-100.41,31.16],[-100.77,30.82],[-100.87,30.64],[-100.96,30.45]]]}},{"type":"Feature","id":"geom_evt_20250713_gulf_coast_2025_07_13_rain_d1_hover","properties":{"event_id":"evt_20250713_gulf_coast_2025_07_13_rain","day_index":1,"geometry_role":"hover_geometry"},"geometry":{"type":"Polygon","coordinates":[[[-101.16,30.13],[-100.96,29.45],[-100.69,29.14],[-100.48,29.1],[-98.82,29.56],[-98.2,29.85],[-97.84,30.13],[-97.48,30.55],[-97.38,30.73],[-97.33,30.87],[-97.33,30.91],[-97.44,31.09],[-97.76,31.27],[-98.29,31.26],[-100.65,30.6],[-101.11,30.22],[-101.16,30.13]]]}},{"type":"Feature","id":"geom_evt_20250717_gulf_coast_2025_07_17_rain_d1_hover","properties":{"event_id":"evt_20250717_gulf_coast_2025_07_17_rain","day_index":1,"geometry_role":"hover_geometry"},"geometry":{"type":"Polygon","coordinates":[[[-92.96,29.37],[-92.55,29.23],[-91.15,28.79],[-91.05,28.83],[-91.04,28.97],[-91.07,29.61],[-91.27,30.02],[-91.58,30.26],[-91.89,30.4],[-91.94,30.4],[-92.21,30.4],[-92.42,30.32],[-92.85,29.96],[-92.96,29.73],[-92.96,29.37]]]}},{"type":"Feature","id":"geom_evt_20250709_mid_atlantic_2025_07_09_rain_d1_hover","properties":{"event_id":"evt_20250709_mid_atlantic_2025_07_09_rain","day_index":1,"geometry_role":"hover_geometry"},"geometry":{"type":"Polygon","coordinates":[[[-80.41,36.43],[-80.19,35.96],[-79.7,35.51],[-79.42,35.48],[-79.24,35.6],[-77.35,36.99],[-75.16,39.67],[-75,39.87],[-75.07,40.1],[-75.54,40.11],[-76.02,39.99],[-76.61,39.65],[-80.11,37.35],[-80.39,36.97],[-80.41,36.43]]]}},{"type":"Feature","id":"geom_evt_20250715_mid_atlantic_2025_07_15_rain_d1_hover","properties":{"event_id":"evt_20250715_mid_atlantic_2025_07_15_rain","day_index":1,"geometry_role":"hover_geometry"},"geometry":{"type":"Polygon","coordinates":[[[-78.54,37.29],[-78.45,37.15],[-77.59,36.88],[-77.09,36.83],[-77.05,37.05],[-77.2,37.2],[-77.63,37.34],[-78.3,37.4],[-78.54,37.29]]]}},{"type":"Feature","id":"geom_evt_20250718_mid_atlantic_2025_07_18_rain_d1_hover","properties":{"event_id":"evt_20250718_mid_atlantic_2025_07_18_rain","day_index":1,"geometry_role":"hover_geometry"},"geometry":{"type":"Polygon","coordinates":[[[-79.49,38.14],[-79.4,38],[-78.85,37.46],[-77.51,36.65],[-77.24,36.62],[-76.76,36.8],[-76.72,37.33],[-77.94,38.94],[-78.09,39.09],[-78.36,39.2],[-78.76,39.19],[-78.88,39.16],[-79.01,39.08],[-79.15,38.92],[-79.29,38.71],[-79.38,38.49],[-79.49,38.14]]]}},{"type":"Feature","id":"geom_evt_20250719_mid_atlantic_2025_07_19_rain_d1_hover","properties":{"event_id":"evt_20250718_mid_atlantic_2025_07_18_rain","day_index":2,"geometry_role":"hover_geometry"},"geometry":{"type":"Polygon","coordinates":[[[-88.69,37.79],[-88.43,37.51],[-88.04,37.37],[-87.21,37.2],[-85.43,37.1],[-84.97,37.17],[-84.61,37.41],[-84.51,37.9],[-84.82,38.19],[-86.27,38.49],[-87.8,38.51],[-88.38,38.36],[-88.61,38.19],[-88.69,37.79]]]}},{"type":"Feature","id":"geom_evt_20250720_mid_atlantic_2025_07_20_rain_d1_hover","properties":{"event_id":"evt_20250718_mid_atlantic_2025_07_18_rain","day_index":3,"geometry_role":"hover_geometry"},"geometry":{"type":"Polygon","coordinates":[[[-92.13,39.92],[-91.96,39.65],[-91.57,39.47],[-87.77,38.96],[-87.65,39.04],[-87.44,39.56],[-87.65,39.84],[-88.1,39.99],[-89.07,40.15],[-90.79,40.2],[-91.84,40.09],[-92.01,40.05],[-92.13,39.92]]]}},{"type":"Feature","id":"geom_evt_20250714_southeast_2025_07_14_rain_d1_hover","properties":{"event_id":"evt_20250714_southeast_2025_07_14_rain","day_index":1,"geometry_role":"hover_geometry"},"geometry":{"type":"Polygon","coordinates":[[[-101.33,29.44],[-100.67,28.78],[-99.79,28.99],[-76.74,38.55],[-76.1,38.92],[-75.1,39.66],[-74.24,40.5],[-74.17,40.8],[-74.35,41.09],[-74.7,41.13],[-75.13,41],[-76.21,40.58],[-100.84,30.18],[-101.19,29.81],[-101.33,29.44]]]}},{"type":"Feature","id":"geom_evt_20250724_southern_plains_2025_07_24_rain_d1_hover","properties":{"event_id":"evt_20250724_southern_plains_2025_07_24_rain","day_index":1,"geometry_role":"hover_geometry"},"geometry":{"type":"Polygon","coordinates":[[[-95.91,39.19],[-95.85,38.84],[-95.74,38.71],[-95.51,38.62],[-95.06,38.62],[-94.26,38.79],[-92.77,39.31],[-92.6,39.44],[-92.48,39.71],[-92.64,40.02],[-92.93,40.15],[-93.33,40.16],[-95.29,39.64],[-95.63,39.46],[-95.91,39.19]]]}},{"type":"Feature","id":"geom_evt_20250725_southern_plains_2025_07_25_rain_d1_hover","properties":{"event_id":"evt_20250724_southern_plains_2025_07_24_rain","day_index":2,"geometry_role":"hover_geometry"},"geometry":{"type":"Polygon","coordinates":[[[-98.12,38.46],[-98.11,38.1],[-97.82,37.84],[-96.07,37.95],[-94.32,38.97],[-94.09,39.28],[-94.08,39.55],[-94.42,40.25],[-94.71,40.43],[-95.4,40.39],[-96.09,40.12],[-97.17,39.45],[-97.73,39],[-98.12,38.46]]]}},{"type":"Feature","id":"geom_evt_2025_al03_chantal_d1_hover","properties":{"event_id":"evt_2025_al03_chantal","day_index":1,"geometry_role":"hover_geometry"},"geometry":{"type":"Polygon","coordinates":[[[-80.6,30.7],[-80.4,30.06],[-79.85,29.6],[-79.1,29.43],[-78.35,29.6],[-77.8,30.06],[-77.6,30.7],[-77.8,31.34],[-78.35,31.8],[-79.1,31.98],[-79.85,31.8],[-80.4,31.34],[-80.6,30.7]]]}},{"type":"Feature","id":"geom_evt_2025_al03_chantal_d2_hover","properties":{"event_id":"evt_2025_al03_chantal","day_index":2,"geometry_role":"hover_geometry"},"geometry":{"type":"Polygon","coordinates":[[[-80.8,31.6],[-80.51,30.67],[-79.7,29.98],[-78.6,29.73],[-77.5,29.98],[-76.69,30.67],[-76.4,31.6],[-76.69,32.54],[-77.5,33.22],[-78.6,33.47],[-79.7,33.22],[-80.51,32.54],[-80.8,31.6]]]}},{"type":"Feature","id":"geom_evt_2025_al03_chantal_d3_hover","properties":{"event_id":"evt_2025_al03_chantal","day_index":3,"geometry_role":"hover_geometry"},"geometry":{"type":"Polygon","coordinates":[[[-80.6,34.6],[-80.4,33.96],[-79.85,33.5],[-79.1,33.33],[-78.35,33.5],[-77.8,33.96],[-77.6,34.6],[-77.8,35.24],[-78.35,35.7],[-79.1,35.88],[-79.85,35.7],[-80.4,35.24],[-80.6,34.6]]]}},{"type":"Feature","id":"geom_evt_2025_al03_chantal_d4_hover","properties":{"event_id":"evt_2025_al03_chantal","day_index":4,"geometry_role":"hover_geometry"},"geometry":{"type":"Polygon","coordinates":[[[-77.4,37.9],[-77.2,37.26],[-76.65,36.8],[-75.9,36.63],[-75.15,36.8],[-74.6,37.26],[-74.4,37.9],[-74.6,38.54],[-75.15,39],[-75.9,39.17],[-76.65,39],[-77.2,38.54],[-77.4,37.9]]]}},{"type":"Feature","id":"geom_evt_20250705_northern_rockies_2025_07_05_severe_d1_hover","properties":{"event_id":"evt_20250705_northern_rockies_2025_07_05_severe","day_index":1,"geometry_role":"hover_geometry"},"geometry":{"type":"Polygon","coordinates":[[[-107.41,45.55],[-106.82,44.88],[-103.62,43.72],[-102.44,44.09],[-102.52,45.33],[-103.55,45.83],[-106.58,46.35],[-107.26,46],[-107.41,45.55]]]}},{"type":"Feature","id":"geom_evt_20250707_upper_midwest_2025_07_07_severe_d1_hover","properties":{"event_id":"evt_20250707_upper_midwest_2025_07_07_severe","day_index":1,"geometry_role":"hover_geometry"},"geometry":{"type":"Polygon","coordinates":[[[-103.08,41.01],[-103,39.9],[-102.3,39.67],[-101.16,39.8],[-98.87,40.95],[-96.34,44.2],[-96.26,45.16],[-96.44,45.68],[-96.96,45.96],[-97.76,45.55],[-103.08,41.01]]]}},{"type":"Feature","id":"geom_evt_20250710_upper_midwest_2025_07_10_severe_d1_hover","properties":{"event_id":"evt_20250710_upper_midwest_2025_07_10_severe","day_index":1,"geometry_role":"hover_geometry"},"geometry":{"type":"Polygon","coordinates":[[[-97.62,42.38],[-97.61,42.01],[-96.85,41.36],[-96.19,41.17],[-94.86,41.21],[-94.12,41.63],[-93.74,42.27],[-93.9,42.72],[-94.29,42.9],[-95.22,43.11],[-96.35,43.11],[-97.21,42.9],[-97.62,42.38]]]}},{"type":"Feature","id":"geom_evt_20250711_upper_midwest_2025_07_11_severe_d1_hover","properties":{"event_id":"evt_20250710_upper_midwest_2025_07_10_severe","day_index":2,"geometry_role":"hover_geometry"},"geometry":{"type":"Polygon","coordinates":[[[-93.29,40.81],[-93.27,40.41],[-92.95,40.03],[-91.76,39.98],[-90.15,40.49],[-88.56,41.13],[-88.21,41.46],[-88.3,41.84],[-88.74,42.16],[-89.26,42.23],[-90.83,41.99],[-92.51,41.47],[-93.11,41.1],[-93.29,40.81]]]}},{"type":"Feature","id":"geom_evt_20250714_upper_midwest_2025_07_14_severe_d1_hover","properties":{"event_id":"evt_20250714_upper_midwest_2025_07_14_severe","day_index":1,"geometry_role":"hover_geometry"},"geometry":{"type":"Polygon","coordinates":[[[-104.53,43.47],[-104.42,43.01],[-104.13,42.57],[-103.61,42.38],[-78.56,37.66],[-78.06,37.75],[-77.21,38.29],[-76.37,38.98],[-75.17,40.11],[-75.18,40.52],[-75.45,40.69],[-75.87,40.77],[-101.14,45],[-102.07,44.87],[-102.77,44.68],[-104.12,44.12],[-104.53,43.47]]]}},{"type":"Feature","id":"geom_evt_20250715_upper_midwest_2025_07_15_severe_d1_hover","properties":{"event_id":"evt_20250714_upper_midwest_2025_07_14_severe","day_index":2,"geometry_role":"hover_geometry"},"geometry":{"type":"Polygon","coordinates":[[[-101,41.15],[-100.68,40.6],[-99.79,40.44],[-98.37,40.92],[-97.88,41.61],[-97.59,42.78],[-98.29,43.13],[-99.45,42.78],[-100.79,41.78],[-101,41.15]]]}},{"type":"Feature","id":"geom_evt_20250716_upper_midwest_2025_07_16_severe_d1_hover","properties":{"event_id":"evt_20250714_upper_midwest_2025_07_14_severe","day_index":3,"geometry_role":"hover_geometry"},"geometry":{"type":"Polygon","coordinates":[[[-105.87,41.01],[-105.14,38.32],[-104.68,37.66],[-103.97,37.32],[-103.13,37.12],[-102.44,37.15],[-88.84,40.44],[-85.42,42.38],[-85.26,43.67],[-86.82,44.54],[-88.93,44.97],[-104.99,42.53],[-105.86,42.26],[-105.87,41.01]]]}},{"type":"Feature","id":"geom_evt_20250709_northern_plains_2025_07_09_severe_d1_hover","properties":{"event_id":"evt_20250709_northern_plains_2025_07_09_severe","day_index":1,"geometry_role":"hover_geometry"},"geometry":{"type":"Polygon","coordinates":[[[-102.78,43.38],[-101.94,42.79],[-100.94,42.38],[-100.46,42.35],[-99.45,42.5],[-98.79,42.72],[-97.65,43.94],[-97.58,44.59],[-98.09,45.09],[-98.78,45.5],[-99.97,45.46],[-101.56,45.21],[-102.44,44.53],[-102.78,43.97],[-102.78,43.38]]]}},{"type":"Feature","id":"geom_evt_20250701_mid_atlantic_2025_07_01_severe_d1_hover","properties":{"event_id":"evt_20250701_mid_atlantic_2025_07_01_severe","day_index":1,"geometry_role":"hover_geometry"},"geometry":{"type":"Polygon","coordinates":[[[-103.08,44.03],[-102.9,41.31],[-102.35,41.19],[-79.53,37.44],[-77.93,37.51],[-77.14,37.76],[-74.82,38.88],[-74.05,40.01],[-73.9,41.09],[-74.1,41.4],[-102.26,44.28],[-102.78,44.28],[-103.08,44.03]]]}},{"type":"Feature","id":"geom_evt_20250712_mid_atlantic_2025_07_12_severe_d1_hover","properties":{"event_id":"evt_20250712_mid_atlantic_2025_07_12_severe","day_index":1,"geometry_role":"hover_geometry"},"geometry":{"type":"Polygon","coordinates":[[[-89.5,37.46],[-89.39,37.09],[-88.91,36.96],[-86.73,37.63],[-85.03,38.36],[-83.4,39.38],[-81.83,41.27],[-81.5,42.11],[-82.53,45.34],[-83.48,46.04],[-84.3,45.57],[-89.5,37.46]]]}},{"type":"Feature","id":"geom_evt_20250717_mid_atlantic_2025_07_17_severe_d1_hover","properties":{"event_id":"evt_20250717_mid_atlantic_2025_07_17_severe","day_index":1,"geometry_role":"hover_geometry"},"geometry":{"type":"Polygon","coordinates":[[[-110.16,48.4],[-109.28,47.8],[-108.03,47.31],[-104.72,46.22],[-103.59,46.09],[-73.36,43.96],[-71.44,44],[-70.71,44.19],[-68.65,45.83],[-67.75,46.65],[-67.78,47.1],[-68.29,47.42],[-68.97,47.47],[-69.25,47.48],[-108.82,48.74],[-110.16,48.4]]]}},{"type":"Feature","id":"geom_evt_20250718_mid_atlantic_2025_07_18_severe_d1_hover","properties":{"event_id":"evt_20250717_mid_atlantic_2025_07_17_severe","day_index":2,"geometry_role":"hover_geometry"},"geometry":{"type":"Polygon","coordinates":[[[-100.21,41.86],[-100.12,41.3],[-77.35,35.24],[-76.47,35.58],[-75.74,36],[-75.52,36.57],[-75.59,36.76],[-76.38,37.63],[-77.41,38.43],[-95.64,44.98],[-96.8,44.97],[-100.1,42.34],[-100.21,41.86]]]}},{"type":"Feature","id":"geom_evt_20250719_mid_atlantic_2025_07_19_severe_d1_hover","properties":{"event_id":"evt_20250717_mid_atlantic_2025_07_17_severe","day_index":3,"geometry_role":"hover_geometry"},"geometry":{"type":"Polygon","coordinates":[[[-107.69,48.99],[-103.5,40.49],[-102.87,39.52],[-102.05,39.12],[-80.16,36.13],[-79.08,36],[-77.06,35.98],[-75.45,36.41],[-75.35,37.34],[-82.22,43.98],[-103.62,48.99],[-105.6,49.01],[-107.69,48.99]]]}},{"type":"Feature","id":"geom_evt_20250720_mid_atlantic_2025_07_20_severe_d1_hover","properties":{"event_id":"evt_20250717_mid_atlantic_2025_07_17_severe","day_index":4,"geometry_role":"hover_geometry"},"geometry":{"type":"Polygon","coordinates":[[[-107.27,46.29],[-107.23,45.73],[-102.39,39.08],[-82.7,37.22],[-81.48,37.48],[-69.51,42.03],[-69.86,43.21],[-70.45,43.96],[-71.28,44.17],[-99.72,47.32],[-106.68,46.78],[-107.27,46.29]]]}},{"type":"Feature","id":"geom_evt_20250724_mid_atlantic_2025_07_24_severe_d1_hover","properties":{"event_id":"evt_20250724_mid_atlantic_2025_07_24_severe","day_index":1,"geometry_role":"hover_geometry"},"geometry":{"type":"Polygon","coordinates":[[[-90.27,40.81],[-89.19,40.25],[-87.33,40.51],[-84.57,41.55],[-84.18,41.83],[-83.07,45],[-83.08,45.32],[-83.5,45.59],[-84.22,45.67],[-90.2,41.11],[-90.27,40.81]]]}},{"type":"Feature","id":"geom_evt_20250725_mid_atlantic_2025_07_25_severe_d1_hover","properties":{"event_id":"evt_20250724_mid_atlantic_2025_07_24_severe","day_index":2,"geometry_role":"hover_geometry"},"geometry":{"type":"Polygon","coordinates":[[[-104.59,46.91],[-96.77,38.36],[-96.09,38.08],[-75.47,39.38],[-74.11,39.79],[-70.42,42.19],[-70.84,42.72],[-97.78,48.99],[-97.86,48.99],[-103.18,47.79],[-104.3,47.45],[-104.59,46.91]]]}},{"type":"Feature","id":"geom_evt_20250731_mid_atlantic_2025_07_31_severe_d1_hover","properties":{"event_id":"evt_20250731_mid_atlantic_2025_07_31_severe","day_index":1,"geometry_role":"hover_geometry"},"geometry":{"type":"Polygon","coordinates":[[[-108.52,44.82],[-108.02,43.07],[-105.47,39.28],[-76.54,37.94],[-74.73,38.35],[-74.08,39.2],[-73.84,39.53],[-73.75,39.8],[-73.66,40.17],[-74.11,40.47],[-74.66,40.68],[-107.72,45.29],[-108.52,44.82]]]}},{"type":"Feature","id":"geom_evt_20250702_northern_rockies_2025_07_02_severe_d1_hover","properties":{"event_id":"evt_20250702_northern_rockies_2025_07_02_severe","day_index":1,"geometry_role":"hover_geometry"},"geometry":{"type":"Polygon","coordinates":[[[-110.97,46.86],[-110.25,46.43],[-108.82,46.43],[-107.51,46.94],[-105.87,49.01],[-109.03,49],[-110.47,47.87],[-110.97,46.86]]]}},{"type":"Feature","id":"geom_evt_20250703_great_lakes_2025_07_03_severe_d1_hover","properties":{"event_id":"evt_20250703_great_lakes_2025_07_03_severe","day_index":1,"geometry_role":"hover_geometry"},"geometry":{"type":"Polygon","coordinates":[[[-105.56,44.83],[-104.92,44.59],[-74.03,39.27],[-71.17,40.87],[-67.28,44.15],[-66.86,44.82],[-67.78,47.1],[-68.29,47.42],[-68.97,47.47],[-96.43,48.99],[-99.69,49],[-102.04,48.99],[-103.6,47.85],[-104.31,47.03],[-105.13,45.86],[-105.56,44.83]]]}},{"type":"Feature","id":"geom_evt_20250708_great_lakes_2025_07_08_severe_d1_hover","properties":{"event_id":"evt_20250708_great_lakes_2025_07_08_severe","day_index":1,"geometry_role":"hover_geometry"},"geometry":{"type":"Polygon","coordinates":[[[-79.17,37.93],[-78.86,37.23],[-77.97,36.9],[-77,36.92],[-76.49,37.3],[-74.19,39.62],[-73.58,40.55],[-73.69,41.23],[-74.38,41.45],[-75.36,41.21],[-77.42,40.34],[-78.71,39.02],[-79.17,37.93]]]}},{"type":"Feature","id":"geom_evt_20250704_upper_midwest_2025_07_04_severe_d1_hover","properties":{"event_id":"evt_20250704_upper_midwest_2025_07_04_severe","day_index":1,"geometry_role":"hover_geometry"},"geometry":{"type":"Polygon","coordinates":[[[-99.84,45.94],[-99.81,45.59],[-99.75,45.08],[-99.6,44.6],[-99.36,44.4],[-98.89,44.28],[-97.86,44.65],[-97.06,44.99],[-94.66,46.32],[-91.76,48.22],[-92.05,48.36],[-92.61,48.55],[-94.69,48.94],[-95.66,48.82],[-97.04,48.25],[-98.51,47.41],[-99.4,46.62],[-99.84,45.94]]]}},{"type":"Feature","id":"geom_evt_20250722_upper_midwest_2025_07_22_severe_d1_hover","properties":{"event_id":"evt_20250722_upper_midwest_2025_07_22_severe","day_index":1,"geometry_role":"hover_geometry"},"geometry":{"type":"Polygon","coordinates":[[[-108.75,46.04],[-108.55,45.46],[-106.88,44.64],[-101.87,44.3],[-96.56,44.93],[-92.92,45.89],[-91.38,46.48],[-91.71,47.51],[-92.36,48.1],[-93.85,48.29],[-96.22,48.28],[-107.58,46.43],[-108.75,46.04]]]}},{"type":"Feature","id":"geom_evt_20250723_upper_midwest_2025_07_23_severe_d1_hover","properties":{"event_id":"evt_20250722_upper_midwest_2025_07_22_severe","day_index":2,"geometry_role":"hover_geometry"},"geometry":{"type":"Polygon","coordinates":[[[-107.08,44.83],[-106.82,43.86],[-105.93,43.2],[-100.5,41],[-99.28,40.86],[-98.02,41.02],[-95.45,41.86],[-83.57,45.84],[-83.44,45.98],[-83.52,46.1],[-84.14,46.51],[-84.81,46.78],[-87.28,46.96],[-91.29,46.9],[-105.51,45.62],[-106.83,45.26],[-107.08,44.83]]]}},{"type":"Feature","id":"geom_evt_20250706_central_plains_2025_07_06_severe_d1_hover","properties":{"event_id":"evt_20250706_central_plains_2025_07_06_severe","day_index":1,"geometry_role":"hover_geometry"},"geometry":{"type":"Polygon","coordinates":[[[-105.3,41.34],[-105.19,39.56],[-105.03,38.47],[-104.18,37.88],[-102.02,37.12],[-100.52,36.72],[-99.69,37.02],[-98.98,39.26],[-99.15,40.51],[-100.34,42.05],[-101.69,42.84],[-103.06,42.83],[-104.5,42.34],[-105.3,41.34]]]}},{"type":"Feature","id":"geom_evt_20250721_northern_plains_2025_07_21_severe_d1_hover","properties":{"event_id":"evt_20250721_northern_plains_2025_07_21_severe","day_index":1,"geometry_role":"hover_geometry"},"geometry":{"type":"Polygon","coordinates":[[[-110.9,46.61],[-110.71,46.21],[-103.42,44.37],[-102.86,44.39],[-100.04,45.29],[-99.74,45.65],[-99.41,46.31],[-99.69,47.32],[-101.27,48.09],[-103.52,48.43],[-104.71,48.46],[-107.78,48.15],[-110.66,47.13],[-110.9,46.61]]]}},{"type":"Feature","id":"geom_evt_20250729_northern_plains_2025_07_29_severe_d1_hover","properties":{"event_id":"evt_20250729_northern_plains_2025_07_29_severe","day_index":1,"geometry_role":"hover_geometry"},"geometry":{"type":"Polygon","coordinates":[[[-111.66,46.22],[-111.3,45.74],[-102.39,39.32],[-96.42,40.08],[-95.02,40.26],[-94.14,40.62],[-93.46,41.47],[-93.35,41.98],[-105.45,46.05],[-109.19,46.48],[-111.05,46.5],[-111.66,46.22]]]}},{"type":"Feature","id":"geom_evt_20250713_southern_plains_2025_07_13_severe_d1_hover","properties":{"event_id":"evt_20250713_southern_plains_2025_07_13_severe","day_index":1,"geometry_role":"hover_geometry"},"geometry":{"type":"Polygon","coordinates":[[[-111.44,31.43],[-111.1,31.32],[-109.08,31.31],[-109.01,31.31],[-77.73,39.85],[-76.47,41.15],[-74.06,43.79],[-73.11,45.02],[-74.88,45.03],[-110.14,32.75],[-111.2,32.16],[-111.44,31.43]]]}}]}