{"type":"FeatureCollection","features":[{"type":"Feature","id":"geom_evt_2025_al13_melissa_d1_hover","properties":{"event_id":"evt_2025_al13_melissa","day_index":1,"geometry_role":"hover_geometry"},"geometry":{"type":"Polygon","coordinates":[[[-74.6,14],[-74.31,13.07],[-73.5,12.38],[-72.4,12.13],[-71.3,12.38],[-70.49,13.07],[-70.2,14],[-70.49,14.94],[-71.3,15.62],[-72.4,15.87],[-73.5,15.62],[-74.31,14.94],[-74.6,14]]]}},{"type":"Feature","id":"geom_evt_2025_al13_melissa_d2_hover","properties":{"event_id":"evt_2025_al13_melissa","day_index":2,"geometry_role":"hover_geometry"},"geometry":{"type":"Polygon","coordinates":[[[-76.3,14.3],[-76.01,13.37],[-75.2,12.68],[-74.1,12.43],[-73,12.68],[-72.19,13.37],[-71.9,14.3],[-72.19,15.24],[-73,15.92],[-74.1,16.17],[-75.2,15.92],[-76.01,15.24],[-76.3,14.3]]]}},{"type":"Feature","id":"geom_evt_2025_al13_melissa_d3_hover","properties":{"event_id":"evt_2025_al13_melissa","day_index":3,"geometry_role":"hover_geometry"},"geometry":{"type":"Polygon","coordinates":[[[-77.5,15.5],[-77.21,14.57],[-76.4,13.88],[-75.3,13.63],[-74.2,13.88],[-73.39,14.57],[-73.1,15.5],[-73.39,16.43],[-74.2,17.12],[-75.3,17.37],[-76.4,17.12],[-77.21,16.43],[-77.5,15.5]]]}},{"type":"Feature","id":"geom_evt_2025_al13_melissa_d4_hover","properties":{"event_id":"evt_2025_al13_melissa","day_index":4,"geometry_role":"hover_geometry"},"geometry":{"type":"Polygon","coordinates":[[[-77,15.9],[-76.71,14.97],[-75.9,14.28],[-74.8,14.03],[-73.7,14.28],[-72.89,14.97],[-72.6,15.9],[-72.89,16.84],[-73.7,17.52],[-74.8,17.77],[-75.9,17.52],[-76.71,16.84],[-77,15.9]]]}},{"type":"Feature","id":"geom_evt_2025_al13_melissa_d5_hover","properties":{"event_id":"evt_2025_al13_melissa","day_index":5,"geometry_role":"hover_geometry"},"geometry":{"type":"Polygon","coordinates":[[[-78.3,16.4],[-77.9,15.12],[-76.8,14.19],[-75.3,13.85],[-73.8,14.19],[-72.7,15.12],[-72.3,16.4],[-72.7,17.67],[-73.8,18.61],[-75.3,18.95],[-76.8,18.61],[-77.9,17.67],[-78.3,16.4]]]}},{"type":"Feature","id":"geom_evt_2025_al13_melissa_d6_hover","properties":{"event_id":"evt_2025_al13_melissa","day_index":6,"geometry_role":"hover_geometry"},"geometry":{"type":"Polygon","coordinates":[[[-79.9,16.3],[-79.5,15.03],[-78.4,14.09],[-76.9,13.75],[-75.4,14.09],[-74.3,15.03],[-73.9,16.3],[-74.3,17.58],[-75.4,18.51],[-76.9,18.85],[-78.4,18.51],[-79.5,17.58],[-79.9,16.3]]]}},{"type":"Feature","id":"geom_evt_2025_al13_melissa_d7_hover","properties":{"event_id":"evt_2025_al13_melissa","day_index":7,"geometry_role":"hover_geometry"},"geometry":{"type":"Polygon","coordinates":[[[-81.3,16.4],[-80.9,15.12],[-79.8,14.19],[-78.3,13.85],[-76.8,14.19],[-75.7,15.12],[-75.3,16.4],[-75.7,17.67],[-76.8,18.61],[-78.3,18.95],[-79.8,18.61],[-80.9,17.67],[-81.3,16.4]]]}},{"type":"Feature","id":"geom_evt_2025_al13_melissa_d8_hover","properties":{"event_id":"evt_2025_al13_melissa","day_index":8,"geometry_role":"hover_geometry"},"geometry":{"type":"Polygon","coordinates":[[[-81,18.2],[-80.6,16.93],[-79.5,15.99],[-78,15.65],[-76.5,15.99],[-75.4,16.92],[-75,18.2],[-75.4,19.47],[-76.5,20.41],[-78,20.75],[-79.5,20.41],[-80.6,19.47],[-81,18.2]]]}},{"type":"Feature","id":"geom_evt_2025_al13_melissa_d9_hover","properties":{"event_id":"evt_2025_al13_melissa","day_index":9,"geometry_role":"hover_geometry"},"geometry":{"type":"Polygon","coordinates":[[[-78,23.1],[-77.6,21.83],[-76.5,20.89],[-75,20.55],[-73.5,20.89],[-72.4,21.83],[-72,23.1],[-72.4,24.38],[-73.5,25.31],[-75,25.65],[-76.5,25.31],[-77.6,24.38],[-78,23.1]]]}},{"type":"Feature","id":"geom_evt_2025_al13_melissa_d10_hover","properties":{"event_id":"evt_2025_al13_melissa","day_index":10,"geometry_role":"hover_geometry"},"geometry":{"type":"Polygon","coordinates":[[[-73.9,28.9],[-73.5,27.63],[-72.4,26.69],[-70.9,26.35],[-69.4,26.69],[-68.3,27.62],[-67.9,28.9],[-68.3,30.17],[-69.4,31.11],[-70.9,31.45],[-72.4,31.11],[-73.5,30.17],[-73.9,28.9]]]}},{"type":"Feature","id":"geom_evt_2025_al13_melissa_d11_hover","properties":{"event_id":"evt_2025_al13_melissa","day_index":11,"geometry_role":"hover_geometry"},"geometry":{"type":"Polygon","coordinates":[[[-61.9,40.6],[-61.5,39.33],[-60.4,38.39],[-58.9,38.05],[-57.4,38.39],[-56.3,39.33],[-55.9,40.6],[-56.3,41.88],[-57.4,42.81],[-58.9,43.15],[-60.4,42.81],[-61.5,41.88],[-61.9,40.6]]]}},{"type":"Feature","id":"geom_evt_2025_al08_humberto_d1_hover","properties":{"event_id":"evt_2025_al08_humberto","day_index":1,"geometry_role":"hover_geometry"},"geometry":{"type":"Polygon","coordinates":[[[-68.5,36.1],[-68.1,34.83],[-67,33.89],[-65.5,33.55],[-64,33.89],[-62.9,34.83],[-62.5,36.1],[-62.9,37.38],[-64,38.31],[-65.5,38.65],[-67,38.31],[-68.1,37.38],[-68.5,36.1]]]}},{"type":"Feature","id":"geom_evt_2025_al09_imelda_d1_hover","properties":{"event_id":"evt_2025_al09_imelda","day_index":1,"geometry_role":"hover_geometry"},"geometry":{"type":"Polygon","coordinates":[[[-72.2,31.2],[-71.8,29.93],[-70.7,28.99],[-69.2,28.65],[-67.7,28.99],[-66.6,29.92],[-66.2,31.2],[-66.6,32.48],[-67.7,33.41],[-69.2,33.75],[-70.7,33.41],[-71.8,32.48],[-72.2,31.2]]]}},{"type":"Feature","id":"geom_evt_2025_al09_imelda_d2_hover","properties":{"event_id":"evt_2025_al09_imelda","day_index":2,"geometry_role":"hover_geometry"},"geometry":{"type":"Polygon","coordinates":[[[-59.7,33.5],[-59.41,32.57],[-58.6,31.88],[-57.5,31.63],[-56.4,31.88],[-55.59,32.57],[-55.3,33.5],[-55.59,34.44],[-56.4,35.12],[-57.5,35.37],[-58.6,35.12],[-59.41,34.44],[-59.7,33.5]]]}},{"type":"Feature","id":"geom_evt_2025_al09_imelda_d3_hover","properties":{"event_id":"evt_2025_al09_imelda","day_index":3,"geometry_role":"hover_geometry"},"geometry":{"type":"Polygon","coordinates":[[[-51.3,38.9],[-51.01,37.96],[-50.2,37.28],[-49.1,37.03],[-48,37.28],[-47.19,37.96],[-46.9,38.9],[-47.19,39.84],[-48,40.52],[-49.1,40.77],[-50.2,40.52],[-51.01,39.84],[-51.3,38.9]]]}},{"type":"Feature","id":"geom_evt_2025_al09_imelda_d4_hover","properties":{"event_id":"evt_2025_al09_imelda","day_index":4,"geometry_role":"hover_geometry"},"geometry":{"type":"Polygon","coordinates":[[[-48,43.5],[-47.71,42.57],[-46.9,41.88],[-45.8,41.63],[-44.7,41.88],[-43.89,42.57],[-43.6,43.5],[-43.89,44.44],[-44.7,45.12],[-45.8,45.37],[-46.9,45.12],[-47.71,44.44],[-48,43.5]]]}},{"type":"Feature","id":"geom_evt_2025_al09_imelda_d5_hover","properties":{"event_id":"evt_2025_al09_imelda","day_index":5,"geometry_role":"hover_geometry"},"geometry":{"type":"Polygon","coordinates":[[[-38.7,49.5],[-38.41,48.57],[-37.6,47.88],[-36.5,47.63],[-35.4,47.88],[-34.59,48.57],[-34.3,49.5],[-34.59,50.44],[-35.4,51.12],[-36.5,51.37],[-37.6,51.12],[-38.41,50.44],[-38.7,49.5]]]}},{"type":"Feature","id":"geom_evt_2025_al09_imelda_d6_hover","properties":{"event_id":"evt_2025_al09_imelda","day_index":6,"geometry_role":"hover_geometry"},"geometry":{"type":"Polygon","coordinates":[[[-35.2,50.3],[-34.91,49.36],[-34.1,48.68],[-33,48.43],[-31.9,48.68],[-31.09,49.36],[-30.8,50.3],[-31.09,51.24],[-31.9,51.92],[-33,52.17],[-34.1,51.92],[-34.91,51.24],[-35.2,50.3]]]}},{"type":"Feature","id":"geom_evt_20251029_gulf_coast_2025_10_29_fire_d1_hover","properties":{"event_id":"evt_20251029_gulf_coast_2025_10_29_fire","day_index":1,"geometry_role":"hover_geometry"},"geometry":{"type":"Polygon","coordinates":[[[-99.09,28.38],[-99.07,27.72],[-98.91,27.02],[-98.61,26.65],[-98.18,26.34],[-97.96,26.25],[-97.7,26.28],[-97.01,28.56],[-96.95,29.24],[-97.33,29.54],[-97.98,29.6],[-98.63,28.95],[-99.09,28.38]]]}},{"type":"Feature","id":"geom_evt_20251010_desert_southwest_2025_10_10_rain_d1_hover","properties":{"event_id":"evt_20251010_desert_southwest_2025_10_10_rain","day_index":1,"geometry_role":"hover_geometry"},"geometry":{"type":"Polygon","coordinates":[[[-114.45,37.25],[-114.36,37.08],[-112.77,34.63],[-112.5,34.29],[-111.97,34.08],[-111.39,34.18],[-110.98,34.4],[-110.01,35.81],[-109.93,36.04],[-110.03,36.3],[-111.02,38.1],[-111.44,38.28],[-113.06,38.03],[-114.01,37.66],[-114.45,37.25]]]}},{"type":"Feature","id":"geom_evt_2025_al10_jerry_d1_hover","properties":{"event_id":"evt_2025_al10_jerry","day_index":1,"geometry_role":"hover_geometry"},"geometry":{"type":"Polygon","coordinates":[[[-47.9,11.9],[-47.61,10.97],[-46.8,10.28],[-45.7,10.03],[-44.6,10.28],[-43.79,10.97],[-43.5,11.9],[-43.79,12.84],[-44.6,13.52],[-45.7,13.77],[-46.8,13.52],[-47.61,12.84],[-47.9,11.9]]]}},{"type":"Feature","id":"geom_evt_2025_al10_jerry_d2_hover","properties":{"event_id":"evt_2025_al10_jerry","day_index":2,"geometry_role":"hover_geometry"},"geometry":{"type":"Polygon","coordinates":[[[-56,14.3],[-55.71,13.37],[-54.9,12.68],[-53.8,12.43],[-52.7,12.68],[-51.89,13.37],[-51.6,14.3],[-51.89,15.24],[-52.7,15.92],[-53.8,16.17],[-54.9,15.92],[-55.71,15.24],[-56,14.3]]]}},{"type":"Feature","id":"geom_evt_2025_al10_jerry_d3_hover","properties":{"event_id":"evt_2025_al10_jerry","day_index":3,"geometry_role":"hover_geometry"},"geometry":{"type":"Polygon","coordinates":[[[-62.2,16.7],[-61.91,15.76],[-61.1,15.08],[-60,14.83],[-58.9,15.08],[-58.09,15.76],[-57.8,16.7],[-58.09,17.63],[-58.9,18.32],[-60,18.57],[-61.1,18.32],[-61.91,17.63],[-62.2,16.7]]]}},{"type":"Feature","id":"geom_evt_2025_al10_jerry_d4_hover","properties":{"event_id":"evt_2025_al10_jerry","day_index":4,"geometry_role":"hover_geometry"},"geometry":{"type":"Polygon","coordinates":[[[-65.8,20.9],[-65.51,19.97],[-64.7,19.28],[-63.6,19.03],[-62.5,19.28],[-61.69,19.96],[-61.4,20.9],[-61.69,21.83],[-62.5,22.52],[-63.6,22.77],[-64.7,22.52],[-65.51,21.83],[-65.8,20.9]]]}},{"type":"Feature","id":"geom_evt_2025_al10_jerry_d5_hover","properties":{"event_id":"evt_2025_al10_jerry","day_index":5,"geometry_role":"hover_geometry"},"geometry":{"type":"Polygon","coordinates":[[[-65.5,25.2],[-65.21,24.27],[-64.4,23.58],[-63.3,23.33],[-62.2,23.58],[-61.39,24.26],[-61.1,25.2],[-61.39,26.14],[-62.2,26.82],[-63.3,27.07],[-64.4,26.82],[-65.21,26.14],[-65.5,25.2]]]}},{"type":"Feature","id":"geom_evt_2025_al11_genesis_d1_hover","properties":{"event_id":"evt_2025_al11_genesis","day_index":1,"geometry_role":"hover_geometry"},"geometry":{"type":"Polygon","coordinates":[[[-39.1,41.4],[-38.81,40.46],[-38,39.78],[-36.9,39.53],[-35.8,39.78],[-34.99,40.46],[-34.7,41.4],[-34.99,42.34],[-35.8,43.02],[-36.9,43.27],[-38,43.02],[-38.81,42.34],[-39.1,41.4]]]}},{"type":"Feature","id":"geom_evt_2025_al11_genesis_d2_hover","properties":{"event_id":"evt_2025_al11_genesis","day_index":2,"geometry_role":"hover_geometry"},"geometry":{"type":"Polygon","coordinates":[[[-36.4,43.9],[-36.11,42.97],[-35.3,42.28],[-34.2,42.03],[-33.1,42.28],[-32.29,42.97],[-32,43.9],[-32.29,44.84],[-33.1,45.52],[-34.2,45.77],[-35.3,45.52],[-36.11,44.84],[-36.4,43.9]]]}},{"type":"Feature","id":"geom_evt_2025_al11_genesis_d3_hover","properties":{"event_id":"evt_2025_al11_genesis","day_index":3,"geometry_role":"hover_geometry"},"geometry":{"type":"Polygon","coordinates":[[[-32.8,46.8],[-32.51,45.86],[-31.7,45.18],[-30.6,44.93],[-29.5,45.18],[-28.69,45.86],[-28.4,46.8],[-28.69,47.74],[-29.5,48.42],[-30.6,48.67],[-31.7,48.42],[-32.51,47.74],[-32.8,46.8]]]}},{"type":"Feature","id":"geom_evt_2025_al11_genesis_d4_hover","properties":{"event_id":"evt_2025_al11_genesis","day_index":4,"geometry_role":"hover_geometry"},"geometry":{"type":"Polygon","coordinates":[[[-29.5,51.3],[-29.3,50.66],[-28.75,50.2],[-28,50.03],[-27.25,50.2],[-26.7,50.66],[-26.5,51.3],[-26.7,51.94],[-27.25,52.4],[-28,52.58],[-28.75,52.4],[-29.3,51.94],[-29.5,51.3]]]}},{"type":"Feature","id":"geom_evt_2025_al12_lorenzo_d1_hover","properties":{"event_id":"evt_2025_al12_lorenzo","day_index":1,"geometry_role":"hover_geometry"},"geometry":{"type":"Polygon","coordinates":[[[-43.7,15],[-43.41,14.07],[-42.6,13.38],[-41.5,13.13],[-40.4,13.38],[-39.59,14.07],[-39.3,15],[-39.59,15.94],[-40.4,16.62],[-41.5,16.87],[-42.6,16.62],[-43.41,15.94],[-43.7,15]]]}},{"type":"Feature","id":"geom_evt_2025_al12_lorenzo_d2_hover","properties":{"event_id":"evt_2025_al12_lorenzo","day_index":2,"geometry_role":"hover_geometry"},"geometry":{"type":"Polygon","coordinates":[[[-47.5,18.3],[-47.21,17.37],[-46.4,16.68],[-45.3,16.43],[-44.2,16.68],[-43.39,17.36],[-43.1,18.3],[-43.39,19.24],[-44.2,19.92],[-45.3,20.17],[-46.4,19.92],[-47.21,19.24],[-47.5,18.3]]]}},{"type":"Feature","id":"geom_evt_2025_al12_lorenzo_d3_hover","properties":{"event_id":"evt_2025_al12_lorenzo","day_index":3,"geometry_role":"hover_geometry"},"geometry":{"type":"Polygon","coordinates":[[[-46.7,21.1],[-46.41,20.17],[-45.6,19.48],[-44.5,19.23],[-43.4,19.48],[-42.59,20.17],[-42.3,21.1],[-42.59,22.04],[-43.4,22.72],[-44.5,22.97],[-45.6,22.72],[-46.41,22.04],[-46.7,21.1]]]}},{"type":"Feature","id":"geom_evt_20251004_northern_rockies_2025_10_04_winter_d1_hover","properties":{"event_id":"evt_20251004_northern_rockies_2025_10_04_winter","day_index":1,"geometry_role":"hover_geometry"},"geometry":{"type":"Polygon","coordinates":[[[-111.05,45.08],[-109.95,43.68],[-109.91,43.65],[-109.19,43.48],[-107.2,43.21],[-107.1,43.21],[-106.84,43.43],[-106.82,43.45],[-106.78,43.95],[-106.77,44.29],[-106.77,44.33],[-106.87,44.51],[-106.9,44.56],[-110.26,46.32],[-110.28,46.32],[-110.52,46.19],[-111.04,45.35],[-111.05,45.18],[-111.05,45.08]]]}},{"type":"Feature","id":"geom_evt_20251013_southern_california_2025_10_13_winter_d1_hover","properties":{"event_id":"evt_20251013_southern_california_2025_10_13_winter","day_index":1,"geometry_role":"hover_geometry"},"geometry":{"type":"Polygon","coordinates":[[[-119.89,37.98],[-119.88,37.89],[-119.87,37.78],[-119.85,37.74],[-118.65,35.62],[-118.64,35.61],[-118.63,35.61],[-118.62,35.6],[-118.19,35.54],[-118.11,35.54],[-118.06,35.54],[-118.03,35.56],[-118.02,35.58],[-117.98,35.87],[-117.98,35.93],[-117.99,35.94],[-118.1,36.35],[-118.44,37.06],[-118.76,37.46],[-119.33,38.07],[-119.35,38.08],[-119.35,38.09],[-119.5,38.16],[-119.59,38.18],[-119.59,38.18],[-119.59,38.18],[-119.59,38.18],[-119.59,38.18],[-119.83,38.09],[-119.83,38.09],[-119.84,38.09],[-119.84,38.08],[-119.86,38.07],[-119.87,38.06],[-119.87,38.05],[-119.87,38.05],[-119.88,38.03],[-119.88,38.03],[-119.89,37.98],[-119.89,37.98]]]}},{"type":"Feature","id":"geom_evt_20251012_desert_southwest_2025_10_12_winter_d1_hover","properties":{"event_id":"evt_20251012_desert_southwest_2025_10_12_winter","day_index":1,"geometry_role":"hover_geometry"},"geometry":{"type":"Polygon","coordinates":[[[-116.34,45.26],[-116.3,45.11],[-114.58,44.58],[-113.32,44.23],[-112.81,44.23],[-112.2,45.75],[-112.17,47],[-112.19,47.11],[-112.2,47.13],[-112.68,48.07],[-113.32,49],[-116.05,49],[-116.34,45.26]]]}},{"type":"Feature","id":"geom_evt_20251012_pacific_northwest_2025_10_12_winter_d1_hover","properties":{"event_id":"evt_20251012_pacific_northwest_2025_10_12_winter","day_index":1,"geometry_role":"hover_geometry"},"geometry":{"type":"Polygon","coordinates":[[[-120.88,48.97],[-120.79,48.61],[-120.78,48.6],[-120.65,48.4],[-120.59,48.32],[-120.59,48.32],[-120.58,48.32],[-120.35,48.14],[-120.33,48.13],[-120.32,48.12],[-120.08,48],[-115.73,46.37],[-115.72,46.37],[-114.59,46.63],[-114.12,46.78],[-113.98,47.14],[-116.05,49],[-120.44,49],[-120.56,49],[-120.85,49],[-120.85,49],[-120.86,49],[-120.88,48.97]]]}},{"type":"Feature","id":"geom_evt_20251004_northern_plains_2025_10_04_severe_d1_hover","properties":{"event_id":"evt_20251004_northern_plains_2025_10_04_severe","day_index":1,"geometry_role":"hover_geometry"},"geometry":{"type":"Polygon","coordinates":[[[-105.02,40.98],[-104.74,40.37],[-104.27,40.19],[-103.46,40.32],[-102.72,40.66],[-102.39,41.7],[-102.52,42.14],[-103.01,42.4],[-103.77,42.5],[-104.55,42.22],[-104.91,41.64],[-105.02,40.98]]]}},{"type":"Feature","id":"geom_evt_20251018_southern_plains_2025_10_18_severe_d1_hover","properties":{"event_id":"evt_20251018_southern_plains_2025_10_18_severe","day_index":1,"geometry_role":"hover_geometry"},"geometry":{"type":"Polygon","coordinates":[[[-96.17,32.38],[-94.86,31.39],[-94.08,31.01],[-88.92,30.95],[-88.35,31.26],[-86.68,37.36],[-87.88,38.12],[-90.37,38.37],[-91.8,38.17],[-94.03,37.48],[-95.23,36.4],[-96.13,33.33],[-96.17,32.38]]]}},{"type":"Feature","id":"geom_evt_20251023_southern_plains_2025_10_23_severe_d1_hover","properties":{"event_id":"evt_20251023_southern_plains_2025_10_23_severe","day_index":1,"geometry_role":"hover_geometry"},"geometry":{"type":"Polygon","coordinates":[[[-103.34,32.68],[-103.01,32.14],[-98.03,33.52],[-97.39,34.26],[-97.33,34.67],[-97.37,35.11],[-97.7,35.32],[-98.34,35.15],[-103.02,33.79],[-103.34,32.68]]]}},{"type":"Feature","id":"geom_evt_20251024_central_plains_2025_10_24_severe_d1_hover","properties":{"event_id":"evt_20251024_central_plains_2025_10_24_severe","day_index":1,"geometry_role":"hover_geometry"},"geometry":{"type":"Polygon","coordinates":[[[-104.97,30.54],[-104.7,29.9],[-104.55,29.65],[-104.17,29.39],[-103.39,29.01],[-100.43,28.65],[-95.37,28.48],[-95.13,28.6],[-94.15,29.27],[-99.01,34.04],[-99.83,34.41],[-101.13,34.52],[-102.04,33.97],[-104.97,30.54]]]}},{"type":"Feature","id":"geom_evt_20251025_gulf_coast_2025_10_25_severe_d1_hover","properties":{"event_id":"evt_20251025_gulf_coast_2025_10_25_severe","day_index":1,"geometry_role":"hover_geometry"},"geometry":{"type":"Polygon","coordinates":[[[-98.93,29.6],[-98.68,28.99],[-97.71,28.36],[-96.6,27.77],[-90.1,28.76],[-89.98,28.83],[-90.07,30.53],[-90.4,31.07],[-90.74,31.43],[-91.26,31.51],[-98.1,30.92],[-98.6,30.74],[-98.91,30.32],[-98.93,29.6]]]}},{"type":"Feature","id":"geom_evt_20251028_gulf_coast_2025_10_28_severe_d1_hover","properties":{"event_id":"evt_20251028_gulf_coast_2025_10_28_severe","day_index":1,"geometry_role":"hover_geometry"},"geometry":{"type":"Polygon","coordinates":[[[-95.12,29.94],[-94.98,28.73],[-92.79,29.29],[-92.35,31.73],[-92.42,32.14],[-92.97,32.34],[-93.67,32.25],[-94.8,30.51],[-95.12,29.94]]]}},{"type":"Feature","id":"geom_evt_20251026_southeast_2025_10_26_severe_d1_hover","properties":{"event_id":"evt_20251026_southeast_2025_10_26_severe","day_index":1,"geometry_role":"hover_geometry"},"geometry":{"type":"Polygon","coordinates":[[[-88.65,30.3],[-88.58,29.54],[-85.72,29.57],[-85.56,29.92],[-85.64,30.09],[-85.9,30.32],[-86.34,30.57],[-86.94,30.73],[-87.56,30.82],[-88.18,30.83],[-88.54,30.78],[-88.65,30.3]]]}}]}