{"type":"FeatureCollection","features":[{"type":"Feature","id":"geom_evt_20250401_southern_plains_2025_04_01_severe_d1_hover","properties":{"event_id":"evt_20250401_southern_plains_2025_04_01_severe","day_index":1,"geometry_role":"hover_geometry"},"geometry":{"type":"Polygon","coordinates":[[[-98.78,37.75],[-98.67,34.57],[-97.63,33.99],[-96.59,34.02],[-94.62,36.54],[-93.54,38.9],[-93.6,39.55],[-93.91,39.94],[-95.19,40.03],[-96.25,39.93],[-97.13,39.6],[-98.18,38.73],[-98.78,37.75]]]}},{"type":"Feature","id":"geom_evt_20250402_southern_plains_2025_04_02_severe_d1_hover","properties":{"event_id":"evt_20250401_southern_plains_2025_04_01_severe","day_index":2,"geometry_role":"hover_geometry"},"geometry":{"type":"Polygon","coordinates":[[[-92.76,33.74],[-92.58,33.4],[-92.11,33.37],[-90.97,34.11],[-89.01,35.44],[-88.47,35.98],[-87.91,36.74],[-87.72,37.11],[-87.94,37.5],[-88.38,37.7],[-89.15,37.64],[-89.94,37.15],[-90.43,36.75],[-91.17,35.92],[-92.53,34.19],[-92.76,33.74]]]}},{"type":"Feature","id":"geom_evt_20250403_southern_plains_2025_04_03_severe_d1_hover","properties":{"event_id":"evt_20250401_southern_plains_2025_04_01_severe","day_index":3,"geometry_role":"hover_geometry"},"geometry":{"type":"Polygon","coordinates":[[[-95.27,32.73],[-94.64,32.48],[-94.49,32.5],[-91.92,33.4],[-88.38,34.9],[-87.23,35.46],[-86.72,36.07],[-86.78,36.48],[-87.31,36.57],[-89.95,36.25],[-91.45,35.86],[-94.21,34.99],[-95.13,33.54],[-95.27,32.73]]]}},{"type":"Feature","id":"geom_evt_20250404_southern_plains_2025_04_04_severe_d1_hover","properties":{"event_id":"evt_20250401_southern_plains_2025_04_01_severe","day_index":4,"geometry_role":"hover_geometry"},"geometry":{"type":"Polygon","coordinates":[[[-95.68,33.08],[-95.54,32.57],[-94.82,32.42],[-93.96,32.87],[-89.73,35.99],[-89.47,36.44],[-89.96,37.09],[-90.55,37.14],[-92.52,36.43],[-93.85,35.73],[-94.82,34.47],[-95.68,33.08]]]}},{"type":"Feature","id":"geom_evt_20250405_southeast_2025_04_05_rain_d1_hover","properties":{"event_id":"evt_20250405_southeast_2025_04_05_rain","day_index":1,"geometry_role":"hover_geometry"},"geometry":{"type":"Polygon","coordinates":[[[-94.96,34.04],[-94.96,33.9],[-94.95,33.8],[-94.95,33.76],[-94.95,33.73],[-94.95,33.7],[-94.94,33.67],[-94.89,33.37],[-94.88,33.34],[-94.88,33.31],[-94.84,33.21],[-94.83,33.2],[-94.78,33.11],[-94.65,32.87],[-94.64,32.85],[-94.63,32.84],[-94.62,32.82],[-94.61,32.81],[-94.59,32.8],[-94.56,32.77],[-94.54,32.76],[-94.12,32.49],[-94.1,32.48],[-93.66,32.26],[-93.64,32.25],[-93.61,32.24],[-93.5,32.2],[-93.47,32.2],[-92.94,32.04],[-92.91,32.03],[-92.88,32.03],[-92.5,31.97],[-92.46,31.97],[-92.43,31.97],[-92.36,31.96],[-92.29,31.96],[-91.93,31.96],[-91.86,31.96],[-91.79,31.96],[-91.73,31.97],[-91.69,31.97],[-91.66,31.97],[-91.24,32.02],[-91.21,32.03],[-91.19,32.03],[-91.16,32.04],[-90.72,32.21],[-90.62,32.25],[-90.6,32.26],[-90.33,32.43],[-90.07,32.58],[-90.05,32.59],[-90.04,32.6],[-83.64,37.46],[-83.62,37.47],[-83.25,37.8],[-83.24,37.81],[-83.18,37.89],[-83.14,37.96],[-82.96,38.2],[-82.95,38.22],[-82.94,38.24],[-82.92,38.27],[-82.91,38.29],[-82.91,38.32],[-82.9,38.35],[-82.9,38.38],[-82.89,38.42],[-82.89,38.45],[-82.89,38.52],[-82.89,38.55],[-82.89,38.59],[-82.89,38.62],[-82.9,38.66],[-82.9,38.69],[-82.91,38.71],[-82.92,38.74],[-82.93,38.76],[-82.94,38.77],[-82.95,38.79],[-82.97,38.8],[-82.98,38.81],[-83.13,38.92],[-83.15,38.93],[-83.24,38.97],[-83.26,38.98],[-83.36,39.02],[-83.38,39.03],[-83.95,39.15],[-83.95,39.15],[-84.72,39.09],[-84.75,39.09],[-85.14,39.03],[-85.17,39.03],[-86.18,38.85],[-86.66,38.75],[-87.16,38.64],[-89.21,38.14],[-90.26,37.87],[-90.28,37.86],[-91.72,37.36],[-92.28,37.14],[-93.77,36.53],[-93.78,36.52],[-93.94,36.42],[-94.11,36.31],[-94.25,36.21],[-94.26,36.2],[-94.36,36.1],[-94.37,36.09],[-94.39,36.07],[-94.55,35.82],[-94.64,35.66],[-94.65,35.65],[-94.66,35.62],[-94.71,35.48],[-94.72,35.46],[-94.78,35.29],[-94.82,35.15],[-94.83,35.13],[-94.88,34.93],[-94.89,34.9],[-94.89,34.87],[-94.95,34.37],[-94.95,34.34],[-94.95,34.31],[-94.95,34.24],[-94.96,34.18],[-94.96,34.04]]]}},{"type":"Feature","id":"geom_evt_20250406_southeast_2025_04_06_rain_d1_hover","properties":{"event_id":"evt_20250405_southeast_2025_04_05_rain","day_index":2,"geometry_role":"hover_geometry"},"geometry":{"type":"Polygon","coordinates":[[[-87.71,31.56],[-87.71,31.52],[-87.71,31.49],[-87.71,31.46],[-87.7,31.43],[-87.7,31.4],[-87.69,31.38],[-87.68,31.36],[-87.66,31.34],[-87.65,31.33],[-87.64,31.31],[-87.63,31.3],[-87.59,31.28],[-87.58,31.26],[-87.55,31.25],[-87.52,31.25],[-87.5,31.24],[-87.27,31.2],[-87.24,31.2],[-87.2,31.19],[-87.17,31.19],[-87.12,31.19],[-87.1,31.19],[-86.68,31.32],[-86.53,31.37],[-85.9,31.6],[-85.81,31.64],[-85.54,31.75],[-85.52,31.76],[-85.3,31.87],[-85.28,31.89],[-85.25,31.91],[-85.23,31.92],[-85.17,31.97],[-85.12,32.03],[-85.11,32.05],[-85.08,32.08],[-85.07,32.09],[-85.06,32.11],[-85.05,32.13],[-85.02,32.19],[-85.02,32.21],[-85.01,32.23],[-85,32.26],[-85,32.29],[-85,32.32],[-85,32.35],[-85,32.38],[-85.01,32.75],[-85.01,32.78],[-85.01,32.8],[-85.12,33.3],[-85.13,33.33],[-85.17,33.44],[-85.17,33.47],[-85.18,33.49],[-85.2,33.51],[-85.22,33.54],[-85.23,33.56],[-85.24,33.57],[-85.27,33.6],[-85.28,33.61],[-85.3,33.62],[-85.31,33.63],[-85.33,33.64],[-85.34,33.64],[-85.36,33.65],[-85.37,33.65],[-85.39,33.64],[-85.44,33.62],[-85.46,33.62],[-85.47,33.61],[-85.69,33.49],[-85.71,33.48],[-87.46,32.21],[-87.47,32.2],[-87.48,32.18],[-87.58,32.06],[-87.6,32.04],[-87.62,32.01],[-87.63,31.99],[-87.64,31.97],[-87.65,31.95],[-87.69,31.78],[-87.7,31.75],[-87.7,31.72],[-87.71,31.69],[-87.71,31.66],[-87.71,31.62],[-87.71,31.56]]]}},{"type":"Feature","id":"geom_evt_20250403_mid_atlantic_2025_04_03_rain_d1_hover","properties":{"event_id":"evt_20250403_mid_atlantic_2025_04_03_rain","day_index":1,"geometry_role":"hover_geometry"},"geometry":{"type":"Polygon","coordinates":[[[-94.4,34.29],[-94.4,34.22],[-94.4,34.19],[-94.4,34.15],[-94.4,34.12],[-94.4,34.09],[-94.39,34.06],[-94.38,34.03],[-94.34,33.93],[-94.33,33.91],[-94.28,33.82],[-94.27,33.81],[-94.26,33.79],[-94.23,33.76],[-94.22,33.75],[-94.21,33.73],[-94.18,33.71],[-94.16,33.7],[-94,33.59],[-93.98,33.58],[-93.88,33.53],[-93.86,33.52],[-93.83,33.52],[-93.66,33.48],[-93.63,33.47],[-93.6,33.46],[-93.57,33.46],[-93.54,33.46],[-93.51,33.46],[-93.44,33.45],[-93.3,33.45],[-93.15,33.46],[-93.09,33.46],[-93.05,33.46],[-93.02,33.46],[-92.99,33.46],[-92.96,33.47],[-92.65,33.52],[-92.62,33.53],[-92.02,33.64],[-91.99,33.64],[-91.46,33.8],[-91.43,33.81],[-90.91,33.97],[-90.88,33.98],[-90.47,34.14],[-90.44,34.15],[-89.61,34.53],[-89.28,34.7],[-84.08,37.41],[-84.06,37.42],[-84.05,37.43],[-84.03,37.44],[-84.02,37.45],[-83.97,37.49],[-83.96,37.51],[-83.95,37.52],[-83.92,37.55],[-83.91,37.57],[-83.8,37.74],[-83.79,37.75],[-83.75,37.83],[-83.74,37.85],[-83.74,37.88],[-83.73,37.9],[-83.73,37.93],[-83.73,37.96],[-83.73,37.99],[-83.73,38.02],[-83.74,38.05],[-83.74,38.08],[-83.85,38.39],[-83.86,38.41],[-83.9,38.51],[-83.91,38.53],[-83.95,38.62],[-83.96,38.64],[-84.01,38.7],[-84.07,38.78],[-84.08,38.8],[-84.1,38.81],[-84.18,38.87],[-84.22,38.9],[-84.24,38.91],[-84.26,38.92],[-84.34,38.96],[-84.36,38.97],[-84.55,39.04],[-84.56,39.04],[-84.58,39.04],[-85.18,39.03],[-85.2,39.03],[-85.78,38.97],[-86.33,38.86],[-86.36,38.86],[-86.72,38.75],[-86.75,38.74],[-87.09,38.62],[-87.4,38.47],[-88.11,38.09],[-88.35,37.97],[-93.99,34.87],[-94.01,34.86],[-94.16,34.77],[-94.23,34.72],[-94.29,34.67],[-94.3,34.66],[-94.32,34.64],[-94.33,34.62],[-94.34,34.6],[-94.38,34.49],[-94.39,34.46],[-94.4,34.43],[-94.4,34.4],[-94.4,34.36],[-94.4,34.33],[-94.4,34.29]]]}},{"type":"Feature","id":"geom_evt_20250404_southern_plains_2025_04_04_rain_d1_hover","properties":{"event_id":"evt_20250404_southern_plains_2025_04_04_rain","day_index":1,"geometry_role":"hover_geometry"},"geometry":{"type":"Polygon","coordinates":[[[-96.67,32.98],[-96.67,32.91],[-96.67,32.88],[-96.67,32.85],[-96.66,32.81],[-96.66,32.79],[-96.65,32.76],[-96.61,32.66],[-96.6,32.64],[-96.55,32.55],[-96.54,32.53],[-96.53,32.52],[-96.49,32.47],[-96.44,32.42],[-96.39,32.38],[-96.37,32.37],[-96.36,32.36],[-96.27,32.31],[-96.25,32.3],[-96.15,32.26],[-96.12,32.25],[-96.09,32.25],[-96.06,32.24],[-96.03,32.24],[-95.96,32.24],[-95.88,32.24],[-95.78,32.24],[-95.7,32.24],[-95.63,32.24],[-95.6,32.24],[-95.57,32.24],[-95.53,32.25],[-95.5,32.25],[-95.47,32.26],[-95.33,32.3],[-94.73,32.53],[-94.7,32.54],[-94.26,32.76],[-94.16,32.8],[-93.72,33.02],[-85.82,37.21],[-85.59,37.34],[-85.57,37.35],[-85.55,37.36],[-85.52,37.38],[-85.51,37.4],[-85.45,37.45],[-85.39,37.51],[-85.38,37.52],[-85.34,37.56],[-85.33,37.58],[-85.3,37.61],[-85.29,37.63],[-85.29,37.66],[-85.28,37.68],[-85.27,37.71],[-85.27,37.74],[-85.27,37.77],[-85.27,37.8],[-85.27,37.83],[-85.28,37.86],[-85.28,37.89],[-85.29,37.91],[-85.3,37.93],[-85.31,37.95],[-85.33,37.96],[-85.34,37.98],[-85.35,37.99],[-85.38,38.02],[-85.39,38.04],[-85.41,38.05],[-85.44,38.07],[-85.46,38.08],[-87.62,39.19],[-87.64,39.2],[-87.67,39.21],[-87.78,39.25],[-87.8,39.26],[-87.95,39.3],[-87.97,39.31],[-88.2,39.36],[-88.23,39.37],[-88.65,39.43],[-88.7,39.43],[-88.78,39.43],[-88.82,39.43],[-88.87,39.43],[-88.91,39.43],[-88.95,39.42],[-88.99,39.42],[-89.57,39.31],[-89.6,39.31],[-90.04,39.19],[-90.06,39.19],[-90.51,39.02],[-90.95,38.85],[-91.4,38.68],[-91.49,38.65],[-91.51,38.64],[-92.2,38.31],[-92.22,38.3],[-92.94,37.91],[-92.95,37.9],[-93.27,37.69],[-93.29,37.68],[-93.83,37.25],[-93.87,37.22],[-93.89,37.2],[-94.08,37.04],[-94.1,37.02],[-94.32,36.8],[-94.72,36.37],[-94.77,36.32],[-95.16,35.88],[-95.2,35.83],[-95.42,35.55],[-95.43,35.54],[-95.76,35.1],[-95.87,34.93],[-96.04,34.65],[-96.2,34.37],[-96.31,34.15],[-96.42,33.93],[-96.43,33.91],[-96.54,33.66],[-96.54,33.63],[-96.65,33.27],[-96.66,33.24],[-96.66,33.21],[-96.67,33.18],[-96.67,33.15],[-96.67,33.11],[-96.67,33.05],[-96.67,32.98]]]}},{"type":"Feature","id":"geom_evt_20250416_southwest_2025_04_16_fire_d1_hover","properties":{"event_id":"evt_20250416_southwest_2025_04_16_fire","day_index":1,"geometry_role":"hover_geometry"},"geometry":{"type":"Polygon","coordinates":[[[-111.38,32.44],[-110.78,31.32],[-109.08,31.31],[-108.21,31.31],[-106.5,31.77],[-104.45,33.06],[-103.77,33.83],[-103.08,35.6],[-103.84,36.29],[-109.72,35.7],[-110.44,35.54],[-111.38,32.44]]]}},{"type":"Feature","id":"geom_evt_20250417_southwest_2025_04_17_fire_d1_hover","properties":{"event_id":"evt_20250416_southwest_2025_04_16_fire","day_index":2,"geometry_role":"hover_geometry"},"geometry":{"type":"Polygon","coordinates":[[[-109.81,31.33],[-104.81,30.36],[-104.48,30.39],[-99.57,35.6],[-98.95,36.38],[-98.39,37.26],[-98.48,37.64],[-98.98,38.05],[-102.37,39.12],[-103.97,39.16],[-104.7,39.14],[-104.84,39.07],[-108.19,35.43],[-108.82,34.55],[-109.81,31.33]]]}},{"type":"Feature","id":"geom_evt_20250418_southwest_2025_04_18_fire_d1_hover","properties":{"event_id":"evt_20250416_southwest_2025_04_16_fire","day_index":3,"geometry_role":"hover_geometry"},"geometry":{"type":"Polygon","coordinates":[[[-108.13,31.78],[-105.08,30.63],[-104.67,30.91],[-103.89,31.73],[-102.96,33.24],[-102.59,34.26],[-103.13,35.27],[-103.81,35.6],[-106.4,33.92],[-107.9,32.4],[-108.13,31.78]]]}},{"type":"Feature","id":"geom_evt_20250426_southwest_2025_04_26_fire_d1_hover","properties":{"event_id":"evt_20250426_southwest_2025_04_26_fire","day_index":1,"geometry_role":"hover_geometry"},"geometry":{"type":"Polygon","coordinates":[[[-109.99,35.04],[-109.9,34.55],[-109.24,34.1],[-108.04,33.59],[-106.82,33.34],[-106.34,33.34],[-105.83,33.71],[-105.75,34.22],[-106.43,35.24],[-107.38,36.32],[-107.81,36.46],[-108.34,36.59],[-109.07,36.72],[-109.41,36.38],[-109.74,35.87],[-109.99,35.04]]]}},{"type":"Feature","id":"geom_evt_20250427_southwest_2025_04_27_fire_d1_hover","properties":{"event_id":"evt_20250426_southwest_2025_04_26_fire","day_index":2,"geometry_role":"hover_geometry"},"geometry":{"type":"Polygon","coordinates":[[[-109.95,31.33],[-105.47,30.93],[-105.03,31.58],[-104.15,33.02],[-104.19,33.64],[-104.41,36.51],[-105.18,36.85],[-106.09,36.36],[-107.23,35.52],[-107.78,34.86],[-109.91,31.47],[-109.95,31.33]]]}},{"type":"Feature","id":"geom_evt_20250428_southwest_2025_04_28_fire_d1_hover","properties":{"event_id":"evt_20250426_southwest_2025_04_26_fire","day_index":3,"geometry_role":"hover_geometry"},"geometry":{"type":"Polygon","coordinates":[[[-107.65,31.77],[-105.91,31.25],[-104.93,32.02],[-104.05,32.83],[-103.66,33.8],[-104.29,34.02],[-105.87,33.92],[-106.96,33.33],[-107.65,31.77]]]}},{"type":"Feature","id":"geom_evt_20250405_southeast_2025_04_05_severe_d1_hover","properties":{"event_id":"evt_20250405_southeast_2025_04_05_severe","day_index":1,"geometry_role":"hover_geometry"},"geometry":{"type":"Polygon","coordinates":[[[-91.02,34.97],[-90.91,34.33],[-90.27,33.83],[-89.37,33.91],[-88.64,34.3],[-88.24,34.61],[-88.07,35.4],[-88.12,35.87],[-88.57,36.12],[-89.42,36.03],[-91,35.32],[-91.02,34.97]]]}},{"type":"Feature","id":"geom_evt_20250406_southeast_2025_04_06_severe_d1_hover","properties":{"event_id":"evt_20250405_southeast_2025_04_05_severe","day_index":2,"geometry_role":"hover_geometry"},"geometry":{"type":"Polygon","coordinates":[[[-88.73,30.26],[-88.37,29.86],[-85.77,29.69],[-82.97,33.87],[-83.18,34.33],[-83.6,34.6],[-84.08,34.62],[-84.68,34.21],[-86.4,32.93],[-88.54,30.98],[-88.73,30.26]]]}},{"type":"Feature","id":"geom_evt_20250407_southeast_2025_04_07_severe_d1_hover","properties":{"event_id":"evt_20250405_southeast_2025_04_05_severe","day_index":3,"geometry_role":"hover_geometry"},"geometry":{"type":"Polygon","coordinates":[[[-85.69,29.49],[-85.67,29.44],[-85.34,29.34],[-85.02,29.25],[-83.2,28.81],[-76.34,35.87],[-76.23,36.43],[-76.65,36.55],[-77.36,36.52],[-78.67,35.92],[-81.52,33.7],[-85.29,29.99],[-85.69,29.49]]]}},{"type":"Feature","id":"geom_evt_20250428_upper_midwest_2025_04_28_severe_d1_hover","properties":{"event_id":"evt_20250428_upper_midwest_2025_04_28_severe","day_index":1,"geometry_role":"hover_geometry"},"geometry":{"type":"Polygon","coordinates":[[[-95.56,43.34],[-94.88,42.55],[-93.67,42.29],[-91.78,42.6],[-89.47,43.22],[-89.31,44.06],[-89.73,44.77],[-90.35,45.72],[-92.93,46.19],[-94.71,45.45],[-95.14,45.21],[-95.51,44.45],[-95.56,43.34]]]}},{"type":"Feature","id":"geom_evt_20250401_central_plains_2025_04_01_fire_d1_hover","properties":{"event_id":"evt_20250401_central_plains_2025_04_01_fire","day_index":1,"geometry_role":"hover_geometry"},"geometry":{"type":"Polygon","coordinates":[[[-110.95,31.32],[-103.39,29.01],[-103.09,28.97],[-102.84,29.16],[-102.34,29.78],[-99.88,33.44],[-99.48,34.43],[-99.3,35.09],[-99.26,36.56],[-99.38,37.88],[-99.96,38.6],[-100.53,38.97],[-103.16,39.04],[-104.58,38.77],[-110.95,32.21],[-110.95,31.32]]]}},{"type":"Feature","id":"geom_evt_20250402_central_plains_2025_04_02_fire_d1_hover","properties":{"event_id":"evt_20250401_central_plains_2025_04_01_fire","day_index":2,"geometry_role":"hover_geometry"},"geometry":{"type":"Polygon","coordinates":[[[-108.94,31.31],[-103.39,29.01],[-103.09,28.97],[-102.84,29.16],[-101.86,30.21],[-101.99,30.62],[-103.2,32.8],[-103.39,33.13],[-103.56,33.28],[-103.71,33.33],[-103.92,33.37],[-106.77,33.53],[-108.15,32.78],[-108.93,31.8],[-108.94,31.31]]]}},{"type":"Feature","id":"geom_evt_20250412_central_plains_2025_04_12_fire_d1_hover","properties":{"event_id":"evt_20250412_central_plains_2025_04_12_fire","day_index":1,"geometry_role":"hover_geometry"},"geometry":{"type":"Polygon","coordinates":[[[-106.33,35.73],[-105.98,35.14],[-105.24,34.62],[-103.94,34.65],[-102.56,34.86],[-101.4,35.24],[-100.62,36.62],[-100.79,37.04],[-101.04,37.21],[-101.48,37.4],[-102.36,37.49],[-103.53,37.3],[-105.02,36.84],[-106.09,36.38],[-106.33,35.73]]]}},{"type":"Feature","id":"geom_evt_20250419_central_plains_2025_04_19_fire_d1_hover","properties":{"event_id":"evt_20250419_central_plains_2025_04_19_fire","day_index":1,"geometry_role":"hover_geometry"},"geometry":{"type":"Polygon","coordinates":[[[-105.13,31.63],[-105.1,30.71],[-104.65,29.82],[-104.55,29.65],[-104.17,29.39],[-103.61,29.11],[-103.31,29.14],[-103.04,29.26],[-102.88,29.61],[-102.58,31],[-104.14,32.26],[-104.88,31.99],[-105.13,31.63]]]}},{"type":"Feature","id":"geom_evt_20250409_northern_plains_2025_04_09_fire_d1_hover","properties":{"event_id":"evt_20250409_northern_plains_2025_04_09_fire","day_index":1,"geometry_role":"hover_geometry"},"geometry":{"type":"Polygon","coordinates":[[[-105.58,41.85],[-105.15,41.1],[-104.65,40.39],[-103.57,39.58],[-102.78,39.35],[-101.61,39.25],[-100.97,39.61],[-100.84,40.08],[-101.71,41.01],[-102.66,41.71],[-103.52,42.12],[-104.97,42.29],[-105.58,41.85]]]}},{"type":"Feature","id":"geom_evt_20250413_southwest_2025_04_13_fire_d1_hover","properties":{"event_id":"evt_20250413_southwest_2025_04_13_fire","day_index":1,"geometry_role":"hover_geometry"},"geometry":{"type":"Polygon","coordinates":[[[-111.74,31.53],[-111.49,31.44],[-111.06,31.32],[-109.08,31.31],[-108.21,31.31],[-104.99,31.97],[-101.75,32.83],[-100.75,33.69],[-100.53,34.38],[-100.48,34.72],[-100.67,35.26],[-101.29,35.74],[-103.42,36.02],[-104.46,35.98],[-109.34,35.26],[-109.87,35.06],[-110.25,34.7],[-111.74,31.53]]]}},{"type":"Feature","id":"geom_evt_20250402_southeast_2025_04_02_rain_d1_hover","properties":{"event_id":"evt_20250402_southeast_2025_04_02_rain","day_index":1,"geometry_role":"hover_geometry"},"geometry":{"type":"Polygon","coordinates":[[[-93.58,33.69],[-93.57,33.66],[-93.57,33.63],[-93.57,33.6],[-93.57,33.57],[-93.56,33.54],[-93.55,33.51],[-93.54,33.49],[-93.53,33.47],[-93.52,33.46],[-93.45,33.41],[-93.41,33.37],[-93.39,33.36],[-93.37,33.35],[-93.3,33.32],[-93.28,33.31],[-93.25,33.3],[-93.22,33.3],[-93.19,33.29],[-93.16,33.29],[-93.12,33.29],[-93.09,33.29],[-93.05,33.29],[-92.96,33.29],[-92.74,33.29],[-92.29,33.36],[-92.26,33.37],[-92.12,33.41],[-91.6,33.59],[-91.16,33.76],[-91.06,33.8],[-90.66,33.98],[-90.28,34.15],[-89.16,34.65],[-88.73,34.86],[-88.06,35.2],[-87.07,35.7],[-86.84,35.82],[-85.59,36.51],[-85.57,36.52],[-85.4,36.63],[-85.39,36.64],[-85.34,36.68],[-85.28,36.73],[-85.23,36.79],[-85.17,36.84],[-85.12,36.9],[-85.11,36.92],[-85.09,36.95],[-85.08,36.97],[-85.07,36.99],[-85.06,37.01],[-85.02,37.18],[-85.01,37.21],[-85.01,37.23],[-85.01,37.26],[-85.03,37.52],[-85.03,37.54],[-85.03,37.56],[-85.06,37.63],[-85.12,37.78],[-85.13,37.81],[-85.17,37.9],[-85.18,37.92],[-85.29,38.08],[-85.3,38.1],[-85.34,38.15],[-85.39,38.2],[-85.45,38.26],[-85.47,38.27],[-85.5,38.29],[-85.52,38.3],[-85.54,38.31],[-85.57,38.32],[-85.6,38.32],[-85.64,38.32],[-85.67,38.33],[-85.7,38.33],[-85.77,38.33],[-85.84,38.33],[-85.91,38.33],[-85.98,38.33],[-86.01,38.32],[-86.05,38.32],[-86.08,38.32],[-86.11,38.31],[-86.5,38.2],[-86.52,38.19],[-87.24,37.97],[-87.74,37.8],[-88.05,37.7],[-88.07,37.69],[-88.49,37.53],[-88.51,37.52],[-88.53,37.51],[-88.77,37.37],[-90.38,36.43],[-90.4,36.42],[-90.95,36.09],[-91.89,35.48],[-92.24,35.25],[-92.27,35.22],[-92.28,35.21],[-92.5,35.04],[-93.07,34.59],[-93.11,34.55],[-93.15,34.5],[-93.27,34.37],[-93.28,34.35],[-93.44,34.15],[-93.45,34.13],[-93.46,34.12],[-93.5,34.04],[-93.51,34.02],[-93.52,34],[-93.55,33.88],[-93.56,33.85],[-93.57,33.82],[-93.57,33.79],[-93.57,33.76],[-93.57,33.73],[-93.58,33.69]]]}},{"type":"Feature","id":"geom_evt_20250419_southern_plains_2025_04_19_rain_d1_hover","properties":{"event_id":"evt_20250419_southern_plains_2025_04_19_rain","day_index":1,"geometry_role":"hover_geometry"},"geometry":{"type":"Polygon","coordinates":[[[-99.57,32.82],[-99.57,32.8],[-99.57,32.79],[-99.56,32.77],[-99.55,32.76],[-99.54,32.74],[-99.53,32.73],[-99.52,32.71],[-99.5,32.7],[-99.48,32.69],[-99.45,32.68],[-99.31,32.64],[-99.28,32.64],[-99.25,32.63],[-99.22,32.63],[-99.18,32.63],[-99.11,32.62],[-99.04,32.62],[-98.97,32.63],[-98.94,32.63],[-98.91,32.63],[-98.88,32.64],[-98.63,32.69],[-98.6,32.7],[-98.57,32.7],[-98.24,32.81],[-98.1,32.86],[-98.07,32.87],[-97.98,32.91],[-97.37,33.19],[-96.36,33.7],[-95.77,34.02],[-95.75,34.03],[-94.98,34.48],[-94.96,34.49],[-91.59,36.7],[-91.21,36.96],[-91.2,36.97],[-90.99,37.13],[-90.98,37.14],[-90.93,37.18],[-90.87,37.23],[-90.82,37.29],[-90.76,37.34],[-90.75,37.36],[-90.73,37.39],[-90.71,37.4],[-90.6,37.57],[-90.59,37.59],[-90.58,37.61],[-90.55,37.67],[-90.55,37.69],[-90.54,37.71],[-90.53,37.74],[-90.53,37.77],[-90.53,37.8],[-90.53,37.83],[-90.53,37.86],[-90.54,37.89],[-90.55,37.92],[-90.55,37.94],[-90.57,37.97],[-90.58,37.99],[-90.59,38.01],[-90.61,38.02],[-90.62,38.03],[-90.64,38.05],[-90.7,38.07],[-90.71,38.08],[-90.74,38.09],[-90.77,38.1],[-90.8,38.1],[-91.12,38.14],[-91.14,38.14],[-91.16,38.14],[-91.69,38.1],[-91.72,38.09],[-92.17,38.04],[-92.2,38.03],[-92.22,38.03],[-92.37,37.98],[-92.53,37.93],[-92.7,37.87],[-92.72,37.86],[-93.08,37.7],[-93.1,37.69],[-94.82,36.81],[-95.59,36.36],[-96.42,35.87],[-96.44,35.85],[-96.92,35.54],[-97.27,35.3],[-97.66,35.02],[-97.69,35],[-97.7,34.99],[-98.02,34.73],[-98.32,34.47],[-98.35,34.45],[-98.37,34.44],[-98.59,34.21],[-98.8,33.98],[-99.03,33.72],[-99.07,33.67],[-99.08,33.66],[-99.24,33.45],[-99.25,33.43],[-99.26,33.42],[-99.55,32.88],[-99.56,32.84],[-99.57,32.83],[-99.57,32.82]]]}},{"type":"Feature","id":"geom_evt_20250429_southern_plains_2025_04_29_rain_d1_hover","properties":{"event_id":"evt_20250429_southern_plains_2025_04_29_rain","day_index":1,"geometry_role":"hover_geometry"},"geometry":{"type":"Polygon","coordinates":[[[-100.82,33.54],[-100.81,33.51],[-100.81,33.48],[-100.81,33.45],[-100.8,33.42],[-100.76,33.3],[-100.75,33.28],[-100.74,33.26],[-100.73,33.24],[-100.71,33.21],[-100.7,33.19],[-100.58,33.04],[-100.57,33.02],[-100.55,33.01],[-100.54,33],[-100.53,32.99],[-100.52,32.99],[-100.33,32.91],[-100.31,32.91],[-100.19,32.87],[-100.16,32.86],[-100.13,32.86],[-100.1,32.85],[-100.07,32.85],[-100,32.85],[-99.93,32.85],[-99.86,32.85],[-99.75,32.85],[-99.68,32.85],[-99.61,32.85],[-99.58,32.85],[-99.55,32.85],[-99.51,32.86],[-99.48,32.86],[-99.18,32.91],[-99.15,32.92],[-98.95,32.97],[-98.93,32.97],[-98.9,32.98],[-98.81,33.02],[-98.79,33.03],[-98.7,33.08],[-98.15,33.36],[-98.13,33.37],[-97.63,33.65],[-97.62,33.66],[-95.53,34.98],[-95.52,34.99],[-95.18,35.21],[-95.15,35.23],[-95.14,35.24],[-94.87,35.48],[-94.86,35.49],[-94.69,35.68],[-94.68,35.7],[-94.66,35.73],[-94.64,35.75],[-94.63,35.77],[-94.62,35.79],[-94.59,35.91],[-94.58,35.94],[-94.57,35.97],[-94.57,36],[-94.57,36.04],[-94.56,36.07],[-94.56,36.14],[-94.56,36.21],[-94.57,36.24],[-94.57,36.28],[-94.57,36.31],[-94.58,36.34],[-94.58,36.37],[-94.62,36.49],[-94.63,36.51],[-94.65,36.53],[-94.66,36.55],[-94.67,36.56],[-94.68,36.58],[-94.7,36.59],[-94.71,36.6],[-94.8,36.65],[-94.82,36.66],[-94.91,36.71],[-94.93,36.71],[-95.01,36.75],[-95.03,36.75],[-95.06,36.76],[-95.09,36.77],[-95.12,36.77],[-95.15,36.77],[-95.19,36.78],[-95.26,36.78],[-95.4,36.78],[-95.5,36.78],[-95.57,36.78],[-95.64,36.77],[-95.67,36.77],[-95.7,36.77],[-95.74,36.76],[-96.04,36.71],[-96.07,36.71],[-96.34,36.65],[-96.79,36.54],[-96.81,36.53],[-96.91,36.49],[-96.93,36.48],[-98.53,35.7],[-98.62,35.66],[-98.64,35.65],[-99.08,35.37],[-99.25,35.26],[-99.47,35.1],[-99.49,35.08],[-99.53,35.05],[-99.86,34.77],[-100.2,34.47],[-100.23,34.45],[-100.25,34.43],[-100.53,34.16],[-100.57,34.12],[-100.58,34.11],[-100.6,34.09],[-100.62,34.06],[-100.63,34.04],[-100.64,34.03],[-100.69,33.94],[-100.7,33.92],[-100.75,33.82],[-100.76,33.8],[-100.8,33.66],[-100.81,33.63],[-100.81,33.6],[-100.81,33.57],[-100.82,33.54]]]}},{"type":"Feature","id":"geom_evt_20250430_southern_plains_2025_04_30_rain_d1_hover","properties":{"event_id":"evt_20250429_southern_plains_2025_04_29_rain","day_index":2,"geometry_role":"hover_geometry"},"geometry":{"type":"Polygon","coordinates":[[[-98.54,32.97],[-98.54,32.95],[-98.54,32.92],[-98.54,32.89],[-98.53,32.87],[-98.49,32.77],[-98.43,32.62],[-98.42,32.6],[-98.41,32.58],[-98.09,32.12],[-98.08,32.1],[-97.93,31.92],[-97.87,31.86],[-97.82,31.81],[-97.76,31.75],[-97.71,31.7],[-97.65,31.64],[-97.61,31.61],[-97.59,31.59],[-97.57,31.58],[-97.44,31.5],[-97.42,31.49],[-97.4,31.48],[-97.37,31.47],[-97.26,31.43],[-97.23,31.42],[-97.2,31.42],[-97.17,31.41],[-97.14,31.41],[-97.11,31.41],[-97.07,31.41],[-97.01,31.41],[-96.98,31.41],[-96.94,31.41],[-96.91,31.42],[-96.47,31.47],[-96.44,31.48],[-96.41,31.49],[-96.27,31.53],[-95.64,31.76],[-95.54,31.81],[-95.52,31.81],[-95.43,31.86],[-95.41,31.87],[-95.09,32.04],[-95.07,32.05],[-94.92,32.15],[-94.9,32.16],[-94.78,32.25],[-94.14,32.81],[-93.97,32.99],[-93.94,33.02],[-93.53,33.47],[-93.49,33.52],[-93.48,33.53],[-93.32,33.75],[-93.16,33.96],[-93.15,33.98],[-92.88,34.4],[-92.87,34.42],[-92.87,34.44],[-92.86,34.47],[-92.82,34.64],[-92.81,34.66],[-92.81,34.69],[-92.81,34.71],[-92.81,34.74],[-92.82,34.77],[-92.85,34.88],[-92.86,34.9],[-92.87,34.93],[-92.88,34.94],[-92.92,34.99],[-92.98,35.07],[-92.99,35.09],[-93,35.1],[-93.27,35.31],[-93.28,35.32],[-93.3,35.33],[-93.37,35.37],[-93.77,35.55],[-93.87,35.59],[-93.89,35.6],[-93.92,35.61],[-94.09,35.65],[-94.12,35.66],[-94.15,35.66],[-94.18,35.66],[-94.21,35.67],[-94.25,35.67],[-94.32,35.67],[-94.39,35.67],[-95.04,35.67],[-95.15,35.67],[-95.22,35.67],[-95.25,35.67],[-95.28,35.66],[-95.32,35.66],[-95.35,35.66],[-95.38,35.65],[-95.52,35.6],[-96.26,35.37],[-96.36,35.33],[-96.38,35.32],[-96.47,35.27],[-96.48,35.26],[-96.5,35.25],[-96.55,35.21],[-96.68,35.1],[-98.43,33.27],[-98.44,33.26],[-98.45,33.24],[-98.46,33.23],[-98.47,33.21],[-98.49,33.19],[-98.49,33.16],[-98.53,33.05],[-98.54,33.02],[-98.54,33],[-98.54,32.97]]]}},{"type":"Feature","id":"geom_evt_20250401_upper_midwest_2025_04_01_winter_d1_hover","properties":{"event_id":"evt_20250401_upper_midwest_2025_04_01_winter","day_index":1,"geometry_role":"hover_geometry"},"geometry":{"type":"Polygon","coordinates":[[[-100.12,47.01],[-100.08,46.63],[-99.71,45.25],[-99.57,44.9],[-98.71,44.63],[-97.86,44.54],[-96.45,44.54],[-93.77,44.98],[-93.02,45.41],[-93.02,45.56],[-93.05,46.16],[-94.43,48.37],[-95.21,48.54],[-95.6,48.54],[-100.07,47.85],[-100.11,47.33],[-100.12,47.02],[-100.12,47.01]]]}},{"type":"Feature","id":"geom_evt_20250402_upper_midwest_2025_04_02_winter_d1_hover","properties":{"event_id":"evt_20250401_upper_midwest_2025_04_01_winter","day_index":2,"geometry_role":"hover_geometry"},"geometry":{"type":"Polygon","coordinates":[[[-94.79,46.63],[-94.78,46.39],[-94.72,46.35],[-94.37,46.16],[-93.14,45.73],[-92.83,45.73],[-90.92,46.15],[-89.48,48.01],[-92.95,48.63],[-94.28,48.71],[-94.42,48.71],[-94.43,48.7],[-94.79,46.8],[-94.79,46.63]]]}},{"type":"Feature","id":"geom_evt_20250401_northern_plains_2025_04_01_winter_d1_hover","properties":{"event_id":"evt_20250401_northern_plains_2025_04_01_winter","day_index":1,"geometry_role":"hover_geometry"},"geometry":{"type":"Polygon","coordinates":[[[-102.39,47.76],[-102,45.94],[-99.88,45.94],[-99.88,46.28],[-100.03,47.67],[-100.07,47.85],[-102.39,47.85],[-102.39,47.76]]]}},{"type":"Feature","id":"geom_evt_20250401_northern_rockies_2025_04_01_winter_d1_hover","properties":{"event_id":"evt_20250401_northern_rockies_2025_04_01_winter","day_index":1,"geometry_role":"hover_geometry"},"geometry":{"type":"Polygon","coordinates":[[[-112.31,44.8],[-112.23,44.55],[-112.22,44.54],[-107.03,39.92],[-106.63,39.92],[-106.5,40.03],[-106.49,40.04],[-106.48,40.06],[-106.37,40.91],[-106.37,40.93],[-109.83,46.72],[-110.4,47.51],[-110.49,47.57],[-110.51,47.58],[-110.63,47.57],[-110.75,47.54],[-111.9,46.93],[-111.91,46.92],[-111.92,46.9],[-112.23,45.57],[-112.31,44.8]]]}},{"type":"Feature","id":"geom_evt_20250417_northern_rockies_2025_04_17_winter_d1_hover","properties":{"event_id":"evt_20250417_northern_rockies_2025_04_17_winter","day_index":1,"geometry_role":"hover_geometry"},"geometry":{"type":"Polygon","coordinates":[[[-111.84,45.26],[-111.81,45.19],[-111.8,45.17],[-111.67,44.94],[-109.14,41.87],[-107.36,41.02],[-107.3,41],[-105.14,41],[-105.12,41.07],[-104.89,42.61],[-104.89,42.78],[-104.9,43.5],[-106.01,44.56],[-107.89,45.25],[-108.13,45.33],[-109.98,45.8],[-110.02,45.8],[-111.63,45.66],[-111.67,45.65],[-111.69,45.64],[-111.83,45.52],[-111.84,45.45],[-111.84,45.26]]]}},{"type":"Feature","id":"geom_evt_20250418_northern_rockies_2025_04_18_winter_d1_hover","properties":{"event_id":"evt_20250417_northern_rockies_2025_04_17_winter","day_index":2,"geometry_role":"hover_geometry"},"geometry":{"type":"Polygon","coordinates":[[[-107.12,41.36],[-106.63,39.97],[-105.58,40.16],[-105.54,40.19],[-104.68,41.01],[-104.67,41.03],[-104.67,41.04],[-104.78,41.79],[-104.79,41.84],[-104.8,41.86],[-105.02,42.21],[-105.03,42.22],[-105.06,42.24],[-105.2,42.32],[-105.24,42.32],[-107.01,41.61],[-107.12,41.36]]]}},{"type":"Feature","id":"geom_evt_20250428_northern_rockies_2025_04_28_winter_d1_hover","properties":{"event_id":"evt_20250428_northern_rockies_2025_04_28_winter","day_index":1,"geometry_role":"hover_geometry"},"geometry":{"type":"Polygon","coordinates":[[[-112.31,44.8],[-112.23,44.55],[-112.22,44.54],[-112.19,44.53],[-112.11,44.52],[-111.83,44.51],[-111.12,44.49],[-111.09,44.49],[-106.84,44.56],[-106.91,44.62],[-107.39,44.93],[-107.89,45.25],[-110.26,46.32],[-110.28,46.32],[-112.13,45.77],[-112.23,45.57],[-112.31,44.8]]]}},{"type":"Feature","id":"geom_evt_20250404_southwest_2025_04_04_winter_d1_hover","properties":{"event_id":"evt_20250404_southwest_2025_04_04_winter","day_index":1,"geometry_role":"hover_geometry"},"geometry":{"type":"Polygon","coordinates":[[[-106.96,36.11],[-106.91,35.83],[-106.86,35.59],[-106.85,35.56],[-106.84,35.55],[-106.57,35.4],[-106.53,35.4],[-105.37,35.43],[-104.89,35.88],[-104.88,35.89],[-104.83,35.99],[-104.77,36.64],[-104.77,36.65],[-104.91,37.4],[-105.18,37.4],[-106.87,36.99],[-106.96,36.17],[-106.96,36.11]]]}},{"type":"Feature","id":"geom_evt_20250418_southwest_2025_04_18_winter_d1_hover","properties":{"event_id":"evt_20250418_southwest_2025_04_18_winter","day_index":1,"geometry_role":"hover_geometry"},"geometry":{"type":"Polygon","coordinates":[[[-107.15,37.68],[-107.13,37.39],[-106.48,36.99],[-106.27,36.99],[-105.22,37],[-105.16,37.04],[-105.15,37.05],[-104.91,37.38],[-104.88,37.94],[-104.85,38.73],[-104.85,38.74],[-104.91,39.08],[-104.92,39.13],[-105.49,40.18],[-105.53,40.19],[-105.55,40.19],[-105.78,40.18],[-106.47,39.99],[-107,38.43],[-107.14,37.94],[-107.15,37.68]]]}},{"type":"Feature","id":"geom_evt_20250419_southwest_2025_04_19_winter_d1_hover","properties":{"event_id":"evt_20250418_southwest_2025_04_18_winter","day_index":2,"geometry_role":"hover_geometry"},"geometry":{"type":"Polygon","coordinates":[[[-109.05,35.68],[-109.01,35.65],[-108.95,35.64],[-106.57,35.4],[-106.53,35.4],[-105.37,35.43],[-104.89,35.88],[-104.88,35.89],[-104.83,35.99],[-104.77,36.64],[-104.77,36.65],[-104.79,36.71],[-104.8,36.73],[-104.82,36.76],[-104.94,36.86],[-104.97,36.88],[-105.16,37],[-105.97,37],[-106.87,36.99],[-108.99,36.53],[-109.03,36.51],[-109.04,36.5],[-109.05,36.49],[-109.05,35.68]]]}},{"type":"Feature","id":"geom_evt_20250405_central_plains_2025_04_05_winter_d1_hover","properties":{"event_id":"evt_20250405_central_plains_2025_04_05_winter","day_index":1,"geometry_role":"hover_geometry"},"geometry":{"type":"Polygon","coordinates":[[[-105.31,34.35],[-103.05,33.82],[-102.06,33.82],[-101.56,33.83],[-101.47,34.31],[-101.47,34.75],[-101.62,35.62],[-103,37],[-104.06,37.73],[-104.35,37.82],[-104.46,37.75],[-104.82,37.38],[-104.96,37.16],[-105.24,35.88],[-105.29,35.22],[-105.31,34.61],[-105.31,34.35]]]}},{"type":"Feature","id":"geom_evt_20250417_pacific_northwest_2025_04_17_winter_d1_hover","properties":{"event_id":"evt_20250417_pacific_northwest_2025_04_17_winter","day_index":1,"geometry_role":"hover_geometry"},"geometry":{"type":"Polygon","coordinates":[[[-166.85,68.33],[-165.82,68.08],[-165.39,68.03],[-164.93,68.03],[-141,69.5],[-141,69.65],[-141.08,69.67],[-142.68,70.03],[-143.23,70.15],[-156.44,71.39],[-156.47,71.39],[-159.59,70.81],[-161.88,70.33],[-162.03,70.29],[-162.1,70.27],[-162.34,70.2],[-166.22,68.88],[-166.85,68.34],[-166.85,68.33]]]}},{"type":"Feature","id":"geom_evt_20250420_southern_plains_2025_04_20_severe_d1_hover","properties":{"event_id":"evt_20250420_southern_plains_2025_04_20_severe","day_index":1,"geometry_role":"hover_geometry"},"geometry":{"type":"Polygon","coordinates":[[[-94.81,36.62],[-94.48,35.77],[-94.15,35.16],[-93.17,34.78],[-92,34.82],[-91.41,35.63],[-91.11,36.31],[-90.78,38.16],[-91.15,39.31],[-91.78,40.5],[-92.61,40.22],[-93.52,39.24],[-94.54,37.82],[-94.81,36.62]]]}},{"type":"Feature","id":"geom_evt_20250429_southern_plains_2025_04_29_severe_d1_hover","properties":{"event_id":"evt_20250429_southern_plains_2025_04_29_severe","day_index":1,"geometry_role":"hover_geometry"},"geometry":{"type":"Polygon","coordinates":[[[-102.61,32.17],[-102.52,31.91],[-102.26,31.58],[-101.97,31.47],[-100.85,31.84],[-83.31,38.29],[-78.99,40.29],[-76.65,41.6],[-75.31,42.64],[-75.23,43.25],[-75.37,43.59],[-75.76,43.86],[-77.44,43.41],[-101.75,33.74],[-102.42,32.99],[-102.61,32.17]]]}},{"type":"Feature","id":"geom_evt_20250430_southern_plains_2025_04_30_severe_d1_hover","properties":{"event_id":"evt_20250429_southern_plains_2025_04_29_severe","day_index":2,"geometry_role":"hover_geometry"},"geometry":{"type":"Polygon","coordinates":[[[-97.84,32.17],[-97.63,31.62],[-95.63,31.57],[-94.66,31.86],[-94.15,32.46],[-93.83,32.84],[-93.73,33.27],[-93.77,33.73],[-93.94,34.14],[-94.52,34.49],[-95.33,34.28],[-97.84,32.17]]]}},{"type":"Feature","id":"geom_evt_20250414_mid_atlantic_2025_04_14_severe_d1_hover","properties":{"event_id":"evt_20250414_mid_atlantic_2025_04_14_severe","day_index":1,"geometry_role":"hover_geometry"},"geometry":{"type":"Polygon","coordinates":[[[-82.19,38.16],[-81.91,37.95],[-81.22,37.8],[-80.2,37.83],[-79.28,37.91],[-78.53,38.47],[-78.44,38.77],[-78.52,39.02],[-79.03,39.32],[-79.97,39.36],[-81.35,39.14],[-81.96,38.77],[-82.19,38.16]]]}},{"type":"Feature","id":"geom_evt_20250417_upper_midwest_2025_04_17_severe_d1_hover","properties":{"event_id":"evt_20250417_upper_midwest_2025_04_17_severe","day_index":1,"geometry_role":"hover_geometry"},"geometry":{"type":"Polygon","coordinates":[[[-97.92,41.06],[-97.3,40.83],[-95.71,40.85],[-93.75,41.07],[-93.1,41.57],[-93.09,42.18],[-93.73,42.43],[-96.05,42.3],[-97.15,42.05],[-97.89,41.46],[-97.92,41.06]]]}},{"type":"Feature","id":"geom_evt_20250419_central_plains_2025_04_19_severe_d1_hover","properties":{"event_id":"evt_20250419_central_plains_2025_04_19_severe","day_index":1,"geometry_role":"hover_geometry"},"geometry":{"type":"Polygon","coordinates":[[[-102.12,30.59],[-101.84,30.16],[-101.29,30.15],[-100.5,30.56],[-98.77,32.11],[-98.32,32.55],[-98.09,33.33],[-98.16,33.48],[-98.69,33.43],[-99.22,33.3],[-100.11,32.91],[-100.94,32.47],[-101.68,32],[-101.99,31.64],[-102.12,30.59]]]}},{"type":"Feature","id":"geom_evt_20250422_central_plains_2025_04_22_severe_d1_hover","properties":{"event_id":"evt_20250422_central_plains_2025_04_22_severe","day_index":1,"geometry_role":"hover_geometry"},"geometry":{"type":"Polygon","coordinates":[[[-103.58,32],[-103.28,28.99],[-103.09,28.97],[-100.98,29.37],[-95.73,38.8],[-95.85,39.56],[-96.49,39.58],[-98.51,38.48],[-100.24,36.94],[-101.69,35.31],[-103.03,33.6],[-103.58,32]]]}},{"type":"Feature","id":"geom_evt_20250423_central_plains_2025_04_23_severe_d1_hover","properties":{"event_id":"evt_20250422_central_plains_2025_04_22_severe","day_index":2,"geometry_role":"hover_geometry"},"geometry":{"type":"Polygon","coordinates":[[[-103.95,31.24],[-103.94,30.55],[-103.84,30.08],[-103.65,29.74],[-103.23,29.58],[-102.8,29.59],[-102.7,29.6],[-101.93,29.79],[-95.32,39.09],[-95.25,39.59],[-95.74,39.97],[-97.03,40.52],[-98.27,40.5],[-100.98,40],[-101.47,39.21],[-101.8,38.59],[-103.95,31.24]]]}},{"type":"Feature","id":"geom_evt_20250424_central_plains_2025_04_24_severe_d1_hover","properties":{"event_id":"evt_20250422_central_plains_2025_04_22_severe","day_index":3,"geometry_role":"hover_geometry"},"geometry":{"type":"Polygon","coordinates":[[[-102.01,33.42],[-101.78,32.99],[-101.07,33],[-100.32,33.98],[-100.24,35.72],[-100.94,36.24],[-101.42,36.35],[-101.87,36.03],[-102.01,33.42]]]}},{"type":"Feature","id":"geom_evt_20250425_central_plains_2025_04_25_severe_d1_hover","properties":{"event_id":"evt_20250422_central_plains_2025_04_22_severe","day_index":4,"geometry_role":"hover_geometry"},"geometry":{"type":"Polygon","coordinates":[[[-103.46,33.51],[-103.17,32.99],[-101.43,33.21],[-100.8,33.53],[-100.72,34.13],[-101.3,34.75],[-103.02,34.75],[-103.34,34.3],[-103.46,33.51]]]}},{"type":"Feature","id":"geom_evt_20250426_central_plains_2025_04_26_severe_d1_hover","properties":{"event_id":"evt_20250422_central_plains_2025_04_22_severe","day_index":5,"geometry_role":"hover_geometry"},"geometry":{"type":"Polygon","coordinates":[[[-105.03,34.81],[-104.92,33.35],[-104.53,32.59],[-103.07,31.92],[-101.94,31.82],[-95.4,33.92],[-94.98,34.31],[-95.17,34.61],[-95.97,34.8],[-104.08,35.62],[-104.66,35.45],[-105.03,34.81]]]}},{"type":"Feature","id":"geom_evt_20250418_southern_plains_2025_04_18_severe_d1_hover","properties":{"event_id":"evt_20250418_southern_plains_2025_04_18_severe","day_index":1,"geometry_role":"hover_geometry"},"geometry":{"type":"Polygon","coordinates":[[[-100.86,31.63],[-99.76,31.49],[-85.84,39.62],[-85.48,40.56],[-85.88,42.49],[-86.14,42.7],[-87.62,42.47],[-90.35,41.74],[-95.32,38.2],[-99.91,34.91],[-100.86,31.63]]]}},{"type":"Feature","id":"geom_evt_20250410_southeast_2025_04_10_severe_d1_hover","properties":{"event_id":"evt_20250410_southeast_2025_04_10_severe","day_index":1,"geometry_role":"hover_geometry"},"geometry":{"type":"Polygon","coordinates":[[[-91.34,34.79],[-90.59,33.39],[-89.29,32.8],[-87.71,32.49],[-84.98,32.57],[-84.04,33.17],[-83.16,34.23],[-83.08,34.88],[-84.42,36.6],[-85.56,37.25],[-88.06,37.58],[-88.89,37.54],[-89.77,37.38],[-91.15,36.27],[-91.34,34.79]]]}},{"type":"Feature","id":"geom_evt_20250427_northern_plains_2025_04_27_severe_d1_hover","properties":{"event_id":"evt_20250427_northern_plains_2025_04_27_severe","day_index":1,"geometry_role":"hover_geometry"},"geometry":{"type":"Polygon","coordinates":[[[-107.08,46.09],[-103.18,31.16],[-102.64,30.78],[-102.05,31.04],[-100.39,34.34],[-98.57,40.24],[-98.38,41.23],[-99.02,46.23],[-99.99,47.11],[-101.77,47.51],[-104.48,47.04],[-105.8,46.66],[-107.08,46.09]]]}}]}