{"type":"FeatureCollection","features":[{"type":"Feature","id":"geom_evt_20250517_southern_plains_2025_05_17_severe_d1_hover","properties":{"event_id":"evt_20250517_southern_plains_2025_05_17_severe","day_index":1,"geometry_role":"hover_geometry"},"geometry":{"type":"Polygon","coordinates":[[[-98.96,32.64],[-98.95,31.62],[-97.91,31.33],[-93.29,32.86],[-92.67,33.36],[-93.18,34.21],[-94.52,34.55],[-95.14,34.63],[-97.25,34.69],[-98.96,32.64]]]}},{"type":"Feature","id":"geom_evt_20250518_southern_plains_2025_05_18_severe_d1_hover","properties":{"event_id":"evt_20250517_southern_plains_2025_05_17_severe","day_index":2,"geometry_role":"hover_geometry"},"geometry":{"type":"Polygon","coordinates":[[[-100.07,38.28],[-99.45,36.71],[-98.93,36.48],[-97.52,36.52],[-96.8,36.93],[-96.78,37.75],[-98.44,38.91],[-99.07,39],[-99.73,38.74],[-100.07,38.28]]]}},{"type":"Feature","id":"geom_evt_20250519_southern_plains_2025_05_19_severe_d1_hover","properties":{"event_id":"evt_20250517_southern_plains_2025_05_17_severe","day_index":3,"geometry_role":"hover_geometry"},"geometry":{"type":"Polygon","coordinates":[[[-97.99,34.32],[-97.55,33.5],[-95.92,33.5],[-94.74,34.14],[-93.98,34.7],[-92.69,36.2],[-92.29,37.26],[-92.54,37.89],[-93.17,38.24],[-94.31,38.32],[-95.64,37.98],[-96.76,37.4],[-97.83,35.92],[-97.99,34.32]]]}},{"type":"Feature","id":"geom_evt_20250515_mid_atlantic_2025_05_15_severe_d1_hover","properties":{"event_id":"evt_20250515_mid_atlantic_2025_05_15_severe","day_index":1,"geometry_role":"hover_geometry"},"geometry":{"type":"Polygon","coordinates":[[[-93.57,45.8],[-93.48,45.35],[-93.14,44.92],[-88.99,41.31],[-88.02,40.51],[-87.54,40.16],[-86.71,39.94],[-85.56,40.04],[-84.59,40.4],[-84.19,40.6],[-83.52,41.29],[-83.61,41.94],[-83.79,42.59],[-86.12,44.58],[-87.84,45.69],[-89.1,46.17],[-90.58,46.4],[-91.33,46.46],[-92.53,46.32],[-93.24,46.15],[-93.57,45.8]]]}},{"type":"Feature","id":"geom_evt_20250516_mid_atlantic_2025_05_16_severe_d1_hover","properties":{"event_id":"evt_20250515_mid_atlantic_2025_05_15_severe","day_index":2,"geometry_role":"hover_geometry"},"geometry":{"type":"Polygon","coordinates":[[[-92.06,37],[-92.02,36.85],[-91.85,36.63],[-91.28,36.32],[-90.39,36.02],[-89.79,35.92],[-88.71,35.86],[-87.56,36.01],[-85.79,36.43],[-84.99,36.78],[-84.39,37.06],[-84.16,37.27],[-83.76,37.73],[-83.59,38.07],[-83.53,38.36],[-83.78,38.78],[-84.18,39.09],[-84.79,39.28],[-86.39,39.31],[-88.13,39.24],[-89.11,39.04],[-90.51,38.55],[-90.93,38.29],[-91.68,37.62],[-91.98,37.22],[-92.06,37]]]}},{"type":"Feature","id":"geom_evt_20250504_southwest_2025_05_04_fire_d1_hover","properties":{"event_id":"evt_20250504_southwest_2025_05_04_fire","day_index":1,"geometry_role":"hover_geometry"},"geometry":{"type":"Polygon","coordinates":[[[-109.17,31.85],[-109.12,31.42],[-108.96,31.31],[-108.21,31.31],[-106.89,31.77],[-106.78,32.17],[-106.79,32.53],[-107.37,32.97],[-107.75,32.99],[-107.84,32.99],[-108.25,32.9],[-108.54,32.74],[-109,32.33],[-109.17,31.85]]]}},{"type":"Feature","id":"geom_evt_20250513_southwest_2025_05_13_fire_d1_hover","properties":{"event_id":"evt_20250513_southwest_2025_05_13_fire","day_index":1,"geometry_role":"hover_geometry"},"geometry":{"type":"Polygon","coordinates":[[[-112.01,35.34],[-111.97,31.63],[-111.36,31.4],[-111.1,31.32],[-105.43,30.9],[-105.33,31.06],[-95.76,46.71],[-95.36,47.9],[-95.16,49],[-95.87,49],[-98.34,49],[-112.01,35.34]]]}},{"type":"Feature","id":"geom_evt_20250514_southwest_2025_05_14_fire_d1_hover","properties":{"event_id":"evt_20250513_southwest_2025_05_13_fire","day_index":2,"geometry_role":"hover_geometry"},"geometry":{"type":"Polygon","coordinates":[[[-110.54,31.33],[-105.86,31.22],[-104.28,31.56],[-103.83,32.12],[-104.32,33.89],[-104.58,34.58],[-105.42,34.92],[-106.73,34.72],[-107.46,34.2],[-110.54,31.33]]]}},{"type":"Feature","id":"geom_evt_20250518_southwest_2025_05_18_fire_d1_hover","properties":{"event_id":"evt_20250518_southwest_2025_05_18_fire","day_index":1,"geometry_role":"hover_geometry"},"geometry":{"type":"Polygon","coordinates":[[[-109.45,31.32],[-105.39,30.91],[-104.04,31.76],[-103.54,32.09],[-103.17,32.77],[-103.02,33.59],[-103.27,33.97],[-104.05,34.34],[-105.02,34.59],[-106.67,34.17],[-108.27,33.08],[-109.2,31.89],[-109.45,31.32]]]}},{"type":"Feature","id":"geom_evt_20250523_southwest_2025_05_23_fire_d1_hover","properties":{"event_id":"evt_20250523_southwest_2025_05_23_fire","day_index":1,"geometry_role":"hover_geometry"},"geometry":{"type":"Polygon","coordinates":[[[-111.81,34.89],[-107.45,32.27],[-106.52,32.8],[-106.2,33.68],[-106.25,34.42],[-107.98,35],[-108.75,35.13],[-110.31,35.37],[-111.51,35.53],[-111.81,34.89]]]}},{"type":"Feature","id":"geom_evt_20250511_upper_midwest_2025_05_11_fire_d1_hover","properties":{"event_id":"evt_20250511_upper_midwest_2025_05_11_fire","day_index":1,"geometry_role":"hover_geometry"},"geometry":{"type":"Polygon","coordinates":[[[-102.51,41.71],[-100.57,40.83],[-99.14,41.03],[-97.54,41.9],[-96.04,42.86],[-94.77,44.39],[-93.72,45.69],[-93.76,47.25],[-94.64,48.35],[-95.44,49],[-99.52,49],[-100.71,48.29],[-102.51,41.71]]]}},{"type":"Feature","id":"geom_evt_20250512_upper_midwest_2025_05_12_fire_d1_hover","properties":{"event_id":"evt_20250511_upper_midwest_2025_05_11_fire","day_index":2,"geometry_role":"hover_geometry"},"geometry":{"type":"Polygon","coordinates":[[[-101.72,41.82],[-100.32,41.18],[-98.12,41.99],[-96.93,43.23],[-96.12,44.49],[-95.55,45.51],[-95.33,46.64],[-95.21,47.31],[-95.5,49],[-95.87,49],[-97.53,48.99],[-100.73,44.66],[-101.72,41.82]]]}},{"type":"Feature","id":"geom_evt_20250517_desert_southwest_2025_05_17_fire_d1_hover","properties":{"event_id":"evt_20250517_desert_southwest_2025_05_17_fire","day_index":1,"geometry_role":"hover_geometry"},"geometry":{"type":"Polygon","coordinates":[[[-110.14,31.33],[-105.63,31.05],[-104.85,31.38],[-104.39,32.77],[-104.59,33.65],[-105.84,34.09],[-106.89,34],[-109.88,32.2],[-110.14,31.33]]]}},{"type":"Feature","id":"geom_evt_20250519_desert_southwest_2025_05_19_fire_d1_hover","properties":{"event_id":"evt_20250519_desert_southwest_2025_05_19_fire","day_index":1,"geometry_role":"hover_geometry"},"geometry":{"type":"Polygon","coordinates":[[[-109.05,32.24],[-108.98,31.72],[-104.61,29.74],[-103.66,30.04],[-102.97,31.04],[-103.08,32.75],[-103.6,33.53],[-104.16,34.01],[-106.82,34.74],[-107.41,34.74],[-108.68,33.89],[-108.96,33.37],[-109.05,32.24]]]}},{"type":"Feature","id":"geom_evt_20250506_gulf_coast_2025_05_06_rain_d1_hover","properties":{"event_id":"evt_20250506_gulf_coast_2025_05_06_rain","day_index":1,"geometry_role":"hover_geometry"},"geometry":{"type":"Polygon","coordinates":[[[-96.05,31.34],[-96.05,31.31],[-96.05,31.29],[-96.04,31.26],[-96,31.09],[-95.99,31.07],[-95.98,31.05],[-95.97,31.03],[-95.94,30.98],[-95.89,30.89],[-95.88,30.87],[-95.86,30.86],[-95.84,30.83],[-95.82,30.82],[-95.81,30.8],[-95.79,30.79],[-95.78,30.78],[-95.76,30.77],[-95.38,30.54],[-95.36,30.53],[-95.26,30.49],[-94.71,30.27],[-94.68,30.26],[-93.44,29.94],[-93.41,29.93],[-93.38,29.92],[-92.75,29.82],[-92.72,29.81],[-92.69,29.81],[-92.65,29.81],[-91.6,29.75],[-91.57,29.75],[-91.53,29.75],[-91.46,29.75],[-91.32,29.75],[-91.07,29.75],[-89.93,29.76],[-89.91,29.76],[-89.88,29.76],[-89.86,29.77],[-89.83,29.78],[-89.44,29.94],[-89.35,29.98],[-89.33,29.99],[-89.32,30],[-89.11,30.16],[-89.1,30.17],[-89.08,30.18],[-89.07,30.2],[-89.06,30.21],[-89.04,30.23],[-88.96,30.36],[-88.95,30.38],[-88.71,30.84],[-88.67,30.93],[-88.66,30.95],[-88.61,31.1],[-88.6,31.13],[-88.6,31.16],[-88.6,31.19],[-88.59,31.22],[-88.59,31.25],[-88.59,31.32],[-88.59,31.39],[-88.59,31.5],[-88.59,31.57],[-88.59,31.6],[-88.6,31.63],[-88.6,31.66],[-88.6,31.69],[-88.61,31.72],[-88.65,31.89],[-88.66,31.92],[-88.67,31.94],[-88.68,31.96],[-88.7,31.99],[-88.72,32],[-88.77,32.06],[-88.83,32.12],[-88.94,32.23],[-88.99,32.28],[-89.05,32.33],[-89.07,32.35],[-89.1,32.37],[-89.11,32.38],[-89.3,32.5],[-89.38,32.55],[-89.4,32.56],[-89.5,32.61],[-89.52,32.62],[-89.66,32.66],[-89.69,32.67],[-89.91,32.72],[-90.91,32.94],[-91.19,33],[-92.18,33.17],[-92.21,33.17],[-92.24,33.17],[-92.28,33.18],[-92.31,33.18],[-92.42,33.18],[-93.23,33.18],[-93.3,33.18],[-93.37,33.18],[-93.41,33.18],[-93.44,33.17],[-93.47,33.17],[-93.5,33.16],[-93.64,33.11],[-94.13,32.94],[-94.16,32.94],[-94.25,32.89],[-94.27,32.88],[-94.54,32.71],[-95.65,31.99],[-95.67,31.98],[-95.7,31.96],[-95.71,31.95],[-95.73,31.93],[-95.75,31.9],[-95.92,31.71],[-95.93,31.69],[-95.94,31.67],[-95.99,31.56],[-96,31.54],[-96.04,31.44],[-96.05,31.42],[-96.05,31.39],[-96.05,31.37],[-96.05,31.34]]]}},{"type":"Feature","id":"geom_evt_20250507_gulf_coast_2025_05_07_rain_d1_hover","properties":{"event_id":"evt_20250506_gulf_coast_2025_05_06_rain","day_index":2,"geometry_role":"hover_geometry"},"geometry":{"type":"Polygon","coordinates":[[[-92,30.06],[-91.99,30.04],[-91.96,29.83],[-91.96,29.8],[-91.95,29.77],[-91.9,29.6],[-91.9,29.58],[-91.89,29.55],[-91.88,29.54],[-91.86,29.5],[-91.84,29.49],[-91.72,29.33],[-91.71,29.31],[-91.68,29.29],[-91.18,28.82],[-91.12,28.77],[-91.11,28.75],[-91.07,28.73],[-91.06,28.72],[-91.03,28.71],[-91,28.71],[-90.97,28.7],[-90.94,28.7],[-89.37,28.59],[-89.34,28.59],[-89.31,28.59],[-89.28,28.59],[-89.25,28.59],[-89.22,28.59],[-89.19,28.6],[-89.16,28.6],[-89.05,28.64],[-89.02,28.65],[-89,28.67],[-88.99,28.68],[-88.97,28.69],[-88.96,28.71],[-88.95,28.72],[-88.94,28.75],[-88.93,28.77],[-88.92,28.8],[-88.88,29.02],[-88.88,29.05],[-88.87,29.08],[-88.87,29.12],[-88.87,29.19],[-88.87,29.29],[-88.86,29.43],[-88.87,29.51],[-88.87,29.57],[-88.87,29.61],[-88.87,29.64],[-88.88,29.67],[-88.88,29.7],[-88.89,29.73],[-88.9,29.74],[-88.93,29.78],[-88.94,29.79],[-88.95,29.8],[-88.98,29.83],[-89,29.84],[-89.01,29.85],[-89.16,29.95],[-89.18,29.96],[-89.28,30.01],[-89.3,30.02],[-89.44,30.06],[-89.46,30.07],[-89.61,30.12],[-89.64,30.12],[-89.67,30.13],[-90.94,30.29],[-90.97,30.3],[-91.01,30.3],[-91.04,30.3],[-91.11,30.3],[-91.22,30.3],[-91.54,30.31],[-91.61,30.31],[-91.68,30.3],[-91.71,30.3],[-91.75,30.3],[-91.78,30.3],[-91.81,30.29],[-91.83,30.28],[-91.85,30.27],[-91.89,30.25],[-91.9,30.23],[-91.91,30.22],[-91.94,30.19],[-91.95,30.18],[-91.96,30.16],[-91.97,30.14],[-91.98,30.12],[-91.99,30.09],[-91.99,30.07],[-92,30.06]]]}},{"type":"Feature","id":"geom_evt_20250512_southeast_2025_05_12_rain_d1_hover","properties":{"event_id":"evt_20250512_southeast_2025_05_12_rain","day_index":1,"geometry_role":"hover_geometry"},"geometry":{"type":"Polygon","coordinates":[[[-80.67,25.64],[-80.67,25.61],[-80.66,25.59],[-80.66,25.57],[-80.65,25.55],[-80.63,25.51],[-80.57,25.4],[-80.55,25.37],[-80.54,25.36],[-80.51,25.34],[-80.49,25.33],[-80.46,25.33],[-80.43,25.32],[-80.39,25.32],[-80.36,25.32],[-80.32,25.32],[-80.29,25.32],[-80.25,25.32],[-80.22,25.32],[-80.19,25.32],[-80.15,25.33],[-80.12,25.33],[-80.09,25.34],[-79.89,25.41],[-79.88,25.41],[-79.87,25.42],[-79.86,25.43],[-79.85,25.44],[-79.82,25.49],[-79.82,25.51],[-79.81,25.54],[-79.8,25.57],[-79.8,25.6],[-79.7,26.76],[-79.7,26.78],[-79.7,26.81],[-79.7,26.83],[-79.71,26.85],[-79.72,26.87],[-79.73,26.89],[-79.74,26.9],[-79.76,26.92],[-79.77,26.93],[-79.78,26.94],[-79.8,26.95],[-79.82,26.96],[-79.84,26.97],[-79.86,26.97],[-79.89,26.97],[-79.91,26.97],[-79.94,26.96],[-79.96,26.96],[-80.04,26.93],[-80.05,26.92],[-80.15,26.87],[-80.16,26.86],[-80.18,26.84],[-80.21,26.82],[-80.23,26.81],[-80.27,26.76],[-80.28,26.75],[-80.29,26.73],[-80.32,26.7],[-80.33,26.68],[-80.34,26.66],[-80.54,26.18],[-80.55,26.16],[-80.66,25.66],[-80.67,25.64]]]}},{"type":"Feature","id":"geom_evt_20250519_southern_plains_2025_05_19_rain_d1_hover","properties":{"event_id":"evt_20250519_southern_plains_2025_05_19_rain","day_index":1,"geometry_role":"hover_geometry"},"geometry":{"type":"Polygon","coordinates":[[[-95.33,35.19],[-95.33,35.16],[-95.32,35.13],[-95.29,35.02],[-95.28,34.99],[-95.27,34.97],[-95.22,34.88],[-95.21,34.86],[-95.2,34.84],[-95.18,34.81],[-95.16,34.8],[-95.15,34.78],[-95.12,34.76],[-95.1,34.75],[-95.08,34.74],[-94.99,34.69],[-94.98,34.68],[-94.88,34.63],[-94.86,34.62],[-94.79,34.59],[-94.77,34.58],[-94.74,34.57],[-94.71,34.57],[-94.68,34.57],[-94.65,34.56],[-94.61,34.56],[-94.58,34.56],[-94.55,34.56],[-94.51,34.57],[-94.48,34.57],[-94.45,34.57],[-94.42,34.58],[-91.96,35.3],[-91.94,35.31],[-91.47,35.47],[-91.44,35.47],[-91.01,35.68],[-90.99,35.69],[-90.9,35.73],[-90.88,35.74],[-90.71,35.85],[-90.7,35.87],[-90.67,35.89],[-90.65,35.9],[-90.6,35.96],[-90.54,36.01],[-90.48,36.07],[-90.43,36.13],[-90.42,36.14],[-90.4,36.18],[-90.39,36.19],[-90.38,36.22],[-90.37,36.24],[-90.37,36.27],[-90.36,36.3],[-90.36,36.33],[-90.36,36.36],[-90.36,36.39],[-90.37,36.42],[-90.37,36.45],[-90.38,36.48],[-90.39,36.49],[-90.42,36.57],[-90.43,36.59],[-90.55,36.76],[-90.56,36.77],[-90.6,36.82],[-90.65,36.87],[-90.71,36.93],[-90.99,37.2],[-91,37.22],[-91.03,37.24],[-91.05,37.25],[-91.06,37.26],[-91.08,37.27],[-91.14,37.3],[-91.16,37.31],[-91.19,37.32],[-91.22,37.32],[-91.25,37.33],[-91.67,37.36],[-91.69,37.36],[-91.71,37.36],[-91.73,37.36],[-91.84,37.33],[-91.87,37.32],[-93.66,36.75],[-93.76,36.71],[-94.05,36.59],[-94.12,36.55],[-94.14,36.54],[-94.16,36.53],[-94.17,36.52],[-94.38,36.37],[-94.4,36.36],[-94.76,36.05],[-94.77,36.04],[-94.83,35.99],[-94.89,35.93],[-94.94,35.88],[-95,35.82],[-95.15,35.64],[-95.16,35.63],[-95.17,35.61],[-95.22,35.54],[-95.22,35.52],[-95.27,35.43],[-95.28,35.4],[-95.29,35.38],[-95.32,35.26],[-95.33,35.24],[-95.33,35.21],[-95.33,35.19]]]}},{"type":"Feature","id":"geom_evt_20250525_southern_plains_2025_05_25_rain_d1_hover","properties":{"event_id":"evt_20250525_southern_plains_2025_05_25_rain","day_index":1,"geometry_role":"hover_geometry"},"geometry":{"type":"Polygon","coordinates":[[[-97.88,34.2],[-97.88,34.17],[-97.88,34.15],[-97.87,34.12],[-97.86,34.1],[-97.85,34.08],[-97.83,34.07],[-97.77,34.02],[-97.72,33.98],[-97.71,33.97],[-97.69,33.96],[-97.67,33.95],[-97.61,33.93],[-97.59,33.92],[-97.56,33.91],[-97.53,33.91],[-97.5,33.9],[-96.78,33.85],[-96.74,33.85],[-96.68,33.84],[-96.6,33.84],[-96.5,33.84],[-96.03,33.84],[-95.96,33.84],[-95.89,33.84],[-95.82,33.85],[-95.79,33.85],[-95.75,33.85],[-95.31,33.91],[-94.92,33.96],[-94.89,33.97],[-94.86,33.97],[-94.84,33.98],[-94.78,34.01],[-94.77,34.02],[-94.75,34.03],[-94.73,34.04],[-94.72,34.05],[-94.7,34.07],[-94.69,34.08],[-94.68,34.1],[-94.65,34.13],[-94.64,34.15],[-94.64,34.17],[-94.19,35.77],[-94.18,35.8],[-94.18,35.84],[-94.18,35.87],[-94.18,35.9],[-94.18,35.93],[-94.18,35.97],[-94.18,36],[-94.19,36.03],[-94.19,36.06],[-94.2,36.09],[-94.21,36.11],[-94.23,36.14],[-94.24,36.16],[-94.3,36.24],[-94.31,36.26],[-94.32,36.28],[-94.33,36.29],[-94.35,36.3],[-94.36,36.32],[-94.38,36.33],[-94.39,36.34],[-94.41,36.35],[-94.43,36.36],[-94.45,36.37],[-95.2,36.59],[-95.23,36.6],[-95.26,36.6],[-95.64,36.66],[-95.67,36.66],[-95.71,36.66],[-95.74,36.66],[-95.77,36.67],[-95.84,36.67],[-95.91,36.67],[-95.94,36.66],[-95.97,36.66],[-96.01,36.66],[-96.04,36.66],[-96.07,36.65],[-96.71,36.55],[-96.73,36.54],[-96.76,36.53],[-96.88,36.5],[-96.9,36.49],[-96.92,36.48],[-96.94,36.47],[-97.08,36.38],[-97.09,36.37],[-97.11,36.36],[-97.14,36.33],[-97.16,36.32],[-97.21,36.27],[-97.23,36.25],[-97.27,36.21],[-97.28,36.19],[-97.3,36.16],[-97.31,36.14],[-97.32,36.12],[-97.33,36.1],[-97.37,35.98],[-97.87,34.29],[-97.88,34.26],[-97.88,34.23],[-97.88,34.2]]]}},{"type":"Feature","id":"geom_evt_20250514_northern_rockies_2025_05_14_winter_d1_hover","properties":{"event_id":"evt_20250514_northern_rockies_2025_05_14_winter","day_index":1,"geometry_role":"hover_geometry"},"geometry":{"type":"Polygon","coordinates":[[[-110.17,44.53],[-110.05,43.82],[-109.95,43.68],[-109.91,43.65],[-109.19,43.48],[-107.2,43.21],[-107.1,43.21],[-106.84,43.43],[-106.82,43.45],[-106.78,43.95],[-106.77,44.29],[-106.77,44.33],[-106.84,44.56],[-106.91,44.62],[-107.39,44.93],[-107.89,45.25],[-108.13,45.33],[-108.32,45.37],[-108.45,45.38],[-108.63,45.38],[-108.68,45.37],[-110,45],[-110.17,44.55],[-110.17,44.53]]]}},{"type":"Feature","id":"geom_evt_20250518_desert_southwest_2025_05_18_winter_d1_hover","properties":{"event_id":"evt_20250518_desert_southwest_2025_05_18_winter","day_index":1,"geometry_role":"hover_geometry"},"geometry":{"type":"Polygon","coordinates":[[[-116.34,45.26],[-116.3,45.11],[-114.58,44.58],[-113.32,44.23],[-112.81,44.23],[-112.81,44.38],[-113.06,47.48],[-113.13,47.59],[-113.14,47.6],[-114.02,47.6],[-115.63,46.47],[-115.64,46.46],[-115.73,46.37],[-116.22,45.87],[-116.34,45.26]]]}},{"type":"Feature","id":"geom_evt_20250501_southern_plains_2025_05_01_severe_d1_hover","properties":{"event_id":"evt_20250501_southern_plains_2025_05_01_severe","day_index":1,"geometry_role":"hover_geometry"},"geometry":{"type":"Polygon","coordinates":[[[-102.04,35.53],[-101.17,29.5],[-100.29,28.29],[-100.08,28.09],[-88.43,31.32],[-77.14,41.36],[-77.45,42.16],[-79.03,42.85],[-100.42,36.86],[-101.21,36.47],[-102.04,35.53]]]}},{"type":"Feature","id":"geom_evt_20250502_southern_plains_2025_05_02_severe_d1_hover","properties":{"event_id":"evt_20250501_southern_plains_2025_05_01_severe","day_index":2,"geometry_role":"hover_geometry"},"geometry":{"type":"Polygon","coordinates":[[[-100.93,29.95],[-100.34,28.65],[-98.05,28.75],[-94.71,29.5],[-86.1,33.51],[-85.44,33.99],[-83.28,37.9],[-83.42,38.42],[-84.3,38.79],[-100.93,29.95]]]}},{"type":"Feature","id":"geom_evt_20250522_southern_plains_2025_05_22_severe_d1_hover","properties":{"event_id":"evt_20250522_southern_plains_2025_05_22_severe","day_index":1,"geometry_role":"hover_geometry"},"geometry":{"type":"Polygon","coordinates":[[[-99.22,33.79],[-99.06,33.25],[-98.42,32.68],[-97.31,32.5],[-96.64,32.96],[-96.49,33.78],[-97.25,34.33],[-99,34.07],[-99.22,33.79]]]}},{"type":"Feature","id":"geom_evt_20250524_southern_plains_2025_05_24_severe_d1_hover","properties":{"event_id":"evt_20250524_southern_plains_2025_05_24_severe","day_index":1,"geometry_role":"hover_geometry"},"geometry":{"type":"Polygon","coordinates":[[[-99.2,35.28],[-98.69,35.08],[-96.11,34.98],[-95.55,35.24],[-95.56,35.98],[-95.68,36.35],[-96.37,36.74],[-97.59,36.7],[-98.92,36.06],[-99.2,35.56],[-99.2,35.28]]]}},{"type":"Feature","id":"geom_evt_20250525_southern_plains_2025_05_25_severe_d1_hover","properties":{"event_id":"evt_20250524_southern_plains_2025_05_24_severe","day_index":2,"geometry_role":"hover_geometry"},"geometry":{"type":"Polygon","coordinates":[[[-102.66,33.67],[-100.21,31.99],[-87.18,33.23],[-86.82,34.06],[-87.09,34.81],[-90.16,35.47],[-96.56,35.85],[-97.89,35.84],[-102.58,34.64],[-102.66,33.67]]]}},{"type":"Feature","id":"geom_evt_20250504_central_plains_2025_05_04_severe_d1_hover","properties":{"event_id":"evt_20250504_central_plains_2025_05_04_severe","day_index":1,"geometry_role":"hover_geometry"},"geometry":{"type":"Polygon","coordinates":[[[-105.56,33.98],[-104.88,32.36],[-104.56,31.84],[-104.2,31.47],[-103.74,31.35],[-102.99,31.47],[-102.7,31.69],[-102.56,32.05],[-102.51,32.66],[-102.72,33.4],[-103.39,34.27],[-104.04,34.64],[-104.95,34.68],[-105.44,34.4],[-105.56,33.98]]]}},{"type":"Feature","id":"geom_evt_20250505_central_plains_2025_05_05_severe_d1_hover","properties":{"event_id":"evt_20250504_central_plains_2025_05_04_severe","day_index":2,"geometry_role":"hover_geometry"},"geometry":{"type":"Polygon","coordinates":[[[-103.78,32.36],[-103.66,31.8],[-103.39,31.24],[-102.05,29.78],[-100.73,29.15],[-100.52,29.22],[-99.98,29.57],[-99.6,30.15],[-99.57,30.76],[-101.11,32.66],[-101.5,33],[-102.35,33.44],[-102.77,33.45],[-103.51,33.2],[-103.75,32.75],[-103.78,32.36]]]}},{"type":"Feature","id":"geom_evt_20250529_central_plains_2025_05_29_severe_d1_hover","properties":{"event_id":"evt_20250529_central_plains_2025_05_29_severe","day_index":1,"geometry_role":"hover_geometry"},"geometry":{"type":"Polygon","coordinates":[[[-102.64,33.01],[-102.53,32.62],[-100.6,31.31],[-99.81,31.3],[-99.28,31.91],[-99.36,32.55],[-101.61,33.43],[-102.5,33.41],[-102.64,33.01]]]}},{"type":"Feature","id":"geom_evt_20250506_gulf_coast_2025_05_06_severe_d1_hover","properties":{"event_id":"evt_20250506_gulf_coast_2025_05_06_severe","day_index":1,"geometry_role":"hover_geometry"},"geometry":{"type":"Polygon","coordinates":[[[-97.7,30.56],[-97.53,30.23],[-96.77,29.89],[-95.78,29.75],[-94.81,29.87],[-92.86,30.3],[-92.51,30.52],[-92.4,31.08],[-92.63,31.49],[-93.15,31.83],[-94.65,32.06],[-96.09,31.94],[-97.24,31.36],[-97.66,31],[-97.7,30.56]]]}},{"type":"Feature","id":"geom_evt_20250526_gulf_coast_2025_05_26_severe_d1_hover","properties":{"event_id":"evt_20250526_gulf_coast_2025_05_26_severe","day_index":1,"geometry_role":"hover_geometry"},"geometry":{"type":"Polygon","coordinates":[[[-101.26,31.8],[-101.25,31.16],[-101.01,30.29],[-98.6,29.5],[-97.88,29.78],[-97.42,30.6],[-97.33,31.15],[-97.37,31.55],[-98.21,32.3],[-100.06,32.36],[-100.65,32.16],[-101.26,31.8]]]}},{"type":"Feature","id":"geom_evt_20250527_gulf_coast_2025_05_27_severe_d1_hover","properties":{"event_id":"evt_20250526_gulf_coast_2025_05_26_severe","day_index":2,"geometry_role":"hover_geometry"},"geometry":{"type":"Polygon","coordinates":[[[-104.99,30.56],[-104.7,29.9],[-104.55,29.65],[-104.17,29.39],[-99.39,26.97],[-98.54,27.17],[-81.78,31.48],[-81.36,32.43],[-82.06,33.09],[-84.35,33.74],[-85.38,33.85],[-102.7,33.11],[-104.28,32.58],[-104.9,31.77],[-104.99,30.56]]]}},{"type":"Feature","id":"geom_evt_20250520_southeast_2025_05_20_severe_d1_hover","properties":{"event_id":"evt_20250520_southeast_2025_05_20_severe","day_index":1,"geometry_role":"hover_geometry"},"geometry":{"type":"Polygon","coordinates":[[[-92.07,33.69],[-90.66,33.13],[-89.67,32.84],[-85.94,33.04],[-84.56,33.6],[-82.35,37],[-82.39,37.63],[-82.84,38.31],[-83.91,38.5],[-85.85,38.26],[-88.46,37.65],[-89.67,37.17],[-90.63,36.05],[-91.3,35.06],[-92.07,33.69]]]}},{"type":"Feature","id":"geom_evt_20250521_southeast_2025_05_21_severe_d1_hover","properties":{"event_id":"evt_20250520_southeast_2025_05_20_severe","day_index":2,"geometry_role":"hover_geometry"},"geometry":{"type":"Polygon","coordinates":[[[-95.42,36.79],[-94.81,36.42],[-84.04,30.12],[-83.14,29.85],[-82.38,29.82],[-81.71,30.07],[-75.46,35.37],[-75.33,35.66],[-75.54,36.01],[-76.29,36.22],[-94.03,37.36],[-95.21,37.4],[-95.42,36.79]]]}},{"type":"Feature","id":"geom_evt_20250530_southeast_2025_05_30_severe_d1_hover","properties":{"event_id":"evt_20250530_southeast_2025_05_30_severe","day_index":1,"geometry_role":"hover_geometry"},"geometry":{"type":"Polygon","coordinates":[[[-83.21,32.4],[-81.44,32.11],[-80.52,32.5],[-79,33.51],[-78.08,34.34],[-77.36,35.29],[-77.93,36.22],[-79.87,36.35],[-82.87,33.88],[-83.21,32.4]]]}},{"type":"Feature","id":"geom_evt_20250528_southern_plains_2025_05_28_severe_d1_hover","properties":{"event_id":"evt_20250528_southern_plains_2025_05_28_severe","day_index":1,"geometry_role":"hover_geometry"},"geometry":{"type":"Polygon","coordinates":[[[-104.76,31.32],[-104.34,30.15],[-103.96,29.37],[-103.25,29.05],[-90.61,29.52],[-89.77,29.76],[-89.11,30.61],[-89.41,31.55],[-97.24,38.28],[-101.89,40.16],[-103.59,40.12],[-104.25,39],[-104.72,32.26],[-104.76,31.32]]]}},{"type":"Feature","id":"geom_evt_20250503_mid_atlantic_2025_05_03_severe_d1_hover","properties":{"event_id":"evt_20250503_mid_atlantic_2025_05_03_severe","day_index":1,"geometry_role":"hover_geometry"},"geometry":{"type":"Polygon","coordinates":[[[-82.1,33.54],[-81.75,33.27],[-81.16,33.24],[-80.74,33.59],[-70.99,42.75],[-70.7,43.26],[-70.99,43.75],[-71.34,43.76],[-74.37,42.43],[-78.37,39.99],[-79.65,38.54],[-80.75,36.88],[-81.74,35.35],[-82.1,33.54]]]}},{"type":"Feature","id":"geom_evt_20250531_mid_atlantic_2025_05_31_severe_d1_hover","properties":{"event_id":"evt_20250531_mid_atlantic_2025_05_31_severe","day_index":1,"geometry_role":"hover_geometry"},"geometry":{"type":"Polygon","coordinates":[[[-99.4,35.89],[-99.12,34.56],[-98.44,33.78],[-97.05,33.72],[-75.57,36.7],[-74.02,39.28],[-75.93,39.48],[-97.32,37.96],[-98.41,37.7],[-99.23,37.3],[-99.4,36.82],[-99.4,35.89]]]}},{"type":"Feature","id":"geom_evt_20250523_central_plains_2025_05_23_severe_d1_hover","properties":{"event_id":"evt_20250523_central_plains_2025_05_23_severe","day_index":1,"geometry_role":"hover_geometry"},"geometry":{"type":"Polygon","coordinates":[[[-103.8,40.89],[-101.67,32.61],[-101.05,32.39],[-93.4,34.74],[-93.1,35.98],[-94.34,37.55],[-102,42.03],[-103.54,41.53],[-103.77,41.12],[-103.8,40.89]]]}},{"type":"Feature","id":"geom_evt_20250508_gulf_coast_2025_05_08_severe_d1_hover","properties":{"event_id":"evt_20250508_gulf_coast_2025_05_08_severe","day_index":1,"geometry_role":"hover_geometry"},"geometry":{"type":"Polygon","coordinates":[[[-104.38,29.53],[-104.17,29.39],[-99.02,26.38],[-98.2,26.04],[-97.4,25.82],[-80.22,28.44],[-80.2,28.55],[-78.6,35.99],[-79.08,36.82],[-79.77,37.16],[-82.65,37.47],[-84.41,37.51],[-88.23,37.09],[-103.68,30.27],[-104.11,30.02],[-104.38,29.53]]]}},{"type":"Feature","id":"geom_evt_20250509_southeast_2025_05_09_severe_d1_hover","properties":{"event_id":"evt_20250509_southeast_2025_05_09_severe","day_index":1,"geometry_role":"hover_geometry"},"geometry":{"type":"Polygon","coordinates":[[[-82.19,31.01],[-82.1,30.17],[-81.5,27.74],[-80.89,27.38],[-80.42,27.42],[-80.1,27.84],[-75.14,35.46],[-75.12,35.65],[-75.59,36.98],[-76.7,37.12],[-77.18,36.83],[-81.44,32.34],[-81.89,31.85],[-82.19,31.01]]]}},{"type":"Feature","id":"geom_evt_20250510_southeast_2025_05_10_severe_d1_hover","properties":{"event_id":"evt_20250509_southeast_2025_05_09_severe","day_index":2,"geometry_role":"hover_geometry"},"geometry":{"type":"Polygon","coordinates":[[[-86.72,30.65],[-86.6,30.05],[-85.67,29.44],[-85.34,29.34],[-85.02,29.25],[-84.79,29.32],[-84.19,30.86],[-83.99,31.8],[-84.35,31.92],[-84.96,31.93],[-85.91,31.61],[-86.38,31.15],[-86.72,30.65]]]}},{"type":"Feature","id":"geom_evt_20250511_northern_rockies_2025_05_11_severe_d1_hover","properties":{"event_id":"evt_20250511_northern_rockies_2025_05_11_severe","day_index":1,"geometry_role":"hover_geometry"},"geometry":{"type":"Polygon","coordinates":[[[-113.32,42.98],[-113.04,42.7],[-111.39,42.84],[-109.22,43.89],[-105.75,45.79],[-104.92,46.43],[-104.49,47.41],[-104.48,48.42],[-104.96,48.86],[-105.44,49],[-105.5,49.01],[-105.6,49.01],[-108.66,49],[-109.82,48.72],[-110.84,48.34],[-111.52,47.73],[-113.32,42.98]]]}},{"type":"Feature","id":"geom_evt_20250514_upper_midwest_2025_05_14_severe_d1_hover","properties":{"event_id":"evt_20250514_upper_midwest_2025_05_14_severe","day_index":1,"geometry_role":"hover_geometry"},"geometry":{"type":"Polygon","coordinates":[[[-102.29,41.42],[-102.08,40.65],[-101.78,40.19],[-101.32,39.96],[-100.46,39.95],[-99.74,40.12],[-97.02,41.43],[-95.74,42.3],[-95.24,43.13],[-95.17,43.86],[-95.71,44.56],[-99.6,47.64],[-100.15,47.74],[-100.76,47.56],[-101.02,46.98],[-102.29,41.42]]]}}]}