{"type":"FeatureCollection","features":[{"type":"Feature","id":"geom_evt_20260426_central_plains_2026_04_26_fire_d1_hover","properties":{"event_id":"evt_20260426_central_plains_2026_04_26_fire","day_index":1,"geometry_role":"hover_geometry"},"geometry":{"type":"Polygon","coordinates":[[[-108.8,31.31],[-104.55,30.08],[-104.27,30.04],[-103.75,30.16],[-103.33,30.38],[-100.69,32.73],[-100.17,33.49],[-100.29,34.03],[-100.59,34.51],[-102.2,37.05],[-102.88,37.77],[-103.85,38.01],[-104.33,37.88],[-104.73,37.35],[-108.72,31.8],[-108.8,31.31]]]}},{"type":"Feature","id":"geom_evt_20260427_central_plains_2026_04_27_fire_d1_hover","properties":{"event_id":"evt_20260426_central_plains_2026_04_26_fire","day_index":2,"geometry_role":"hover_geometry"},"geometry":{"type":"Polygon","coordinates":[[[-105.63,32.91],[-105.48,32.35],[-104.24,30.65],[-104.04,30.66],[-100.2,34.1],[-99.62,34.63],[-99.67,34.98],[-100.1,35.09],[-104.19,35.76],[-105.16,35.6],[-105.42,35.34],[-105.61,34.75],[-105.63,32.91]]]}},{"type":"Feature","id":"geom_evt_20260428_central_plains_2026_04_28_fire_d1_hover","properties":{"event_id":"evt_20260426_central_plains_2026_04_26_fire","day_index":3,"geometry_role":"hover_geometry"},"geometry":{"type":"Polygon","coordinates":[[[-105.9,35.32],[-105.81,33.59],[-105.73,32.69],[-105.45,32.06],[-104.36,30.81],[-104.14,30.75],[-101.51,31.67],[-101.05,32.13],[-100.85,32.54],[-101.27,34.45],[-101.34,34.74],[-101.77,35.03],[-102.25,35.18],[-103.35,35.49],[-105.01,35.63],[-105.57,35.55],[-105.9,35.32]]]}},{"type":"Feature","id":"geom_evt_20260417_southern_plains_2026_04_17_severe_d1_hover","properties":{"event_id":"evt_20260417_southern_plains_2026_04_17_severe","day_index":1,"geometry_role":"hover_geometry"},"geometry":{"type":"Polygon","coordinates":[[[-99.02,36.53],[-98.89,36.28],[-98.58,36.23],[-98.31,36.3],[-93.27,38.35],[-93.11,39.05],[-93.28,39.4],[-93.91,39.65],[-95.38,39.28],[-97.34,38.1],[-98.03,37.6],[-98.87,36.95],[-99.02,36.53]]]}},{"type":"Feature","id":"geom_evt_20260423_southern_plains_2026_04_23_severe_d1_hover","properties":{"event_id":"evt_20260423_southern_plains_2026_04_23_severe","day_index":1,"geometry_role":"hover_geometry"},"geometry":{"type":"Polygon","coordinates":[[[-98.02,36.44],[-97.64,35.9],[-96.77,35.73],[-95.74,35.71],[-95.31,37.97],[-95.3,39.62],[-95.54,39.84],[-95.91,39.99],[-96.37,39.95],[-96.85,39.69],[-97.46,38.56],[-98.02,36.44]]]}},{"type":"Feature","id":"geom_evt_20260424_southern_plains_2026_04_24_severe_d1_hover","properties":{"event_id":"evt_20260423_southern_plains_2026_04_23_severe","day_index":2,"geometry_role":"hover_geometry"},"geometry":{"type":"Polygon","coordinates":[[[-96.89,34.12],[-96.26,32.96],[-95.81,32.44],[-95.27,32.14],[-94.68,32.04],[-94.1,32.18],[-93.63,32.38],[-93.31,32.75],[-93.25,33.25],[-93.51,33.75],[-95.01,34.65],[-95.88,34.73],[-96.73,34.58],[-96.89,34.12]]]}},{"type":"Feature","id":"geom_evt_20260425_southern_plains_2026_04_25_severe_d1_hover","properties":{"event_id":"evt_20260423_southern_plains_2026_04_23_severe","day_index":3,"geometry_role":"hover_geometry"},"geometry":{"type":"Polygon","coordinates":[[[-97.24,34.59],[-97.03,34.2],[-96.15,33.74],[-95.49,33.67],[-95.09,33.81],[-94.73,34.31],[-94.78,34.6],[-95.25,35.23],[-95.69,35.72],[-95.9,35.78],[-96.35,35.73],[-96.96,35.46],[-97.23,35.16],[-97.24,34.59]]]}},{"type":"Feature","id":"geom_evt_20260426_southern_plains_2026_04_26_severe_d1_hover","properties":{"event_id":"evt_20260423_southern_plains_2026_04_23_severe","day_index":4,"geometry_role":"hover_geometry"},"geometry":{"type":"Polygon","coordinates":[[[-99.84,38.87],[-99.32,36.51],[-98.99,36.15],[-98.35,36.06],[-97.44,36.12],[-96.41,36.32],[-96.08,36.5],[-95.05,37.45],[-94.55,38.03],[-94.22,38.66],[-94.15,39.45],[-94.6,39.78],[-95.26,40.02],[-97.23,39.95],[-98.6,39.6],[-99.47,39.26],[-99.84,38.87]]]}},{"type":"Feature","id":"geom_evt_20260427_southern_plains_2026_04_27_severe_d1_hover","properties":{"event_id":"evt_20260423_southern_plains_2026_04_23_severe","day_index":5,"geometry_role":"hover_geometry"},"geometry":{"type":"Polygon","coordinates":[[[-92.36,37.29],[-91.88,36.89],[-89.54,36.23],[-88.83,36.66],[-88.36,37.86],[-88.7,39.42],[-89.46,39.75],[-90.22,39.51],[-92.11,38.33],[-92.36,37.29]]]}},{"type":"Feature","id":"geom_evt_20260428_southern_plains_2026_04_28_severe_d1_hover","properties":{"event_id":"evt_20260423_southern_plains_2026_04_23_severe","day_index":6,"geometry_role":"hover_geometry"},"geometry":{"type":"Polygon","coordinates":[[[-98.13,33.29],[-98.11,32.94],[-98.03,32.85],[-97.7,32.55],[-97.03,32.23],[-95.95,32.39],[-95.75,33.27],[-96,33.77],[-97.21,33.82],[-97.46,33.82],[-98.13,33.29]]]}},{"type":"Feature","id":"geom_evt_20260402_central_plains_2026_04_02_fire_d1_hover","properties":{"event_id":"evt_20260402_central_plains_2026_04_02_fire","day_index":1,"geometry_role":"hover_geometry"},"geometry":{"type":"Polygon","coordinates":[[[-104.79,35.4],[-104.62,34.81],[-104.4,34.27],[-103.61,34.05],[-103.01,34.18],[-102.6,34.37],[-102.21,34.84],[-101.78,35.48],[-101.47,36.21],[-101.45,36.63],[-101.53,37.23],[-102.1,38.04],[-103.19,38.83],[-103.54,38.87],[-103.94,38.72],[-104.17,38.49],[-104.32,38.24],[-104.79,35.4]]]}},{"type":"Feature","id":"geom_evt_20260403_central_plains_2026_04_03_fire_d1_hover","properties":{"event_id":"evt_20260402_central_plains_2026_04_02_fire","day_index":2,"geometry_role":"hover_geometry"},"geometry":{"type":"Polygon","coordinates":[[[-106.24,34.8],[-105.7,34.43],[-105.06,34.16],[-104.22,34.1],[-103.08,34.43],[-102.72,34.74],[-100.36,38.37],[-100.35,39.2],[-100.55,39.64],[-101.15,39.86],[-103.25,40.45],[-103.93,40.42],[-104.21,40.36],[-104.5,40.19],[-104.74,39.99],[-104.81,39.86],[-106.24,34.8]]]}},{"type":"Feature","id":"geom_evt_20260406_central_plains_2026_04_06_fire_d1_hover","properties":{"event_id":"evt_20260406_central_plains_2026_04_06_fire","day_index":1,"geometry_role":"hover_geometry"},"geometry":{"type":"Polygon","coordinates":[[[-103.76,36.85],[-103.68,36.35],[-103.43,36.03],[-102.93,35.93],[-102.18,36.01],[-101.51,36.16],[-100.95,36.32],[-100.53,36.47],[-100.24,36.72],[-100.11,37.01],[-100.03,37.36],[-99.93,37.87],[-99.92,38.21],[-100.06,38.39],[-100.38,38.48],[-100.55,38.47],[-100.93,38.37],[-102.96,37.8],[-103.2,37.69],[-103.44,37.48],[-103.57,37.27],[-103.76,36.85]]]}},{"type":"Feature","id":"geom_evt_20260413_central_plains_2026_04_13_fire_d1_hover","properties":{"event_id":"evt_20260413_central_plains_2026_04_13_fire","day_index":1,"geometry_role":"hover_geometry"},"geometry":{"type":"Polygon","coordinates":[[[-105.84,43.14],[-105.21,38.28],[-104.38,36.23],[-104.06,35.93],[-103.49,35.69],[-100.19,35.53],[-99.85,35.75],[-99.41,36.17],[-99.26,36.55],[-98.82,37.68],[-98.82,38.05],[-99.08,42.93],[-99.47,43.54],[-100.47,44.04],[-101.21,44.19],[-101.82,44.17],[-102.81,43.99],[-105.72,43.34],[-105.84,43.14]]]}},{"type":"Feature","id":"geom_evt_20260414_central_plains_2026_04_14_fire_d1_hover","properties":{"event_id":"evt_20260413_central_plains_2026_04_13_fire","day_index":2,"geometry_role":"hover_geometry"},"geometry":{"type":"Polygon","coordinates":[[[-104.46,38.09],[-104.41,37.77],[-104.25,37.21],[-103.88,36.57],[-103.23,36.02],[-102.21,36.17],[-101.88,36.36],[-101.43,36.74],[-100.84,37.51],[-100.92,38.01],[-101.17,38.37],[-101.65,38.67],[-102.6,38.92],[-103.14,38.94],[-103.62,38.89],[-104.08,38.66],[-104.46,38.45],[-104.46,38.09]]]}},{"type":"Feature","id":"geom_evt_20260416_central_plains_2026_04_16_fire_d1_hover","properties":{"event_id":"evt_20260416_central_plains_2026_04_16_fire","day_index":1,"geometry_role":"hover_geometry"},"geometry":{"type":"Polygon","coordinates":[[[-106.24,33.98],[-106.13,33.81],[-105.81,33.79],[-102.52,33.74],[-101.5,33.93],[-100.98,34.16],[-100.33,35.07],[-99.54,36.45],[-99.48,36.72],[-99.47,36.88],[-99.6,37.1],[-102.73,39.82],[-103.15,40.09],[-103.91,39.99],[-104.47,39.62],[-104.88,39.24],[-105.26,38.84],[-105.35,38.48],[-106.24,33.98]]]}},{"type":"Feature","id":"geom_evt_20260417_central_plains_2026_04_17_fire_d1_hover","properties":{"event_id":"evt_20260416_central_plains_2026_04_16_fire","day_index":2,"geometry_role":"hover_geometry"},"geometry":{"type":"Polygon","coordinates":[[[-107.58,32.52],[-107.18,32.01],[-105.71,31.57],[-103.91,31.33],[-102.88,31.68],[-101.58,32.32],[-100.61,33.51],[-100.11,34.37],[-99.95,34.74],[-99.61,35.56],[-99.45,36.1],[-99.46,36.39],[-99.54,36.5],[-99.69,36.57],[-103.51,37.01],[-104.11,36.84],[-104.57,36.46],[-107.33,33.46],[-107.58,32.52]]]}},{"type":"Feature","id":"geom_evt_20260419_central_plains_2026_04_19_fire_d1_hover","properties":{"event_id":"evt_20260419_central_plains_2026_04_19_fire","day_index":1,"geometry_role":"hover_geometry"},"geometry":{"type":"Polygon","coordinates":[[[-104.83,36.13],[-104.79,35.71],[-104.37,35.45],[-101.86,35.32],[-101,35.34],[-100.31,35.58],[-99.58,36.5],[-99.26,37.16],[-99.14,37.98],[-99.45,38.46],[-99.96,38.57],[-100.6,38.55],[-101.56,38.27],[-102.81,37.62],[-103.83,37.06],[-104.45,36.68],[-104.83,36.13]]]}},{"type":"Feature","id":"geom_evt_20260423_central_plains_2026_04_23_fire_d1_hover","properties":{"event_id":"evt_20260423_central_plains_2026_04_23_fire","day_index":1,"geometry_role":"hover_geometry"},"geometry":{"type":"Polygon","coordinates":[[[-109.22,31.42],[-109.12,31.31],[-105.44,31.03],[-104.4,31.06],[-102.73,31.65],[-101.58,32.09],[-101,32.72],[-100.32,34.16],[-99.56,35.98],[-99.99,40.54],[-100.06,40.75],[-100.26,40.95],[-100.65,41.09],[-101.19,41.21],[-101.75,41.13],[-104.84,39.71],[-109.08,32.27],[-109.2,31.84],[-109.22,31.42]]]}},{"type":"Feature","id":"geom_evt_20260424_central_plains_2026_04_24_fire_d1_hover","properties":{"event_id":"evt_20260423_central_plains_2026_04_23_fire","day_index":2,"geometry_role":"hover_geometry"},"geometry":{"type":"Polygon","coordinates":[[[-106.41,37.54],[-106.21,37.16],[-105.75,37],[-105.24,37],[-104.62,37.09],[-102.28,38.65],[-102.15,38.96],[-102.11,39.31],[-102.19,39.63],[-103.62,41.19],[-104.15,41.37],[-104.87,41.42],[-105.17,41.3],[-106.15,38.79],[-106.41,38.06],[-106.41,37.54]]]}},{"type":"Feature","id":"geom_evt_20260407_southeast_2026_04_07_fire_d1_hover","properties":{"event_id":"evt_20260407_southeast_2026_04_07_fire","day_index":1,"geometry_role":"hover_geometry"},"geometry":{"type":"Polygon","coordinates":[[[-84.34,31.05],[-84.32,30.83],[-83.86,30.75],[-83.61,30.81],[-83.1,31.07],[-82.55,31.36],[-82.48,31.59],[-82.66,31.78],[-83.03,31.88],[-83.56,31.86],[-83.97,31.65],[-84.19,31.38],[-84.34,31.05]]]}},{"type":"Feature","id":"geom_evt_20260408_southeast_2026_04_08_fire_d1_hover","properties":{"event_id":"evt_20260407_southeast_2026_04_07_fire","day_index":2,"geometry_role":"hover_geometry"},"geometry":{"type":"Polygon","coordinates":[[[-83.59,31.87],[-83.44,31.62],[-83.16,31.59],[-82.58,31.72],[-82.02,32.01],[-81.53,32.47],[-80.74,33.36],[-80.64,33.63],[-80.77,33.88],[-81.07,34.02],[-81.38,33.99],[-81.74,33.71],[-83.47,32.13],[-83.59,31.87]]]}},{"type":"Feature","id":"geom_evt_20260421_southeast_2026_04_21_fire_d1_hover","properties":{"event_id":"evt_20260421_southeast_2026_04_21_fire","day_index":1,"geometry_role":"hover_geometry"},"geometry":{"type":"Polygon","coordinates":[[[-82.88,27.76],[-82.56,27.17],[-82.14,26.41],[-81.91,26.39],[-81.7,26.41],[-81.43,26.56],[-81.31,27.15],[-81.42,28.1],[-81.72,28.48],[-82.22,28.62],[-82.56,28.56],[-82.8,28.47],[-82.88,27.76]]]}},{"type":"Feature","id":"geom_evt_20260418_northern_plains_2026_04_18_fire_d1_hover","properties":{"event_id":"evt_20260418_northern_plains_2026_04_18_fire","day_index":1,"geometry_role":"hover_geometry"},"geometry":{"type":"Polygon","coordinates":[[[-103.34,42.55],[-103.3,42.14],[-101.85,39.98],[-101.06,39.43],[-100.22,39.16],[-99.72,39.13],[-99.28,39.51],[-98.92,39.95],[-98.62,40.63],[-98.4,41.58],[-98.37,41.99],[-98.51,42.22],[-98.94,42.46],[-99.68,42.72],[-102.46,42.97],[-102.91,42.87],[-103.34,42.55]]]}},{"type":"Feature","id":"geom_evt_20260422_northern_plains_2026_04_22_fire_d1_hover","properties":{"event_id":"evt_20260422_northern_plains_2026_04_22_fire","day_index":1,"geometry_role":"hover_geometry"},"geometry":{"type":"Polygon","coordinates":[[[-106.76,43.82],[-106.72,35.8],[-106.66,35.19],[-105.87,34.18],[-105.29,33.98],[-103.01,34.07],[-102.02,34.29],[-101.51,34.84],[-99.05,43.4],[-99,44.22],[-99.21,44.78],[-99.94,45.43],[-100.38,45.54],[-104.2,45.92],[-104.62,45.92],[-105.43,45.63],[-106.4,45.04],[-106.75,44.42],[-106.76,43.82]]]}},{"type":"Feature","id":"geom_evt_20260402_mid_atlantic_2026_04_02_winter_d1_hover","properties":{"event_id":"evt_20260402_mid_atlantic_2026_04_02_winter","day_index":1,"geometry_role":"hover_geometry"},"geometry":{"type":"Polygon","coordinates":[[[-90.42,46.56],[-90.32,44.69],[-89.72,44.25],[-89.53,44.24],[-88.74,44.24],[-83.32,44.86],[-83.19,45.03],[-83.19,45.04],[-83.47,45.99],[-83.48,46],[-83.58,46.09],[-84.13,46.53],[-88.43,48.19],[-88.44,48.19],[-88.57,48.17],[-88.61,48.16],[-88.64,48.15],[-89.18,47.94],[-89.21,47.92],[-89.25,47.88],[-90.42,46.57],[-90.42,46.56]]]}},{"type":"Feature","id":"geom_evt_20260404_mid_atlantic_2026_04_04_winter_d1_hover","properties":{"event_id":"evt_20260404_mid_atlantic_2026_04_04_winter","day_index":1,"geometry_role":"hover_geometry"},"geometry":{"type":"Polygon","coordinates":[[[-90.42,46.56],[-90.04,45.12],[-89.22,45.03],[-88.98,45.03],[-87.59,45.09],[-83.56,45.91],[-83.52,45.92],[-83.51,45.93],[-83.47,45.98],[-83.47,45.99],[-83.48,46],[-83.58,46.09],[-84.13,46.53],[-88.43,48.19],[-88.44,48.19],[-88.57,48.17],[-88.61,48.16],[-88.64,48.15],[-89.18,47.94],[-89.21,47.92],[-89.25,47.88],[-90.42,46.57],[-90.42,46.56]]]}},{"type":"Feature","id":"geom_evt_20260402_desert_southwest_2026_04_02_winter_d1_hover","properties":{"event_id":"evt_20260402_desert_southwest_2026_04_02_winter","day_index":1,"geometry_role":"hover_geometry"},"geometry":{"type":"Polygon","coordinates":[[[-116.34,45.26],[-116.3,45.11],[-113.45,44.98],[-113.41,44.98],[-113.32,44.99],[-112.85,45.13],[-111.75,46.09],[-111.74,46.1],[-111.62,46.25],[-111.61,46.3],[-111.61,46.32],[-111.66,46.42],[-111.67,46.44],[-112.68,48.07],[-112.76,48.13],[-112.99,48.13],[-114.02,47.6],[-115.63,46.47],[-115.64,46.46],[-115.73,46.37],[-116.22,45.87],[-116.34,45.26]]]}},{"type":"Feature","id":"geom_evt_20260402_northern_rockies_2026_04_02_winter_d1_hover","properties":{"event_id":"evt_20260402_northern_rockies_2026_04_02_winter","day_index":1,"geometry_role":"hover_geometry"},"geometry":{"type":"Polygon","coordinates":[[[-112.31,44.8],[-112.23,44.55],[-110.9,41.85],[-110.86,41.83],[-110.63,41.82],[-108.87,42.37],[-108.68,42.44],[-108.53,42.53],[-108.52,42.54],[-108.31,47.31],[-108.31,47.58],[-108.32,47.59],[-108.97,47.8],[-109.09,47.8],[-111.67,47.7],[-111.92,47.61],[-112.05,47.52],[-112.31,44.8]]]}},{"type":"Feature","id":"geom_evt_20260403_northern_rockies_2026_04_03_winter_d1_hover","properties":{"event_id":"evt_20260402_northern_rockies_2026_04_02_winter","day_index":2,"geometry_role":"hover_geometry"},"geometry":{"type":"Polygon","coordinates":[[[-108.93,46.03],[-108.91,45.7],[-108.71,45.25],[-108.66,45.16],[-107.6,43.48],[-107.3,43.24],[-107.24,43.22],[-107.2,43.21],[-107.1,43.21],[-106.84,43.43],[-105.04,45],[-104.61,46.66],[-104.6,46.83],[-104.6,46.86],[-105.32,47.18],[-106.09,47.18],[-107.89,46.85],[-108.92,46.13],[-108.93,46.08],[-108.93,46.03]]]}},{"type":"Feature","id":"geom_evt_20260416_northern_rockies_2026_04_16_winter_d1_hover","properties":{"event_id":"evt_20260416_northern_rockies_2026_04_16_winter","day_index":1,"geometry_role":"hover_geometry"},"geometry":{"type":"Polygon","coordinates":[[[-112.31,44.8],[-112.23,44.55],[-111.01,43.2],[-111,43.19],[-109.11,42.41],[-108.95,42.37],[-108.87,42.37],[-108.68,42.44],[-108.53,42.53],[-108.52,42.54],[-108.52,42.55],[-108.82,43.85],[-109.22,45.11],[-109.29,45.19],[-109.87,45.61],[-111.18,46.02],[-112.13,45.77],[-112.23,45.57],[-112.31,44.8]]]}},{"type":"Feature","id":"geom_evt_20260423_northern_rockies_2026_04_23_winter_d1_hover","properties":{"event_id":"evt_20260423_northern_rockies_2026_04_23_winter","day_index":1,"geometry_role":"hover_geometry"},"geometry":{"type":"Polygon","coordinates":[[[-112.31,44.8],[-112.23,44.55],[-112.22,44.54],[-112.19,44.53],[-112.11,44.52],[-111.83,44.51],[-111.12,44.49],[-111.09,44.49],[-109.24,45.01],[-109.22,45.03],[-108.31,47.31],[-108.31,47.58],[-108.32,47.59],[-108.97,47.8],[-109.09,47.8],[-109.28,47.79],[-109.83,47.72],[-110.63,47.57],[-110.75,47.54],[-111.9,46.93],[-111.91,46.92],[-111.92,46.9],[-112.23,45.57],[-112.31,44.8]]]}},{"type":"Feature","id":"geom_evt_20260401_northern_california_2026_04_01_winter_d1_hover","properties":{"event_id":"evt_20260401_northern_california_2026_04_01_winter","day_index":1,"geometry_role":"hover_geometry"},"geometry":{"type":"Polygon","coordinates":[[[-123.48,42],[-122.63,42],[-122.15,42.01],[-121.03,43.62],[-121.04,43.7],[-121.34,45.36],[-121.35,45.4],[-121.41,45.53],[-121.42,45.55],[-121.44,45.56],[-122.53,44.94],[-122.57,44.85],[-123.11,43.54],[-123.48,42.07],[-123.48,42]]]}},{"type":"Feature","id":"geom_evt_20260411_northern_california_2026_04_11_winter_d1_hover","properties":{"event_id":"evt_20260411_northern_california_2026_04_11_winter","day_index":1,"geometry_role":"hover_geometry"},"geometry":{"type":"Polygon","coordinates":[[[-121.92,40.48],[-121.7,40.02],[-120.3,38.07],[-120.08,37.83],[-120.07,37.82],[-120.05,37.81],[-119.94,37.76],[-118.86,37.48],[-118.78,37.46],[-117.93,37.46],[-117.84,37.47],[-120,41.18],[-121.33,41.18],[-121.89,40.88],[-121.91,40.71],[-121.92,40.48]]]}},{"type":"Feature","id":"geom_evt_20260421_northern_california_2026_04_21_winter_d1_hover","properties":{"event_id":"evt_20260421_northern_california_2026_04_21_winter","day_index":1,"geometry_role":"hover_geometry"},"geometry":{"type":"Polygon","coordinates":[[[-121.84,40.28],[-121.78,39.99],[-121.73,39.93],[-120.14,38.03],[-120.13,38.02],[-120.1,38],[-119.98,37.94],[-118.86,37.48],[-118.78,37.46],[-117.93,37.46],[-117.84,37.47],[-119.83,39.45],[-121.06,40.45],[-121.27,40.59],[-121.37,40.59],[-121.54,40.57],[-121.81,40.44],[-121.82,40.43],[-121.84,40.29],[-121.84,40.28]]]}},{"type":"Feature","id":"geom_evt_20260402_upper_midwest_2026_04_02_winter_d1_hover","properties":{"event_id":"evt_20260402_upper_midwest_2026_04_02_winter","day_index":1,"geometry_role":"hover_geometry"},"geometry":{"type":"Polygon","coordinates":[[[-95.18,47.33],[-95.16,46.37],[-92.62,44.61],[-92.55,44.57],[-92.23,44.44],[-92.2,44.43],[-92.11,44.41],[-90.32,44.25],[-89.72,44.25],[-89.48,48.01],[-92.95,48.63],[-94.28,48.71],[-94.42,48.71],[-94.43,48.7],[-95.18,47.41],[-95.18,47.33]]]}},{"type":"Feature","id":"geom_evt_20260403_upper_midwest_2026_04_03_winter_d1_hover","properties":{"event_id":"evt_20260402_upper_midwest_2026_04_02_winter","day_index":2,"geometry_role":"hover_geometry"},"geometry":{"type":"Polygon","coordinates":[[[-100.12,47.01],[-100.08,46.63],[-99.71,45.25],[-99.57,44.9],[-98.71,44.63],[-97.98,44.63],[-90.04,45.38],[-89.48,48.01],[-94.95,49.37],[-95.14,49.38],[-95.15,49.38],[-97.95,49],[-99.85,48.37],[-100.07,47.85],[-100.11,47.33],[-100.12,47.02],[-100.12,47.01]]]}},{"type":"Feature","id":"geom_evt_20260403_northern_plains_2026_04_03_winter_d1_hover","properties":{"event_id":"evt_20260403_northern_plains_2026_04_03_winter","day_index":1,"geometry_role":"hover_geometry"},"geometry":{"type":"Polygon","coordinates":[[[-105.41,47.18],[-105.08,44.18],[-104.06,43.91],[-103.91,43.91],[-103.75,43.92],[-99.57,44.9],[-99.57,45.25],[-100.03,47.67],[-100.07,47.85],[-102.39,47.85],[-105.36,47.79],[-105.41,47.53],[-105.41,47.18]]]}},{"type":"Feature","id":"geom_evt_20260411_southern_california_2026_04_11_winter_d1_hover","properties":{"event_id":"evt_20260411_southern_california_2026_04_11_winter","day_index":1,"geometry_role":"hover_geometry"},"geometry":{"type":"Polygon","coordinates":[[[-119.89,37.98],[-119.88,37.89],[-119.87,37.78],[-119.85,37.74],[-118.65,35.62],[-118.64,35.61],[-118.63,35.61],[-118.62,35.6],[-118.19,35.54],[-118.11,35.54],[-118.06,35.54],[-118.03,35.56],[-118.02,35.58],[-117.98,35.87],[-117.98,35.93],[-117.99,35.94],[-118.1,36.35],[-118.44,37.06],[-118.76,37.46],[-119.33,38.07],[-119.35,38.08],[-119.35,38.09],[-119.5,38.16],[-119.59,38.18],[-119.59,38.18],[-119.59,38.18],[-119.59,38.18],[-119.59,38.18],[-119.83,38.09],[-119.83,38.09],[-119.84,38.09],[-119.84,38.08],[-119.86,38.07],[-119.87,38.06],[-119.87,38.05],[-119.87,38.05],[-119.88,38.03],[-119.88,38.03],[-119.89,37.98],[-119.89,37.98]]]}},{"type":"Feature","id":"geom_evt_20260421_southern_california_2026_04_21_winter_d1_hover","properties":{"event_id":"evt_20260421_southern_california_2026_04_21_winter","day_index":1,"geometry_role":"hover_geometry"},"geometry":{"type":"Polygon","coordinates":[[[-119.89,37.98],[-119.88,37.89],[-119.87,37.78],[-119.85,37.74],[-118.82,36.04],[-118.41,36.34],[-118.41,36.34],[-118.26,36.48],[-118.24,36.49],[-118.24,36.49],[-118.24,36.51],[-118.24,36.52],[-118.37,36.91],[-118.44,37.06],[-118.76,37.46],[-119.33,38.07],[-119.35,38.08],[-119.35,38.09],[-119.5,38.16],[-119.59,38.18],[-119.59,38.18],[-119.59,38.18],[-119.59,38.18],[-119.59,38.18],[-119.83,38.09],[-119.83,38.09],[-119.84,38.09],[-119.84,38.08],[-119.86,38.07],[-119.87,38.06],[-119.87,38.05],[-119.87,38.05],[-119.88,38.03],[-119.88,38.03],[-119.89,37.98],[-119.89,37.98]]]}},{"type":"Feature","id":"geom_evt_20260413_pacific_northwest_2026_04_13_winter_d1_hover","properties":{"event_id":"evt_20260413_pacific_northwest_2026_04_13_winter","day_index":1,"geometry_role":"hover_geometry"},"geometry":{"type":"Polygon","coordinates":[[[-153,62.73],[-141.83,61.9],[-141,61.9],[-141,63.02],[-141.32,63.18],[-143.53,63.92],[-145.72,64.3],[-146.23,64.32],[-148,64.35],[-149.13,64.36],[-150.73,64.36],[-152.06,64],[-152.87,63.65],[-153,62.73]]]}},{"type":"Feature","id":"geom_evt_20260419_pacific_northwest_2026_04_19_winter_d1_hover","properties":{"event_id":"evt_20260419_pacific_northwest_2026_04_19_winter","day_index":1,"geometry_role":"hover_geometry"},"geometry":{"type":"Polygon","coordinates":[[[-171.85,63.49],[-171.84,63.47],[-171.82,63.43],[-171.8,63.41],[-171.76,63.38],[-171.74,63.37],[-171.68,63.35],[-171.56,63.32],[-169.73,62.95],[-169.66,62.94],[-169.63,62.94],[-143.34,63.12],[-143.1,63.2],[-149,67.17],[-150.51,67.13],[-171.69,63.79],[-171.74,63.78],[-171.84,63.56],[-171.85,63.51],[-171.85,63.49]]]}},{"type":"Feature","id":"geom_evt_20260422_pacific_northwest_2026_04_22_winter_d1_hover","properties":{"event_id":"evt_20260422_pacific_northwest_2026_04_22_winter","day_index":1,"geometry_role":"hover_geometry"},"geometry":{"type":"Polygon","coordinates":[[[-171.85,63.49],[-171.84,63.47],[-171.82,63.43],[-171.8,63.41],[-171.76,63.38],[-171.74,63.37],[-165.14,60.92],[-165.12,60.92],[-164.53,60.94],[-164.41,60.95],[-164.3,60.97],[-161.11,61.6],[-160.2,61.81],[-160.19,61.82],[-158.72,66.13],[-158.72,66.28],[-159.5,66.77],[-159.92,67.03],[-162.3,67.18],[-163.38,67.07],[-168.94,65.77],[-171.74,63.78],[-171.84,63.56],[-171.85,63.51],[-171.85,63.49]]]}},{"type":"Feature","id":"geom_evt_20260430_southwest_2026_04_30_winter_d1_hover","properties":{"event_id":"evt_20260430_southwest_2026_04_30_winter","day_index":1,"geometry_role":"hover_geometry"},"geometry":{"type":"Polygon","coordinates":[[[-106.1,38.43],[-105.9,35.67],[-105.89,35.64],[-105.87,35.61],[-105.54,35.48],[-105.38,35.43],[-105.37,35.43],[-104.89,35.88],[-104.88,35.89],[-104.83,35.99],[-104.77,36.64],[-104.77,36.65],[-104.85,38.74],[-104.91,39.08],[-104.92,39.13],[-105.33,39.13],[-106.09,38.48],[-106.1,38.46],[-106.1,38.43]]]}},{"type":"Feature","id":"geom_evt_20260401_southern_plains_2026_04_01_severe_d1_hover","properties":{"event_id":"evt_20260401_southern_plains_2026_04_01_severe","day_index":1,"geometry_role":"hover_geometry"},"geometry":{"type":"Polygon","coordinates":[[[-99.85,33.9],[-99.55,33.24],[-98.96,33.15],[-98.43,33.32],[-98.24,33.51],[-95.65,37.03],[-95.53,37.55],[-96.18,38.02],[-97.97,37.74],[-98.67,37.12],[-99.31,36.02],[-99.65,35.04],[-99.85,33.9]]]}},{"type":"Feature","id":"geom_evt_20260414_southern_plains_2026_04_14_severe_d1_hover","properties":{"event_id":"evt_20260414_southern_plains_2026_04_14_severe","day_index":1,"geometry_role":"hover_geometry"},"geometry":{"type":"Polygon","coordinates":[[[-100.03,33.98],[-99.59,33.8],[-98.88,33.83],[-98.36,34.07],[-83.59,41.52],[-83.09,41.94],[-82.77,42.35],[-82.61,42.59],[-84.7,43.43],[-88.35,44.12],[-89.24,44.11],[-93.94,42.84],[-100,34.55],[-100.03,33.98]]]}},{"type":"Feature","id":"geom_evt_20260402_upper_midwest_2026_04_02_severe_d1_hover","properties":{"event_id":"evt_20260402_upper_midwest_2026_04_02_severe","day_index":1,"geometry_role":"hover_geometry"},"geometry":{"type":"Polygon","coordinates":[[[-92.81,41.29],[-92.66,40.82],[-92.08,40.59],[-90.57,40.22],[-89.64,40.12],[-87.95,40.93],[-87.57,41.75],[-87.81,42.67],[-87.9,42.97],[-88.89,43.26],[-89.97,43.1],[-90.9,42.8],[-92.33,41.82],[-92.81,41.29]]]}},{"type":"Feature","id":"geom_evt_20260403_upper_midwest_2026_04_03_severe_d1_hover","properties":{"event_id":"evt_20260402_upper_midwest_2026_04_02_severe","day_index":2,"geometry_role":"hover_geometry"},"geometry":{"type":"Polygon","coordinates":[[[-94.93,39.74],[-94.51,39.41],[-93.41,39.22],[-93.01,39.23],[-91.92,39.44],[-91.19,39.71],[-90.69,40.29],[-90.61,40.76],[-90.84,41.17],[-92.26,41.64],[-93.45,41.57],[-94.33,41.37],[-94.66,41.19],[-94.87,40.89],[-94.93,39.74]]]}},{"type":"Feature","id":"geom_evt_20260413_upper_midwest_2026_04_13_severe_d1_hover","properties":{"event_id":"evt_20260413_upper_midwest_2026_04_13_severe","day_index":1,"geometry_role":"hover_geometry"},"geometry":{"type":"Polygon","coordinates":[[[-95.65,43.59],[-93.72,43.19],[-88.7,43.42],[-88.34,43.75],[-88.08,44.14],[-87.97,44.61],[-89.14,44.99],[-89.99,45.14],[-93.54,44.97],[-94.85,44.68],[-95.51,44.28],[-95.65,43.59]]]}},{"type":"Feature","id":"geom_evt_20260409_southern_plains_2026_04_09_severe_d1_hover","properties":{"event_id":"evt_20260409_southern_plains_2026_04_09_severe","day_index":1,"geometry_role":"hover_geometry"},"geometry":{"type":"Polygon","coordinates":[[[-100.27,38.4],[-99.53,38.1],[-98.7,38.14],[-96.82,38.61],[-95.57,39.08],[-94.79,39.47],[-94.57,40.16],[-95.75,40.51],[-98.2,40.22],[-99.23,39.58],[-100.16,38.83],[-100.27,38.4]]]}},{"type":"Feature","id":"geom_evt_20260404_great_lakes_2026_04_04_severe_d1_hover","properties":{"event_id":"evt_20260404_great_lakes_2026_04_04_severe","day_index":1,"geometry_role":"hover_geometry"},"geometry":{"type":"Polygon","coordinates":[[[-85.24,39.87],[-84.75,39.49],[-82.54,39.78],[-79.75,40.93],[-78.79,41.42],[-78.03,42.04],[-77.07,43.62],[-78.6,43.66],[-82.86,42.96],[-83.96,42.59],[-84.88,41.57],[-85.24,39.87]]]}},{"type":"Feature","id":"geom_evt_20260418_great_lakes_2026_04_18_severe_d1_hover","properties":{"event_id":"evt_20260418_great_lakes_2026_04_18_severe","day_index":1,"geometry_role":"hover_geometry"},"geometry":{"type":"Polygon","coordinates":[[[-83.53,37.93],[-82.98,37.59],[-81.83,37.44],[-80.73,37.74],[-78.51,39.57],[-77.74,41.55],[-77.62,42.6],[-77.87,42.88],[-78.76,42.93],[-79.01,42.86],[-80.45,42.35],[-81.44,41.96],[-82.72,39.66],[-83.53,37.93]]]}},{"type":"Feature","id":"geom_evt_20260411_central_plains_2026_04_11_severe_d1_hover","properties":{"event_id":"evt_20260411_central_plains_2026_04_11_severe","day_index":1,"geometry_role":"hover_geometry"},"geometry":{"type":"Polygon","coordinates":[[[-104.31,29.49],[-104.17,29.39],[-103.39,29.01],[-103.09,28.97],[-100.83,29.24],[-100.58,29.57],[-100.33,30.2],[-100.58,31.67],[-101.39,33.04],[-102.18,33.5],[-103.34,33.37],[-103.99,32.98],[-104.29,31.34],[-104.31,29.49]]]}},{"type":"Feature","id":"geom_evt_20260412_gulf_coast_2026_04_12_severe_d1_hover","properties":{"event_id":"evt_20260412_gulf_coast_2026_04_12_severe","day_index":1,"geometry_role":"hover_geometry"},"geometry":{"type":"Polygon","coordinates":[[[-101.46,29.72],[-99.46,27.08],[-96.55,29.14],[-95.06,31.01],[-95.3,31.57],[-96.04,31.96],[-97.31,32.35],[-98.73,32.3],[-99.78,31.84],[-100.93,30.85],[-101.46,29.72]]]}},{"type":"Feature","id":"geom_evt_20260429_gulf_coast_2026_04_29_severe_d1_hover","properties":{"event_id":"evt_20260429_gulf_coast_2026_04_29_severe","day_index":1,"geometry_role":"hover_geometry"},"geometry":{"type":"Polygon","coordinates":[[[-102.34,30.16],[-102.16,29.78],[-100.34,28.41],[-87.18,30.96],[-86.71,31.37],[-86.74,32],[-87.7,32.29],[-93.23,33.52],[-94.42,33.61],[-96.15,33.37],[-101.96,31],[-102.34,30.62],[-102.34,30.16]]]}},{"type":"Feature","id":"geom_evt_20260415_mid_atlantic_2026_04_15_severe_d1_hover","properties":{"event_id":"evt_20260415_mid_atlantic_2026_04_15_severe","day_index":1,"geometry_role":"hover_geometry"},"geometry":{"type":"Polygon","coordinates":[[[-99.5,33.21],[-99.48,32.94],[-99,32.77],[-97.38,32.94],[-96.23,33.23],[-78.22,41.04],[-77.86,41.27],[-77.87,42.17],[-78.32,42.5],[-79.1,42.64],[-89.2,43.56],[-90.72,43.58],[-92.79,43.33],[-94.83,42.8],[-96.12,42.24],[-96.46,41.7],[-99.5,33.21]]]}},{"type":"Feature","id":"geom_evt_20260416_mid_atlantic_2026_04_16_severe_d1_hover","properties":{"event_id":"evt_20260415_mid_atlantic_2026_04_15_severe","day_index":2,"geometry_role":"hover_geometry"},"geometry":{"type":"Polygon","coordinates":[[[-93.96,35],[-93.12,34.68],[-92.3,34.58],[-90.39,35.12],[-72.61,42.93],[-72.24,43.37],[-72.14,43.79],[-74.65,44],[-76.01,43.98],[-78.43,43.21],[-91.97,37.05],[-93.43,36.31],[-93.94,35.51],[-93.96,35]]]}}]}