{"type":"FeatureCollection","features":[{"type":"Feature","id":"geom_evt_20260217_central_plains_2026_02_17_fire_d1_hover","properties":{"event_id":"evt_20260217_central_plains_2026_02_17_fire","day_index":1,"geometry_role":"hover_geometry"},"geometry":{"type":"Polygon","coordinates":[[[-104.98,39.99],[-104.89,39.33],[-104.65,38.79],[-102.39,34.42],[-101.88,33.48],[-101.66,33.2],[-101.28,32.87],[-100.75,32.6],[-100.15,32.83],[-99.25,33.68],[-98.85,34.79],[-98.82,34.88],[-98.53,35.92],[-98.02,40.51],[-98.01,40.76],[-98.13,41.27],[-98.2,41.48],[-98.55,42.09],[-99.07,42.63],[-99.7,43.14],[-100.29,43.43],[-101.04,43.52],[-101.83,43.49],[-102.3,43.4],[-102.7,43.27],[-103.07,43.1],[-103.62,42.83],[-104.23,42.11],[-104.55,41.67],[-104.85,40.82],[-104.98,39.99]]]}},{"type":"Feature","id":"geom_evt_20260207_northern_plains_2026_02_07_fire_d1_hover","properties":{"event_id":"evt_20260207_northern_plains_2026_02_07_fire","day_index":1,"geometry_role":"hover_geometry"},"geometry":{"type":"Polygon","coordinates":[[[-104.84,41.23],[-104.61,40.82],[-104.04,40.5],[-103.21,40.41],[-102.45,40.54],[-102.09,40.96],[-102.31,41.48],[-103.41,41.84],[-104.73,41.67],[-104.84,41.23]]]}},{"type":"Feature","id":"geom_evt_20260215_northern_plains_2026_02_15_fire_d1_hover","properties":{"event_id":"evt_20260215_northern_plains_2026_02_15_fire","day_index":1,"geometry_role":"hover_geometry"},"geometry":{"type":"Polygon","coordinates":[[[-103.9,42.52],[-103.86,42.16],[-103.33,41.89],[-102.41,41.64],[-101.59,41.67],[-100.69,41.86],[-100.23,42.16],[-100.04,42.62],[-100.26,42.84],[-100.73,43.07],[-101.58,43.06],[-102.36,43.05],[-102.74,42.99],[-103.36,42.82],[-103.9,42.52]]]}},{"type":"Feature","id":"geom_evt_20260209_central_plains_2026_02_09_fire_d1_hover","properties":{"event_id":"evt_20260209_central_plains_2026_02_09_fire","day_index":1,"geometry_role":"hover_geometry"},"geometry":{"type":"Polygon","coordinates":[[[-105.15,35.11],[-104.27,34.63],[-103.22,34.57],[-102.54,34.68],[-100.4,35.66],[-99.76,36.19],[-99.51,36.64],[-99.55,36.98],[-101.21,42.05],[-101.52,42.46],[-101.98,42.64],[-102.77,42.8],[-103.66,42.75],[-104.26,42.46],[-104.51,42],[-104.83,41.23],[-105.15,35.11]]]}},{"type":"Feature","id":"geom_evt_20260220_central_plains_2026_02_20_fire_d1_hover","properties":{"event_id":"evt_20260220_central_plains_2026_02_20_fire","day_index":1,"geometry_role":"hover_geometry"},"geometry":{"type":"Polygon","coordinates":[[[-105.49,30.94],[-104.5,29.95],[-104.21,29.94],[-103.5,30.12],[-101.26,32.43],[-101.62,36.6],[-101.89,36.87],[-102.44,37.13],[-103.11,37.05],[-103.86,36.58],[-104.27,36.25],[-104.57,35.73],[-105.49,30.94]]]}},{"type":"Feature","id":"geom_evt_20260224_central_plains_2026_02_24_fire_d1_hover","properties":{"event_id":"evt_20260224_central_plains_2026_02_24_fire","day_index":1,"geometry_role":"hover_geometry"},"geometry":{"type":"Polygon","coordinates":[[[-106,34.09],[-105.78,33.48],[-105.47,33.27],[-104.98,33.16],[-101.01,32.83],[-100.51,32.98],[-99.93,33.3],[-99.57,33.73],[-99.47,33.98],[-99.54,34.26],[-103.83,38.64],[-104.59,38.88],[-105.14,38.62],[-105.22,38.41],[-106,34.49],[-106,34.09]]]}},{"type":"Feature","id":"geom_evt_20260225_central_plains_2026_02_25_fire_d1_hover","properties":{"event_id":"evt_20260224_central_plains_2026_02_24_fire","day_index":2,"geometry_role":"hover_geometry"},"geometry":{"type":"Polygon","coordinates":[[[-105.23,33.83],[-105.02,33.28],[-104.73,32.96],[-104.13,32.41],[-103.29,32.08],[-102.74,32.4],[-102.66,33],[-102.88,33.76],[-103.36,34.4],[-103.82,34.75],[-104.5,34.9],[-105.1,34.6],[-105.23,33.83]]]}},{"type":"Feature","id":"geom_evt_20260218_southern_plains_2026_02_18_fire_d1_hover","properties":{"event_id":"evt_20260218_southern_plains_2026_02_18_fire","day_index":1,"geometry_role":"hover_geometry"},"geometry":{"type":"Polygon","coordinates":[[[-107.8,31.77],[-105.11,30.65],[-104.75,30.83],[-104.46,31.01],[-89.67,41.41],[-89.28,41.85],[-89.19,42.31],[-89.47,42.61],[-90.71,43.05],[-91.75,43.2],[-93.05,43.23],[-96.53,43.15],[-97.06,43.05],[-104.36,40.09],[-107.8,31.77]]]}},{"type":"Feature","id":"geom_evt_20260219_southern_plains_2026_02_19_fire_d1_hover","properties":{"event_id":"evt_20260218_southern_plains_2026_02_18_fire","day_index":2,"geometry_role":"hover_geometry"},"geometry":{"type":"Polygon","coordinates":[[[-103.95,37.17],[-103.83,35.95],[-103.77,35.53],[-103.46,35.05],[-103.08,34.63],[-102.72,34.32],[-101.27,33.88],[-99.93,33.61],[-99.41,33.54],[-98.23,33.49],[-97.56,33.65],[-96.73,34.16],[-93.04,37.07],[-92.68,37.41],[-92.58,37.84],[-92.8,38.03],[-93.26,38.1],[-103.69,37.94],[-103.86,37.78],[-103.92,37.46],[-103.95,37.17]]]}},{"type":"Feature","id":"geom_evt_20260223_southeast_2026_02_23_fire_d1_hover","properties":{"event_id":"evt_20260223_southeast_2026_02_23_fire","day_index":1,"geometry_role":"hover_geometry"},"geometry":{"type":"Polygon","coordinates":[[[-82.02,26.97],[-81.67,26.32],[-80.52,25.17],[-80.29,25.31],[-80.16,25.59],[-80.21,26.86],[-80.39,27.15],[-80.95,27.23],[-81.28,27.26],[-81.7,27.12],[-82.02,26.97]]]}},{"type":"Feature","id":"geom_evt_20260215_northern_california_2026_02_15_winter_d1_hover","properties":{"event_id":"evt_20260215_northern_california_2026_02_15_winter","day_index":1,"geometry_role":"hover_geometry"},"geometry":{"type":"Polygon","coordinates":[[[-123.72,41.59],[-123.54,39.98],[-122.94,39.98],[-121.45,41.18],[-121.45,41.73],[-122.15,42.01],[-123.19,42.01],[-123.52,42],[-123.64,41.89],[-123.65,41.88],[-123.7,41.83],[-123.72,41.61],[-123.72,41.59]]]}},{"type":"Feature","id":"geom_evt_20260216_northern_california_2026_02_16_winter_d1_hover","properties":{"event_id":"evt_20260215_northern_california_2026_02_15_winter","day_index":2,"geometry_role":"hover_geometry"},"geometry":{"type":"Polygon","coordinates":[[[-123.72,41.59],[-123.66,41.38],[-122.78,39.32],[-122.76,39.28],[-122.41,38.96],[-122.38,38.94],[-120.34,37.73],[-118.78,37.46],[-117.93,37.46],[-117.84,37.47],[-120,41.18],[-122.15,42.01],[-123.19,42.01],[-123.52,42],[-123.64,41.89],[-123.65,41.88],[-123.7,41.83],[-123.72,41.61],[-123.72,41.59]]]}},{"type":"Feature","id":"geom_evt_20260217_northern_california_2026_02_17_winter_d1_hover","properties":{"event_id":"evt_20260215_northern_california_2026_02_15_winter","day_index":3,"geometry_role":"hover_geometry"},"geometry":{"type":"Polygon","coordinates":[[[-124.27,42.42],[-124.14,40.63],[-124.08,40.34],[-124.07,40.31],[-123.91,40.01],[-123.69,39.64],[-123.49,39.34],[-122.95,38.9],[-122.7,38.71],[-122.63,38.67],[-119.33,38.54],[-119.26,39.62],[-119.38,39.81],[-119.76,40.19],[-123.25,42.72],[-123.27,42.73],[-123.78,42.8],[-123.79,42.8],[-123.85,42.79],[-124.25,42.71],[-124.26,42.64],[-124.27,42.46],[-124.27,42.42]]]}},{"type":"Feature","id":"geom_evt_20260206_mid_atlantic_2026_02_06_winter_d1_hover","properties":{"event_id":"evt_20260206_mid_atlantic_2026_02_06_winter","day_index":1,"geometry_role":"hover_geometry"},"geometry":{"type":"Polygon","coordinates":[[[-81.23,38.26],[-80.8,37.87],[-80.73,37.81],[-80.67,37.76],[-79.8,38.26],[-79.5,38.53],[-79.32,38.84],[-79.28,38.91],[-79.36,38.97],[-79.82,39.12],[-79.83,39.12],[-80.24,39.11],[-80.3,39.1],[-81.23,38.26]]]}},{"type":"Feature","id":"geom_evt_20260218_mid_atlantic_2026_02_18_winter_d1_hover","properties":{"event_id":"evt_20260218_mid_atlantic_2026_02_18_winter","day_index":1,"geometry_role":"hover_geometry"},"geometry":{"type":"Polygon","coordinates":[[[-89.25,47.87],[-88.93,46.81],[-88.68,46.42],[-87.33,45.55],[-84.85,44.16],[-83.57,44.16],[-83.44,44.25],[-83.34,44.33],[-83.33,44.34],[-83.19,45.03],[-83.19,45.04],[-83.47,45.99],[-83.48,46],[-83.58,46.09],[-84.13,46.53],[-88.43,48.19],[-88.44,48.19],[-88.57,48.17],[-88.61,48.16],[-88.64,48.15],[-89.18,47.94],[-89.21,47.92],[-89.25,47.88],[-89.25,47.87]]]}},{"type":"Feature","id":"geom_evt_20260222_mid_atlantic_2026_02_22_winter_d1_hover","properties":{"event_id":"evt_20260222_mid_atlantic_2026_02_22_winter","day_index":1,"geometry_role":"hover_geometry"},"geometry":{"type":"Polygon","coordinates":[[[-82.2,37.96],[-82.11,37.75],[-82.08,37.7],[-81.83,37.51],[-81.79,37.5],[-81.3,37.41],[-76.42,36.96],[-76.41,36.96],[-75.95,37.09],[-75.91,37.11],[-75.89,37.12],[-75.8,37.19],[-75.24,38.02],[-75.2,38.08],[-75.19,38.1],[-75.17,38.14],[-75.08,38.33],[-75.06,38.38],[-75.05,38.41],[-75.05,38.54],[-75.06,38.64],[-75.07,38.71],[-75.08,38.77],[-75.09,38.79],[-75.31,38.95],[-75.75,39.14],[-76.62,39.24],[-80.59,39.17],[-81.16,39.04],[-81.46,38.94],[-81.49,38.93],[-81.53,38.9],[-81.9,38.4],[-82.19,37.98],[-82.2,37.96]]]}},{"type":"Feature","id":"geom_evt_20260216_southern_california_2026_02_16_winter_d1_hover","properties":{"event_id":"evt_20260216_southern_california_2026_02_16_winter","day_index":1,"geometry_role":"hover_geometry"},"geometry":{"type":"Polygon","coordinates":[[[-120.29,37.74],[-119.44,34.77],[-119.36,34.65],[-116.81,33.43],[-116.2,33.43],[-115.02,36.48],[-114.99,36.64],[-115.02,36.85],[-115.14,37.26],[-115.89,38.05],[-117.69,38.47],[-117.7,38.47],[-119.59,38.18],[-119.59,38.18],[-119.83,38.09],[-119.83,38.09],[-119.84,38.09],[-119.84,38.08],[-120.28,37.74],[-120.29,37.74],[-120.29,37.74]]]}},{"type":"Feature","id":"geom_evt_20260218_southern_california_2026_02_18_winter_d1_hover","properties":{"event_id":"evt_20260218_southern_california_2026_02_18_winter","day_index":1,"geometry_role":"hover_geometry"},"geometry":{"type":"Polygon","coordinates":[[[-120.33,34.99],[-120.3,34.95],[-120.09,34.72],[-119.82,34.53],[-119.55,34.48],[-119.05,34.4],[-118.3,34.28],[-118.14,34.27],[-118.03,34.29],[-117.66,34.42],[-117.66,34.56],[-117.67,34.57],[-118.7,34.82],[-120.1,35.11],[-120.12,35.11],[-120.33,35.02],[-120.33,34.99]]]}},{"type":"Feature","id":"geom_evt_20260217_northern_rockies_2026_02_17_winter_d1_hover","properties":{"event_id":"evt_20260217_northern_rockies_2026_02_17_winter","day_index":1,"geometry_role":"hover_geometry"},"geometry":{"type":"Polygon","coordinates":[[[-112.19,41.99],[-111.83,39.76],[-111.82,39.74],[-111.8,39.72],[-111.71,39.71],[-111.68,39.71],[-105.92,41],[-105.92,41.01],[-105.98,41.29],[-106.09,41.46],[-106.16,41.56],[-106.2,41.59],[-106.23,41.6],[-106.56,41.7],[-111.05,42],[-112.19,42],[-112.19,41.99]]]}},{"type":"Feature","id":"geom_evt_20260218_northern_rockies_2026_02_18_winter_d1_hover","properties":{"event_id":"evt_20260217_northern_rockies_2026_02_17_winter","day_index":2,"geometry_role":"hover_geometry"},"geometry":{"type":"Polygon","coordinates":[[[-108.32,48.57],[-107.42,47.69],[-106.09,46.86],[-105.45,46.57],[-105.24,46.54],[-104.98,46.54],[-104.86,46.57],[-104.73,46.61],[-104.61,46.66],[-104.6,46.83],[-104.6,46.86],[-104.97,48.65],[-105.06,49],[-108.24,49],[-108.32,48.74],[-108.32,48.57]]]}},{"type":"Feature","id":"geom_evt_20260224_northern_rockies_2026_02_24_winter_d1_hover","properties":{"event_id":"evt_20260224_northern_rockies_2026_02_24_winter","day_index":1,"geometry_role":"hover_geometry"},"geometry":{"type":"Polygon","coordinates":[[[-111.15,45.05],[-111.05,42.25],[-110.9,41.85],[-110.86,41.83],[-110.63,41.82],[-110.45,41.88],[-108.94,43.56],[-108.92,43.59],[-108.88,43.66],[-108.85,43.72],[-108.82,43.82],[-108.82,43.85],[-109.22,45.11],[-109.29,45.19],[-109.87,45.61],[-110.23,45.65],[-110.8,45.65],[-110.86,45.59],[-110.92,45.53],[-111.04,45.35],[-111.15,45.06],[-111.15,45.05]]]}},{"type":"Feature","id":"geom_evt_20260206_great_lakes_2026_02_06_winter_d1_hover","properties":{"event_id":"evt_20260206_great_lakes_2026_02_06_winter","day_index":1,"geometry_role":"hover_geometry"},"geometry":{"type":"Polygon","coordinates":[[[-80.23,39.11],[-80.07,38.95],[-79.28,38.91],[-78.8,39.73],[-78.77,39.79],[-78.35,40.72],[-78.38,40.73],[-78.51,40.73],[-78.81,40.72],[-78.86,40.71],[-79,40.67],[-79.02,40.66],[-79.07,40.62],[-79.12,40.57],[-79.49,40.13],[-80.23,39.17],[-80.23,39.11]]]}},{"type":"Feature","id":"geom_evt_20260220_great_lakes_2026_02_20_winter_d1_hover","properties":{"event_id":"evt_20260220_great_lakes_2026_02_20_winter","day_index":1,"geometry_role":"hover_geometry"},"geometry":{"type":"Polygon","coordinates":[[[-74.34,43.93],[-74.16,43.37],[-72.69,43.22],[-72.46,43.83],[-72.46,43.84],[-73.34,45.01],[-73.54,45.01],[-74.03,45],[-74.34,43.93]]]}},{"type":"Feature","id":"geom_evt_20260222_great_lakes_2026_02_22_winter_d1_hover","properties":{"event_id":"evt_20260222_great_lakes_2026_02_22_winter","day_index":1,"geometry_role":"hover_geometry"},"geometry":{"type":"Polygon","coordinates":[[[-82.17,40.99],[-80.59,39.17],[-80.55,39.15],[-80.07,38.95],[-79.28,38.91],[-76.37,38.84],[-75.72,38.83],[-75.55,38.84],[-74.9,38.93],[-74.86,38.94],[-69.96,41.25],[-69.93,41.74],[-69.93,41.8],[-69.94,41.84],[-69.96,41.9],[-69.98,41.95],[-70,41.98],[-70.02,42.01],[-70.62,42.69],[-70.82,42.87],[-70.9,42.89],[-72.44,43.23],[-72.82,43.3],[-73,43.31],[-73.25,43.31],[-81.03,41.85],[-81.06,41.84],[-81.12,41.82],[-81.29,41.76],[-81.97,41.51],[-82.17,41.14],[-82.17,40.99]]]}},{"type":"Feature","id":"geom_evt_20260223_great_lakes_2026_02_23_winter_d1_hover","properties":{"event_id":"evt_20260222_great_lakes_2026_02_22_winter","day_index":2,"geometry_role":"hover_geometry"},"geometry":{"type":"Polygon","coordinates":[[[-80.52,41.85],[-79.61,41.85],[-71.29,42.7],[-70.82,42.87],[-69.93,43.72],[-69.89,43.77],[-69.88,43.81],[-69.86,43.92],[-69.86,43.95],[-70.03,43.97],[-70.04,43.97],[-79.14,42.57],[-79.2,42.55],[-79.26,42.53],[-79.36,42.49],[-80.12,42.17],[-80.5,41.99],[-80.52,41.98],[-80.52,41.85]]]}},{"type":"Feature","id":"geom_evt_20260210_pacific_northwest_2026_02_10_winter_d1_hover","properties":{"event_id":"evt_20260210_pacific_northwest_2026_02_10_winter","day_index":1,"geometry_role":"hover_geometry"},"geometry":{"type":"Polygon","coordinates":[[[-173.12,60.66],[-173.07,60.5],[-172.77,60.19],[-166.2,59.75],[-161.73,59.52],[-161.51,59.6],[-161.37,59.73],[-161.17,60.05],[-160.19,61.82],[-159.38,65.26],[-159.38,65.44],[-159.39,65.52],[-164.4,66.58],[-164.45,66.58],[-164.53,66.57],[-164.61,66.56],[-164.75,66.54],[-164.93,66.51],[-165.38,66.43],[-168.94,65.77],[-171.74,63.78],[-171.84,63.56],[-173.12,60.67],[-173.12,60.66]]]}},{"type":"Feature","id":"geom_evt_20260214_pacific_northwest_2026_02_14_winter_d1_hover","properties":{"event_id":"evt_20260214_pacific_northwest_2026_02_14_winter","day_index":1,"geometry_role":"hover_geometry"},"geometry":{"type":"Polygon","coordinates":[[[-166.38,64.63],[-166.22,64.47],[-160.92,61.95],[-159.27,61.95],[-153.76,62.03],[-147,63.7],[-143.71,64.65],[-143.65,64.67],[-143.51,64.75],[-142.85,65.14],[-142.78,65.19],[-142.76,65.21],[-142.75,65.23],[-142.75,65.24],[-146.43,65.86],[-147.37,65.99],[-156.2,66.48],[-157.91,66.48],[-164.32,66.22],[-165.03,66.12],[-166,65.94],[-166.38,64.63]]]}},{"type":"Feature","id":"geom_evt_20260217_pacific_northwest_2026_02_17_winter_d1_hover","properties":{"event_id":"evt_20260217_pacific_northwest_2026_02_17_winter","day_index":1,"geometry_role":"hover_geometry"},"geometry":{"type":"Polygon","coordinates":[[[-171.85,63.49],[-171.84,63.47],[-171.82,63.43],[-171.8,63.41],[-171.76,63.38],[-171.74,63.37],[-165.14,60.92],[-165.12,60.92],[-164.53,60.94],[-164.41,60.95],[-153.76,62.03],[-153.4,62.12],[-153.07,62.21],[-153,62.29],[-152.43,63.18],[-152.43,63.3],[-154.15,67.17],[-154.69,67.6],[-155.32,68.03],[-161.74,69.7],[-162.61,69.9],[-162.79,69.93],[-162.8,69.93],[-166.22,68.88],[-166.85,68.34],[-171.74,63.78],[-171.84,63.56],[-171.85,63.51],[-171.85,63.49]]]}},{"type":"Feature","id":"geom_evt_20260218_pacific_northwest_2026_02_18_winter_d1_hover","properties":{"event_id":"evt_20260217_pacific_northwest_2026_02_17_winter","day_index":2,"geometry_role":"hover_geometry"},"geometry":{"type":"Polygon","coordinates":[[[-155.85,66.27],[-154.6,64.63],[-153,62.73],[-152.99,62.73],[-147,63.7],[-143.71,64.65],[-143.65,64.67],[-143.51,64.75],[-142.85,65.14],[-142.78,65.19],[-142.76,65.21],[-142.75,65.23],[-142.75,65.24],[-150.51,67.13],[-150.95,67.13],[-152.08,67.12],[-152.85,67.08],[-153.33,67.02],[-154.15,66.91],[-154.86,66.74],[-155.51,66.56],[-155.85,66.27]]]}},{"type":"Feature","id":"geom_evt_20260221_pacific_northwest_2026_02_21_winter_d1_hover","properties":{"event_id":"evt_20260221_pacific_northwest_2026_02_21_winter","day_index":1,"geometry_role":"hover_geometry"},"geometry":{"type":"Polygon","coordinates":[[[-168.95,65.75],[-168.94,65.74],[-168.1,64.96],[-166.22,64.47],[-162.8,64.33],[-159.58,65.2],[-159.38,65.26],[-154.05,68],[-151.42,69.42],[-150.96,70.11],[-152.83,70.9],[-156.44,71.39],[-156.47,71.39],[-159.59,70.81],[-161.88,70.33],[-162.03,70.29],[-162.1,70.27],[-162.34,70.2],[-166.22,68.88],[-166.85,68.34],[-168.95,65.76],[-168.95,65.75]]]}},{"type":"Feature","id":"geom_evt_20260222_pacific_northwest_2026_02_22_winter_d1_hover","properties":{"event_id":"evt_20260221_pacific_northwest_2026_02_21_winter","day_index":2,"geometry_role":"hover_geometry"},"geometry":{"type":"Polygon","coordinates":[[[-166.18,61.57],[-166.17,61.55],[-166.11,61.49],[-165.57,61.09],[-165.14,60.92],[-165.12,60.92],[-164.53,60.94],[-164.41,60.95],[-143.71,64.65],[-143.65,64.67],[-143.51,64.75],[-142.85,65.14],[-142.78,65.19],[-142.76,65.21],[-141,68.5],[-141,69.65],[-141.08,69.67],[-142.68,70.03],[-143.23,70.15],[-152.59,70.89],[-152.82,70.89],[-162.75,64.53],[-164.64,63.1],[-166,62.05],[-166.01,62.03],[-166.13,61.78],[-166.16,61.68],[-166.17,61.64],[-166.18,61.6],[-166.18,61.57]]]}},{"type":"Feature","id":"geom_evt_20260223_pacific_northwest_2026_02_23_winter_d1_hover","properties":{"event_id":"evt_20260221_pacific_northwest_2026_02_21_winter","day_index":3,"geometry_role":"hover_geometry"},"geometry":{"type":"Polygon","coordinates":[[[-154.6,64.63],[-153,62.73],[-152.99,62.73],[-147,63.7],[-144.07,64.65],[-144.06,64.66],[-143.9,65.07],[-143.9,65.09],[-143.91,65.1],[-143.93,65.11],[-143.97,65.12],[-146.17,65.45],[-151.5,65.7],[-153.73,65.4],[-154.6,64.63]]]}},{"type":"Feature","id":"geom_evt_20260228_pacific_northwest_2026_02_28_winter_d1_hover","properties":{"event_id":"evt_20260228_pacific_northwest_2026_02_28_winter","day_index":1,"geometry_role":"hover_geometry"},"geometry":{"type":"Polygon","coordinates":[[[-137.94,58.79],[-137.93,58.78],[-136.57,57.91],[-136.46,57.85],[-136.42,57.83],[-133.41,56.49],[-133.36,56.47],[-133.22,56.45],[-133.18,56.45],[-133.06,56.46],[-132.81,56.49],[-132.72,56.51],[-132.56,56.57],[-132.54,56.58],[-132.12,56.89],[-132.05,57.05],[-133.38,58.43],[-133.84,58.73],[-134.31,58.96],[-136.44,59.26],[-136.49,59.26],[-136.83,59.16],[-137.94,58.81],[-137.94,58.79]]]}},{"type":"Feature","id":"geom_evt_20260218_upper_midwest_2026_02_18_winter_d1_hover","properties":{"event_id":"evt_20260218_upper_midwest_2026_02_18_winter","day_index":1,"geometry_role":"hover_geometry"},"geometry":{"type":"Polygon","coordinates":[[[-100.28,48.37],[-100.24,48.02],[-100.2,47.85],[-98.47,47.24],[-92.29,46.16],[-90.98,46.15],[-90.92,46.15],[-89.48,48.01],[-94.95,49.37],[-95.14,49.38],[-95.15,49.38],[-100.18,49],[-100.28,48.54],[-100.28,48.37]]]}},{"type":"Feature","id":"geom_evt_20260219_upper_midwest_2026_02_19_winter_d1_hover","properties":{"event_id":"evt_20260218_upper_midwest_2026_02_18_winter","day_index":2,"geometry_role":"hover_geometry"},"geometry":{"type":"Polygon","coordinates":[[[-100.27,41.75],[-100.24,41.05],[-98.29,41.05],[-98.29,41.74],[-99.22,42.09],[-100.27,42.09],[-100.27,41.75]]]}},{"type":"Feature","id":"geom_evt_20260218_northern_plains_2026_02_18_winter_d1_hover","properties":{"event_id":"evt_20260218_northern_plains_2026_02_18_winter","day_index":1,"geometry_role":"hover_geometry"},"geometry":{"type":"Polygon","coordinates":[[[-105.41,47.18],[-105.32,46.98],[-105.2,46.92],[-105.03,46.86],[-104.5,46.86],[-100.2,47.85],[-100.15,48.55],[-100.15,48.72],[-100.18,49],[-105.06,49],[-105.36,47.79],[-105.41,47.53],[-105.41,47.18]]]}},{"type":"Feature","id":"geom_evt_20260219_northern_plains_2026_02_19_winter_d1_hover","properties":{"event_id":"evt_20260218_northern_plains_2026_02_18_winter","day_index":2,"geometry_role":"hover_geometry"},"geometry":{"type":"Polygon","coordinates":[[[-102.79,42.79],[-102.77,42.44],[-102.74,42.09],[-102.7,42],[-101.98,41.39],[-100.25,41.39],[-100.17,42.09],[-100.17,42.43],[-100.18,42.78],[-100.2,43],[-102.79,43],[-102.79,42.79]]]}},{"type":"Feature","id":"geom_evt_20260223_northeast_2026_02_23_winter_d1_hover","properties":{"event_id":"evt_20260223_northeast_2026_02_23_winter","day_index":1,"geometry_role":"hover_geometry"},"geometry":{"type":"Polygon","coordinates":[[[-70.05,43.99],[-70.02,43.94],[-69.86,43.7],[-69.85,43.7],[-68.85,43.78],[-67.26,44.6],[-67.19,44.64],[-67.16,44.66],[-66.95,44.81],[-66.95,44.82],[-66.98,44.91],[-67.78,46.38],[-68.44,46.37],[-69.66,45.12],[-70.01,44.12],[-70.05,43.99]]]}},{"type":"Feature","id":"geom_evt_20260219_mid_atlantic_2026_02_19_severe_d1_hover","properties":{"event_id":"evt_20260219_mid_atlantic_2026_02_19_severe","day_index":1,"geometry_role":"hover_geometry"},"geometry":{"type":"Polygon","coordinates":[[[-89.28,38.93],[-89.15,38.5],[-88.15,38.04],[-86.82,38.18],[-85.5,38.54],[-85.32,38.88],[-85.32,39.17],[-85.59,39.46],[-88.35,39.6],[-89.13,39.32],[-89.28,38.93]]]}},{"type":"Feature","id":"geom_evt_20260214_gulf_coast_2026_02_14_severe_d1_hover","properties":{"event_id":"evt_20260214_gulf_coast_2026_02_14_severe","day_index":1,"geometry_role":"hover_geometry"},"geometry":{"type":"Polygon","coordinates":[[[-96.94,30.34],[-96.4,29.47],[-94.96,28.75],[-91.22,28.83],[-89.58,30.28],[-89.26,30.9],[-89.35,31.45],[-90.13,31.93],[-91.96,32.43],[-93.97,32.79],[-94.99,32.68],[-95.47,32.52],[-96.26,31.87],[-96.87,31],[-96.94,30.34]]]}},{"type":"Feature","id":"geom_evt_20260215_southeast_2026_02_15_severe_d1_hover","properties":{"event_id":"evt_20260215_southeast_2026_02_15_severe","day_index":1,"geometry_role":"hover_geometry"},"geometry":{"type":"Polygon","coordinates":[[[-85.58,29.41],[-83.18,27.9],[-82.59,28.11],[-82.21,28.55],[-80.96,30.04],[-80.82,31.49],[-81.67,32.05],[-83.72,32.06],[-84.66,31.22],[-85.58,29.41]]]}},{"type":"Feature","id":"geom_evt_20260226_southern_plains_2026_02_26_severe_d1_hover","properties":{"event_id":"evt_20260226_southern_plains_2026_02_26_severe","day_index":1,"geometry_role":"hover_geometry"},"geometry":{"type":"Polygon","coordinates":[[[-91.8,32.81],[-91.56,32.44],[-88.36,32.82],[-87.97,33.22],[-87.93,33.77],[-88.21,34.06],[-89.51,34.02],[-91.47,33.55],[-91.76,33.28],[-91.8,32.81]]]}}]}