{"type":"FeatureCollection","features":[{"type":"Feature","id":"geom_evt_20260310_mid_atlantic_2026_03_10_severe_d1_hover","properties":{"event_id":"evt_20260310_mid_atlantic_2026_03_10_severe","day_index":1,"geometry_role":"hover_geometry"},"geometry":{"type":"Polygon","coordinates":[[[-90.56,40.6],[-90.5,40.45],[-90.11,40.32],[-89.34,40.32],[-87.97,40.47],[-86.31,40.84],[-86.16,41.18],[-86.32,41.4],[-87.03,41.5],[-88.17,41.56],[-89.8,41.43],[-90.5,40.92],[-90.56,40.6]]]}},{"type":"Feature","id":"geom_evt_20260316_mid_atlantic_2026_03_16_severe_d1_hover","properties":{"event_id":"evt_20260316_mid_atlantic_2026_03_16_severe","day_index":1,"geometry_role":"hover_geometry"},"geometry":{"type":"Polygon","coordinates":[[[-79.67,34.2],[-79.26,34.09],[-78.19,34.95],[-77.09,36.18],[-76.21,37.73],[-76.62,39.12],[-76.85,39.4],[-77.07,39.42],[-78.62,37.45],[-79.67,34.2]]]}},{"type":"Feature","id":"geom_evt_20260305_central_plains_2026_03_05_fire_d1_hover","properties":{"event_id":"evt_20260305_central_plains_2026_03_05_fire","day_index":1,"geometry_role":"hover_geometry"},"geometry":{"type":"Polygon","coordinates":[[[-106.41,34.08],[-106.4,33.53],[-105.67,32.43],[-105.29,32.16],[-104.97,32.07],[-104.58,32.13],[-104,32.35],[-103.57,32.85],[-103.27,33.39],[-101.8,37.46],[-101.76,37.78],[-101.83,38.08],[-102.05,38.17],[-102.54,38.12],[-103.98,37.6],[-104.53,37.09],[-104.78,36.73],[-106.41,34.08]]]}},{"type":"Feature","id":"geom_evt_20260306_central_plains_2026_03_06_fire_d1_hover","properties":{"event_id":"evt_20260305_central_plains_2026_03_05_fire","day_index":2,"geometry_role":"hover_geometry"},"geometry":{"type":"Polygon","coordinates":[[[-105.62,32.82],[-105.6,32.22],[-104.9,31.57],[-104.52,31.44],[-103.73,31.5],[-103.42,31.54],[-102.73,31.68],[-101.98,31.86],[-101.1,32.22],[-100.51,32.65],[-100.17,33.23],[-99.83,33.96],[-99.81,34.6],[-99.86,37.21],[-100.24,37.42],[-100.8,37.46],[-101.4,37.42],[-101.84,37.22],[-102.32,36.9],[-103.1,36.37],[-105.27,34.28],[-105.56,33.53],[-105.62,32.82]]]}},{"type":"Feature","id":"geom_evt_20260308_central_plains_2026_03_08_fire_d1_hover","properties":{"event_id":"evt_20260308_central_plains_2026_03_08_fire","day_index":1,"geometry_role":"hover_geometry"},"geometry":{"type":"Polygon","coordinates":[[[-105.18,35.51],[-105.11,35.3],[-104.98,35.15],[-104.24,34.77],[-103.31,34.65],[-102.38,34.69],[-101.7,34.89],[-101.46,35.16],[-101.37,35.63],[-101.37,36.09],[-101.5,36.54],[-101.72,36.78],[-102.07,36.83],[-102.57,36.9],[-103.24,36.89],[-104.08,36.79],[-104.61,36.65],[-105.08,35.76],[-105.18,35.51]]]}},{"type":"Feature","id":"geom_evt_20260309_central_plains_2026_03_09_fire_d1_hover","properties":{"event_id":"evt_20260308_central_plains_2026_03_08_fire","day_index":2,"geometry_role":"hover_geometry"},"geometry":{"type":"Polygon","coordinates":[[[-105.17,42.12],[-105.07,35.55],[-105.03,35.37],[-104.85,35.12],[-104.47,34.97],[-103.8,34.74],[-103,34.63],[-101.39,34.51],[-100.72,34.75],[-100.58,35.01],[-100.74,41.77],[-100.8,42.01],[-101.03,42.25],[-101.38,42.56],[-101.94,42.8],[-102.62,42.97],[-103.93,42.91],[-105.05,42.51],[-105.17,42.12]]]}},{"type":"Feature","id":"geom_evt_20260312_central_plains_2026_03_12_fire_d1_hover","properties":{"event_id":"evt_20260312_central_plains_2026_03_12_fire","day_index":1,"geometry_role":"hover_geometry"},"geometry":{"type":"Polygon","coordinates":[[[-105.56,34.76],[-105.19,34.3],[-104.44,34.13],[-100.96,33.6],[-100.5,33.67],[-99.54,34.35],[-98.83,35.21],[-98.52,35.95],[-98.08,39.47],[-97.93,40.85],[-98.62,41.15],[-102.2,42.26],[-102.98,42.43],[-103.65,42.23],[-105,40.69],[-105.56,34.76]]]}},{"type":"Feature","id":"geom_evt_20260314_central_plains_2026_03_14_fire_d1_hover","properties":{"event_id":"evt_20260314_central_plains_2026_03_14_fire","day_index":1,"geometry_role":"hover_geometry"},"geometry":{"type":"Polygon","coordinates":[[[-108.09,34.52],[-108.01,34.01],[-107.67,32.93],[-107.27,32.26],[-104.5,30.74],[-104.03,30.64],[-103.59,30.84],[-103.4,31.18],[-99.69,39.55],[-99.52,40.19],[-99.75,41.14],[-100.12,41.62],[-100.59,41.99],[-101.27,42.37],[-101.8,42.58],[-102.36,42.65],[-102.98,42.6],[-103.68,42.4],[-104.42,42.14],[-104.68,41.92],[-107.63,35.91],[-108.09,34.52]]]}},{"type":"Feature","id":"geom_evt_20260315_central_plains_2026_03_15_fire_d1_hover","properties":{"event_id":"evt_20260314_central_plains_2026_03_14_fire","day_index":2,"geometry_role":"hover_geometry"},"geometry":{"type":"Polygon","coordinates":[[[-107.81,36.13],[-107.53,32.7],[-106.83,31.83],[-104.55,29.65],[-104.17,29.4],[-104.05,29.34],[-103.39,29.01],[-103.09,28.97],[-100.59,28.84],[-99.33,29.9],[-98.76,30.52],[-98.09,31.31],[-97.95,32.07],[-98.07,33.98],[-98.32,34.75],[-98.46,35.02],[-98.9,35.2],[-106.22,36.58],[-107.16,36.51],[-107.81,36.13]]]}},{"type":"Feature","id":"geom_evt_20260322_central_plains_2026_03_22_fire_d1_hover","properties":{"event_id":"evt_20260322_central_plains_2026_03_22_fire","day_index":1,"geometry_role":"hover_geometry"},"geometry":{"type":"Polygon","coordinates":[[[-103,35.31],[-102.95,34.01],[-100.63,30.96],[-100.36,30.91],[-99.93,31.12],[-99.01,32.22],[-97.41,34.17],[-96.78,35.01],[-96.92,35.31],[-97.22,35.41],[-99.83,35.72],[-101.82,35.73],[-102.66,35.66],[-103,35.31]]]}},{"type":"Feature","id":"geom_evt_20260326_central_plains_2026_03_26_fire_d1_hover","properties":{"event_id":"evt_20260326_central_plains_2026_03_26_fire","day_index":1,"geometry_role":"hover_geometry"},"geometry":{"type":"Polygon","coordinates":[[[-108.02,34.64],[-108,34.2],[-104.48,31.29],[-104.23,31.23],[-103.94,31.35],[-100.34,34.21],[-99.54,35.08],[-97.65,37.38],[-97.69,37.78],[-97.89,37.98],[-98.22,38.01],[-102.05,37.96],[-102.44,37.93],[-107.43,35.7],[-107.75,35.35],[-108.02,34.64]]]}},{"type":"Feature","id":"geom_evt_20260327_central_plains_2026_03_27_fire_d1_hover","properties":{"event_id":"evt_20260326_central_plains_2026_03_26_fire","day_index":2,"geometry_role":"hover_geometry"},"geometry":{"type":"Polygon","coordinates":[[[-102.68,34.98],[-102.26,34.6],[-101.46,34.55],[-100.68,34.61],[-99.84,34.98],[-98.2,36.03],[-97.95,36.68],[-98.24,37.21],[-98.84,37.41],[-99.73,37.33],[-101.21,36.52],[-102.66,35.34],[-102.68,34.98]]]}},{"type":"Feature","id":"geom_evt_20260316_gulf_coast_2026_03_16_fire_d1_hover","properties":{"event_id":"evt_20260316_gulf_coast_2026_03_16_fire","day_index":1,"geometry_role":"hover_geometry"},"geometry":{"type":"Polygon","coordinates":[[[-98.59,26.36],[-98.49,26.18],[-98.2,26.04],[-97.61,25.95],[-95.34,29.01],[-95.37,29.23],[-95.71,29.67],[-96.17,29.81],[-96.48,29.79],[-96.86,29.66],[-97.22,29.53],[-97.65,29.2],[-97.9,28.92],[-98.37,28.17],[-98.57,27.38],[-98.59,26.81],[-98.59,26.36]]]}},{"type":"Feature","id":"geom_evt_20260317_southern_plains_2026_03_17_fire_d1_hover","properties":{"event_id":"evt_20260317_southern_plains_2026_03_17_fire","day_index":1,"geometry_role":"hover_geometry"},"geometry":{"type":"Polygon","coordinates":[[[-101.45,34.38],[-101.35,32.8],[-101.27,32.69],[-101.17,32.58],[-100.85,32.36],[-100.49,32.36],[-100.09,32.53],[-99.53,32.81],[-99.13,33.1],[-97.31,34.93],[-97.2,35.14],[-97.19,35.29],[-97.34,35.41],[-98.21,35.74],[-98.61,35.83],[-99.39,35.68],[-101.38,34.62],[-101.45,34.38]]]}},{"type":"Feature","id":"geom_evt_20260328_southern_plains_2026_03_28_fire_d1_hover","properties":{"event_id":"evt_20260328_southern_plains_2026_03_28_fire","day_index":1,"geometry_role":"hover_geometry"},"geometry":{"type":"Polygon","coordinates":[[[-107.34,42.07],[-106.88,41.57],[-101.73,36.8],[-100.9,36.39],[-85.41,30.25],[-84.7,30.49],[-83.39,30.98],[-82.31,31.54],[-81.65,31.97],[-80.41,33.18],[-80.04,33.83],[-80.09,34.24],[-93.31,44.24],[-93.87,44.49],[-94.86,44.78],[-95.78,44.82],[-106.47,43.69],[-107.07,43.09],[-107.34,42.07]]]}},{"type":"Feature","id":"geom_evt_20260318_northern_plains_2026_03_18_fire_d1_hover","properties":{"event_id":"evt_20260318_northern_plains_2026_03_18_fire","day_index":1,"geometry_role":"hover_geometry"},"geometry":{"type":"Polygon","coordinates":[[[-106.54,43.05],[-105.25,41.15],[-105,40.82],[-104.38,40.67],[-103.64,40.5],[-103.26,40.6],[-103.11,40.89],[-103.28,42.23],[-103.79,42.86],[-104.26,43.22],[-104.96,43.48],[-105.67,43.53],[-106.36,43.35],[-106.54,43.05]]]}},{"type":"Feature","id":"geom_evt_20260319_northern_rockies_2026_03_19_fire_d1_hover","properties":{"event_id":"evt_20260319_northern_rockies_2026_03_19_fire","day_index":1,"geometry_role":"hover_geometry"},"geometry":{"type":"Polygon","coordinates":[[[-107.95,42.07],[-107.64,41.77],[-105.22,41.12],[-104.63,41],[-104.24,41.21],[-104.39,43.04],[-104.5,43.29],[-104.65,43.48],[-104.87,43.62],[-105.55,43.88],[-105.99,43.97],[-106.34,43.99],[-106.45,43.94],[-107.73,42.47],[-107.95,42.07]]]}},{"type":"Feature","id":"geom_evt_20260320_northern_rockies_2026_03_20_fire_d1_hover","properties":{"event_id":"evt_20260319_northern_rockies_2026_03_19_fire","day_index":2,"geometry_role":"hover_geometry"},"geometry":{"type":"Polygon","coordinates":[[[-108.03,42.68],[-108.02,42.51],[-107.86,42.4],[-105.9,41.23],[-105.38,41.09],[-104.86,41.15],[-104.51,41.57],[-104.41,41.88],[-104.25,42.41],[-104.11,42.95],[-104.33,43.17],[-104.72,43.5],[-105.23,43.7],[-105.82,43.9],[-106.21,43.91],[-106.47,43.87],[-107.89,42.83],[-108.03,42.68]]]}},{"type":"Feature","id":"geom_evt_20260321_northern_rockies_2026_03_21_fire_d1_hover","properties":{"event_id":"evt_20260319_northern_rockies_2026_03_19_fire","day_index":3,"geometry_role":"hover_geometry"},"geometry":{"type":"Polygon","coordinates":[[[-109.94,41.22],[-109.25,40.03],[-108.74,39.65],[-108.19,39.6],[-104.05,40.82],[-103.07,41.36],[-102.82,41.92],[-102.86,42.43],[-103.04,43.05],[-103.22,43.38],[-103.8,43.86],[-104.55,44.23],[-105.18,44.36],[-105.73,44.27],[-106.73,43.86],[-107.5,43.33],[-109.7,41.65],[-109.87,41.45],[-109.94,41.22]]]}},{"type":"Feature","id":"geom_evt_20260325_northern_rockies_2026_03_25_fire_d1_hover","properties":{"event_id":"evt_20260325_northern_rockies_2026_03_25_fire","day_index":1,"geometry_role":"hover_geometry"},"geometry":{"type":"Polygon","coordinates":[[[-108.57,43.11],[-108.39,42.84],[-107.45,42.11],[-105.16,41.25],[-104.3,41.22],[-103.88,41.33],[-103.72,41.68],[-103.64,42.65],[-103.98,43.5],[-104.39,43.88],[-105.6,44.44],[-106.8,44.49],[-107.97,44.3],[-108.34,43.86],[-108.57,43.11]]]}},{"type":"Feature","id":"geom_evt_20260329_northern_rockies_2026_03_29_fire_d1_hover","properties":{"event_id":"evt_20260329_northern_rockies_2026_03_29_fire","day_index":1,"geometry_role":"hover_geometry"},"geometry":{"type":"Polygon","coordinates":[[[-107.51,41.94],[-107.33,41.52],[-105.37,41.15],[-104.51,41],[-104.09,41.37],[-104.2,41.88],[-105.2,42.74],[-105.86,43.22],[-106.78,43.51],[-107.35,42.69],[-107.51,41.94]]]}},{"type":"Feature","id":"geom_evt_20260330_northern_rockies_2026_03_30_fire_d1_hover","properties":{"event_id":"evt_20260329_northern_rockies_2026_03_29_fire","day_index":2,"geometry_role":"hover_geometry"},"geometry":{"type":"Polygon","coordinates":[[[-108.02,42.24],[-107.51,41.83],[-107.11,41.62],[-106.53,41.49],[-105.75,41.53],[-104.6,41.68],[-104.04,42.06],[-103.76,42.82],[-103.81,43.35],[-104.08,43.77],[-105.02,43.92],[-106.04,43.86],[-107.12,43.67],[-107.76,43.26],[-108.02,42.24]]]}},{"type":"Feature","id":"geom_evt_20260303_pacific_northwest_2026_03_03_winter_d1_hover","properties":{"event_id":"evt_20260303_pacific_northwest_2026_03_03_winter","day_index":1,"geometry_role":"hover_geometry"},"geometry":{"type":"Polygon","coordinates":[[[-137.94,58.79],[-137.93,58.78],[-135.85,56.99],[-134.34,55.84],[-134.32,55.83],[-134.28,55.83],[-134.12,55.9],[-133.43,56.45],[-132.65,57.58],[-132.65,57.61],[-133.38,58.43],[-133.84,58.73],[-134.31,58.96],[-136.44,59.26],[-136.49,59.26],[-136.83,59.16],[-137.94,58.81],[-137.94,58.79]]]}},{"type":"Feature","id":"geom_evt_20260306_pacific_northwest_2026_03_06_winter_d1_hover","properties":{"event_id":"evt_20260306_pacific_northwest_2026_03_06_winter","day_index":1,"geometry_role":"hover_geometry"},"geometry":{"type":"Polygon","coordinates":[[[-168.95,65.75],[-164.94,54.52],[-164.92,54.48],[-164.88,54.44],[-164.85,54.42],[-164.83,54.41],[-164.81,54.4],[-164.74,54.39],[-162.5,54.36],[-162.39,54.36],[-159.54,54.75],[-159.27,54.86],[-159.23,54.88],[-143.1,63.2],[-143.77,63.37],[-164.4,66.58],[-164.45,66.58],[-164.53,66.57],[-164.61,66.56],[-164.75,66.54],[-164.93,66.51],[-165.38,66.43],[-168.94,65.77],[-168.95,65.76],[-168.95,65.75]]]}},{"type":"Feature","id":"geom_evt_20260309_pacific_northwest_2026_03_09_winter_d1_hover","properties":{"event_id":"evt_20260309_pacific_northwest_2026_03_09_winter","day_index":1,"geometry_role":"hover_geometry"},"geometry":{"type":"Polygon","coordinates":[[[-153.37,68.85],[-121.71,47.58],[-120.87,47.42],[-120.84,47.41],[-120.84,47.41],[-120.84,47.41],[-120.84,47.42],[-120.83,47.42],[-120.77,47.53],[-120.43,48.25],[-120.75,48.94],[-141,69.65],[-141.08,69.67],[-142.68,70.03],[-143.23,70.15],[-152.59,70.89],[-152.82,70.89],[-153.37,69.08],[-153.37,68.85]]]}},{"type":"Feature","id":"geom_evt_20260312_pacific_northwest_2026_03_12_winter_d1_hover","properties":{"event_id":"evt_20260312_pacific_northwest_2026_03_12_winter","day_index":1,"geometry_role":"hover_geometry"},"geometry":{"type":"Polygon","coordinates":[[[-124.35,47.98],[-124.32,47.9],[-124.18,47.61],[-123.9,47.36],[-122.54,46.4],[-122.47,46.39],[-121.39,46.39],[-120.83,47.42],[-120.77,47.53],[-120.43,48.25],[-120.75,48.94],[-120.77,48.96],[-120.85,49],[-122.06,49],[-122.22,48.94],[-124.31,48.02],[-124.33,48.01],[-124.34,48],[-124.35,47.98]]]}},{"type":"Feature","id":"geom_evt_20260321_pacific_northwest_2026_03_21_winter_d1_hover","properties":{"event_id":"evt_20260321_pacific_northwest_2026_03_21_winter","day_index":1,"geometry_role":"hover_geometry"},"geometry":{"type":"Polygon","coordinates":[[[-143.89,60],[-134.32,55.83],[-134.28,55.83],[-132.56,56.57],[-132.54,56.58],[-132.12,56.89],[-132.05,57.05],[-133.38,58.43],[-135.23,59.7],[-135.48,59.8],[-139.07,60.35],[-141.79,60.52],[-143.19,60.52],[-143.37,60.4],[-143.72,60.15],[-143.89,60.02],[-143.89,60]]]}},{"type":"Feature","id":"geom_evt_20260312_northern_rockies_2026_03_12_winter_d1_hover","properties":{"event_id":"evt_20260312_northern_rockies_2026_03_12_winter","day_index":1,"geometry_role":"hover_geometry"},"geometry":{"type":"Polygon","coordinates":[[[-111.15,45.05],[-111.05,43.37],[-111.04,43.25],[-111.01,43.2],[-111,43.19],[-109.11,42.41],[-108.95,42.37],[-108.87,42.37],[-108.68,42.44],[-108.53,42.53],[-108.52,42.54],[-108.52,42.55],[-108.82,43.85],[-109.22,45.11],[-110.21,46.27],[-110.22,46.28],[-110.25,46.31],[-110.26,46.32],[-110.28,46.32],[-110.52,46.19],[-111.04,45.35],[-111.15,45.06],[-111.15,45.05]]]}},{"type":"Feature","id":"geom_evt_20260313_northern_rockies_2026_03_13_winter_d1_hover","properties":{"event_id":"evt_20260312_northern_rockies_2026_03_12_winter","day_index":2,"geometry_role":"hover_geometry"},"geometry":{"type":"Polygon","coordinates":[[[-112.18,48.09],[-112.14,46.61],[-111.5,45.93],[-111.43,45.89],[-110.94,45.64],[-109.24,45.01],[-107.37,44.56],[-106.01,44.56],[-105.04,45],[-104.99,45.35],[-104.98,45.44],[-104.98,45.79],[-106.26,47.87],[-106.36,47.96],[-106.43,47.98],[-110.74,49],[-111.92,49],[-112.18,48.13],[-112.18,48.09]]]}},{"type":"Feature","id":"geom_evt_20260314_northern_rockies_2026_03_14_winter_d1_hover","properties":{"event_id":"evt_20260312_northern_rockies_2026_03_12_winter","day_index":3,"geometry_role":"hover_geometry"},"geometry":{"type":"Polygon","coordinates":[[[-111.15,45.05],[-111.05,43.37],[-111.04,43.25],[-111.01,43.2],[-111,43.19],[-110.2,43.14],[-110.17,43.14],[-107.1,43.21],[-106.84,43.43],[-106.82,43.45],[-104.94,45.79],[-104.61,46.66],[-104.6,46.83],[-104.6,46.86],[-105.19,48.07],[-105.22,48.09],[-105.49,48.1],[-105.51,48.1],[-106.41,48.06],[-111.13,45.1],[-111.15,45.06],[-111.15,45.05]]]}},{"type":"Feature","id":"geom_evt_20260314_northern_plains_2026_03_14_winter_d1_hover","properties":{"event_id":"evt_20260314_northern_plains_2026_03_14_winter","day_index":1,"geometry_role":"hover_geometry"},"geometry":{"type":"Polygon","coordinates":[[[-105.41,47.18],[-105.04,45],[-100.78,43.72],[-100.74,43.71],[-100.68,43.71],[-100.34,43.72],[-99.61,44.1],[-99.6,44.11],[-99.57,44.9],[-99.57,45.25],[-99.72,45.94],[-99.92,46.63],[-100.94,46.98],[-105.23,47.79],[-105.36,47.79],[-105.41,47.53],[-105.41,47.18]]]}},{"type":"Feature","id":"geom_evt_20260315_northern_plains_2026_03_15_winter_d1_hover","properties":{"event_id":"evt_20260314_northern_plains_2026_03_14_winter","day_index":2,"geometry_role":"hover_geometry"},"geometry":{"type":"Polygon","coordinates":[[[-104.78,44.49],[-104.49,44.18],[-104.31,43.99],[-104.06,43.91],[-103.91,43.91],[-101.06,43.99],[-101.05,44],[-101.05,44.17],[-101.14,44.99],[-101.47,45.47],[-102,45.47],[-104.04,45.21],[-104.38,45],[-104.78,44.49]]]}},{"type":"Feature","id":"geom_evt_20260311_northeast_2026_03_11_winter_d1_hover","properties":{"event_id":"evt_20260311_northeast_2026_03_11_winter","day_index":1,"geometry_role":"hover_geometry"},"geometry":{"type":"Polygon","coordinates":[[[-70.02,46.57],[-69.73,45.98],[-68.96,45.51],[-68.86,45.52],[-68.41,45.57],[-68.35,45.58],[-68.29,45.59],[-67.91,45.66],[-67.81,45.68],[-67.78,45.73],[-67.76,45.82],[-67.75,45.91],[-67.75,45.92],[-67.79,47.07],[-67.95,47.2],[-68.15,47.33],[-68.23,47.36],[-69.17,47.46],[-69.22,47.46],[-69.28,47.41],[-69.73,46.97],[-70,46.7],[-70.02,46.57]]]}},{"type":"Feature","id":"geom_evt_20260312_upper_midwest_2026_03_12_winter_d1_hover","properties":{"event_id":"evt_20260312_upper_midwest_2026_03_12_winter","day_index":1,"geometry_role":"hover_geometry"},"geometry":{"type":"Polygon","coordinates":[[[-97.95,48.72],[-97.88,47.67],[-97.45,47.24],[-96.17,46.72],[-95.16,46.37],[-92.89,45.64],[-90.68,45.38],[-90.04,45.38],[-90.04,45.98],[-95.09,48.92],[-95.32,49],[-97.95,49],[-97.95,48.72]]]}},{"type":"Feature","id":"geom_evt_20260313_upper_midwest_2026_03_13_winter_d1_hover","properties":{"event_id":"evt_20260312_upper_midwest_2026_03_12_winter","day_index":2,"geometry_role":"hover_geometry"},"geometry":{"type":"Polygon","coordinates":[[[-93.81,45.98],[-93.76,45.56],[-93.51,45.42],[-93.49,45.41],[-92.75,45.21],[-91.54,45.21],[-90.93,45.29],[-90.68,45.38],[-90.68,45.64],[-93.43,46.25],[-93.53,46.25],[-93.81,46.24],[-93.81,45.98]]]}},{"type":"Feature","id":"geom_evt_20260314_upper_midwest_2026_03_14_winter_d1_hover","properties":{"event_id":"evt_20260312_upper_midwest_2026_03_12_winter","day_index":3,"geometry_role":"hover_geometry"},"geometry":{"type":"Polygon","coordinates":[[[-100.37,43.85],[-100.34,43.72],[-100.29,43.7],[-99.62,43.5],[-99.29,43.5],[-96.45,44.54],[-96.1,45.18],[-96.1,45.24],[-96.12,45.41],[-96.28,46.63],[-99.92,46.63],[-100.37,44.19],[-100.37,43.85]]]}},{"type":"Feature","id":"geom_evt_20260315_upper_midwest_2026_03_15_winter_d1_hover","properties":{"event_id":"evt_20260312_upper_midwest_2026_03_12_winter","day_index":4,"geometry_role":"hover_geometry"},"geometry":{"type":"Polygon","coordinates":[[[-99.53,43],[-99.23,42.09],[-96.91,41.05],[-96.22,40.99],[-96.21,40.99],[-92.41,41.16],[-89.84,42.51],[-89.72,44.25],[-89.72,44.37],[-89.73,44.51],[-90.04,45.38],[-91.02,47.7],[-96.17,46.72],[-96.28,46.63],[-98.71,44.63],[-99.36,43.93],[-99.47,43.68],[-99.53,43.5],[-99.53,43]]]}},{"type":"Feature","id":"geom_evt_20260316_upper_midwest_2026_03_16_winter_d1_hover","properties":{"event_id":"evt_20260312_upper_midwest_2026_03_12_winter","day_index":5,"geometry_role":"hover_geometry"},"geometry":{"type":"Polygon","coordinates":[[[-92.41,41.16],[-92.18,40.9],[-91.21,40.71],[-91.14,40.7],[-91.11,40.7],[-89.87,41.15],[-89.63,41.58],[-89.63,41.93],[-89.69,42.2],[-89.93,42.51],[-90.9,42.68],[-92.08,42.64],[-92.3,42.3],[-92.41,41.51],[-92.41,41.16]]]}},{"type":"Feature","id":"geom_evt_20260313_mid_atlantic_2026_03_13_winter_d1_hover","properties":{"event_id":"evt_20260313_mid_atlantic_2026_03_13_winter","day_index":1,"geometry_role":"hover_geometry"},"geometry":{"type":"Polygon","coordinates":[[[-90.42,46.56],[-90.04,45.12],[-89.22,45.03],[-87.76,44.97],[-87.65,44.97],[-84.25,45.2],[-83.52,45.92],[-83.51,45.93],[-83.47,45.98],[-83.47,45.99],[-83.48,46],[-83.58,46.09],[-84.13,46.53],[-88.43,48.19],[-88.44,48.19],[-88.57,48.17],[-88.61,48.16],[-88.64,48.15],[-89.18,47.94],[-89.21,47.92],[-89.25,47.88],[-90.42,46.57],[-90.42,46.56]]]}},{"type":"Feature","id":"geom_evt_20260315_mid_atlantic_2026_03_15_winter_d1_hover","properties":{"event_id":"evt_20260315_mid_atlantic_2026_03_15_winter","day_index":1,"geometry_role":"hover_geometry"},"geometry":{"type":"Polygon","coordinates":[[[-90.42,46.56],[-90.31,43.55],[-90.19,43.16],[-89.84,42.51],[-89.62,42.5],[-88.87,42.49],[-87.8,42.49],[-83.43,44.03],[-83.33,44.34],[-83.19,45.03],[-83.19,45.04],[-83.47,45.99],[-83.48,46],[-83.58,46.09],[-84.13,46.53],[-88.43,48.19],[-88.44,48.19],[-88.57,48.17],[-88.61,48.16],[-88.64,48.15],[-89.18,47.94],[-89.21,47.92],[-89.25,47.88],[-90.42,46.57],[-90.42,46.56]]]}},{"type":"Feature","id":"geom_evt_20260316_mid_atlantic_2026_03_16_winter_d1_hover","properties":{"event_id":"evt_20260315_mid_atlantic_2026_03_15_winter","day_index":2,"geometry_role":"hover_geometry"},"geometry":{"type":"Polygon","coordinates":[[[-89.93,42.47],[-89.92,42.2],[-89.86,41.23],[-89.64,41.15],[-89.36,41.1],[-89.16,41.1],[-88.71,42.15],[-88.71,42.49],[-88.94,42.5],[-89.67,42.51],[-89.93,42.51],[-89.93,42.47]]]}},{"type":"Feature","id":"geom_evt_20260312_desert_southwest_2026_03_12_winter_d1_hover","properties":{"event_id":"evt_20260312_desert_southwest_2026_03_12_winter","day_index":1,"geometry_role":"hover_geometry"},"geometry":{"type":"Polygon","coordinates":[[[-116.34,45.26],[-116.3,45.11],[-116.14,45.11],[-114.69,45.2],[-113.53,45.88],[-112.19,46.98],[-112.17,47],[-112.19,47.11],[-112.2,47.13],[-112.68,48.07],[-113.32,49],[-114.74,49],[-116.22,45.87],[-116.34,45.26]]]}},{"type":"Feature","id":"geom_evt_20260313_great_lakes_2026_03_13_winter_d1_hover","properties":{"event_id":"evt_20260313_great_lakes_2026_03_13_winter","day_index":1,"geometry_role":"hover_geometry"},"geometry":{"type":"Polygon","coordinates":[[[-76.62,43.41],[-76.61,43.26],[-76.6,43.25],[-76.48,43.23],[-76.28,43.2],[-75.93,43.16],[-75.88,43.16],[-74.32,43.21],[-74.22,43.22],[-74.14,43.25],[-74.05,43.77],[-74.05,43.8],[-74.28,44.12],[-75.83,44.39],[-75.85,44.39],[-76,44.35],[-76.15,44.29],[-76.3,44.19],[-76.31,44.18],[-76.37,44.11],[-76.62,43.42],[-76.62,43.41]]]}},{"type":"Feature","id":"geom_evt_20260317_great_lakes_2026_03_17_winter_d1_hover","properties":{"event_id":"evt_20260317_great_lakes_2026_03_17_winter","day_index":1,"geometry_role":"hover_geometry"},"geometry":{"type":"Polygon","coordinates":[[[-81.97,41.35],[-81.88,41.28],[-81.56,41.28],[-81,41.35],[-75.2,42.88],[-75.07,43.23],[-75.08,43.4],[-75.09,43.48],[-75.11,43.61],[-75.12,43.61],[-75.81,43.48],[-79.76,42.22],[-81.97,41.51],[-81.97,41.35]]]}},{"type":"Feature","id":"geom_evt_20260304_southern_plains_2026_03_04_severe_d1_hover","properties":{"event_id":"evt_20260304_southern_plains_2026_03_04_severe","day_index":1,"geometry_role":"hover_geometry"},"geometry":{"type":"Polygon","coordinates":[[[-98.44,32.16],[-97.98,31.7],[-97.23,31.61],[-87.56,37.48],[-87.18,38.09],[-87.53,38.62],[-88.62,38.72],[-90.32,38.35],[-93.26,37.3],[-95.23,36.22],[-98.08,33.3],[-98.37,32.69],[-98.44,32.16]]]}},{"type":"Feature","id":"geom_evt_20260305_southern_plains_2026_03_05_severe_d1_hover","properties":{"event_id":"evt_20260304_southern_plains_2026_03_04_severe","day_index":2,"geometry_role":"hover_geometry"},"geometry":{"type":"Polygon","coordinates":[[[-101.56,34.84],[-101.22,34.35],[-100.78,34.24],[-99.65,34.19],[-99.07,34.52],[-98.8,34.79],[-98.51,35.35],[-98.35,35.86],[-98.41,36.36],[-98.62,36.52],[-99.45,36.61],[-101.43,35.32],[-101.56,34.84]]]}},{"type":"Feature","id":"geom_evt_20260306_southern_plains_2026_03_06_severe_d1_hover","properties":{"event_id":"evt_20260304_southern_plains_2026_03_04_severe","day_index":3,"geometry_role":"hover_geometry"},"geometry":{"type":"Polygon","coordinates":[[[-97.65,38.86],[-97.23,33.5],[-96.71,33.29],[-95.44,33.59],[-94.17,34.34],[-93.92,34.57],[-93.4,35.27],[-92.79,36.44],[-92.64,37.38],[-92.91,40.61],[-93.35,41.24],[-93.92,41.58],[-94.65,41.66],[-95.88,41.35],[-97,40.69],[-97.55,39.71],[-97.65,38.86]]]}},{"type":"Feature","id":"geom_evt_20260307_southern_plains_2026_03_07_severe_d1_hover","properties":{"event_id":"evt_20260304_southern_plains_2026_03_04_severe","day_index":4,"geometry_role":"hover_geometry"},"geometry":{"type":"Polygon","coordinates":[[[-100.86,29.26],[-100.63,28.89],[-100.34,28.42],[-100.21,28.22],[-99.42,27.01],[-88.15,31.93],[-78.45,39.73],[-77.85,40.81],[-77.73,42.57],[-78.09,43.64],[-78.6,43.66],[-79.19,43.43],[-99.82,31.04],[-100.71,30.08],[-100.86,29.26]]]}},{"type":"Feature","id":"geom_evt_20260315_southeast_2026_03_15_severe_d1_hover","properties":{"event_id":"evt_20260315_southeast_2026_03_15_severe","day_index":1,"geometry_role":"hover_geometry"},"geometry":{"type":"Polygon","coordinates":[[[-93.86,33.03],[-92.86,31.8],[-90.95,31.38],[-86.07,30.4],[-85.39,30.37],[-85.01,30.71],[-84.83,31],[-84.63,34.67],[-84.65,36.27],[-85.39,40.39],[-86.75,40.72],[-89.44,38.76],[-91.48,36.7],[-92.9,34.9],[-93.69,33.59],[-93.86,33.03]]]}},{"type":"Feature","id":"geom_evt_20260326_mid_atlantic_2026_03_26_severe_d1_hover","properties":{"event_id":"evt_20260326_mid_atlantic_2026_03_26_severe","day_index":1,"geometry_role":"hover_geometry"},"geometry":{"type":"Polygon","coordinates":[[[-90.07,40.34],[-89.46,39.68],[-87.95,39.42],[-83.82,39.78],[-82.34,40],[-80.63,40.43],[-80.49,40.8],[-80.38,41.59],[-80.51,41.96],[-80.98,41.96],[-86.17,41.6],[-89.5,40.98],[-90.07,40.34]]]}},{"type":"Feature","id":"geom_evt_20260322_great_lakes_2026_03_22_severe_d1_hover","properties":{"event_id":"evt_20260322_great_lakes_2026_03_22_severe","day_index":1,"geometry_role":"hover_geometry"},"geometry":{"type":"Polygon","coordinates":[[[-81.67,39.93],[-81.46,39.72],[-80.66,39.52],[-77.27,39.72],[-76.87,39.82],[-76.5,40.18],[-76.38,40.51],[-76.59,40.92],[-77.19,41.13],[-77.98,41.29],[-79.45,41.21],[-81.1,40.74],[-81.57,40.31],[-81.67,39.93]]]}},{"type":"Feature","id":"geom_evt_20260309_southeast_2026_03_09_severe_d1_hover","properties":{"event_id":"evt_20260309_southeast_2026_03_09_severe","day_index":1,"geometry_role":"hover_geometry"},"geometry":{"type":"Polygon","coordinates":[[[-93.85,34.19],[-93.67,33.48],[-92.77,32.97],[-86.82,31.96],[-85.15,32.26],[-84.74,32.63],[-84.3,33.26],[-84.3,33.9],[-84.9,34.57],[-85.92,34.88],[-91.74,35.38],[-92.98,35.13],[-93.85,34.19]]]}},{"type":"Feature","id":"geom_evt_20260311_southeast_2026_03_11_severe_d1_hover","properties":{"event_id":"evt_20260311_southeast_2026_03_11_severe","day_index":1,"geometry_role":"hover_geometry"},"geometry":{"type":"Polygon","coordinates":[[[-96.16,29.38],[-94.95,28.76],[-89.4,28.58],[-85.61,29.42],[-75.09,39.56],[-74.93,39.95],[-75.69,40.67],[-76.87,41.41],[-77.87,41.71],[-80.73,41.9],[-84.19,41.24],[-85.61,40.25],[-87.53,38.7],[-95.3,31.57],[-96.1,30.54],[-96.16,29.38]]]}},{"type":"Feature","id":"geom_evt_20260312_southeast_2026_03_12_severe_d1_hover","properties":{"event_id":"evt_20260311_southeast_2026_03_11_severe","day_index":2,"geometry_role":"hover_geometry"},"geometry":{"type":"Polygon","coordinates":[[[-80.17,33.46],[-79.74,33.2],[-78.88,33.09],[-77.68,33.62],[-76.26,34.38],[-75.28,34.98],[-75.17,35.24],[-75.12,35.65],[-75.18,35.79],[-77.81,35.86],[-79.02,35.58],[-79.9,34.99],[-80.12,34.75],[-80.17,33.46]]]}},{"type":"Feature","id":"geom_evt_20260331_mid_atlantic_2026_03_31_severe_d1_hover","properties":{"event_id":"evt_20260331_mid_atlantic_2026_03_31_severe","day_index":1,"geometry_role":"hover_geometry"},"geometry":{"type":"Polygon","coordinates":[[[-100.94,33.8],[-100.69,33.48],[-100.24,33.51],[-76.99,41.08],[-76.05,41.49],[-75.47,41.88],[-75.18,42.42],[-75.6,43.08],[-76.27,43.52],[-76.72,43.74],[-83.71,43.46],[-85.09,43.25],[-86.3,42.87],[-99.94,35.63],[-100.94,33.8]]]}},{"type":"Feature","id":"geom_evt_20260330_upper_midwest_2026_03_30_severe_d1_hover","properties":{"event_id":"evt_20260330_upper_midwest_2026_03_30_severe","day_index":1,"geometry_role":"hover_geometry"},"geometry":{"type":"Polygon","coordinates":[[[-94.41,41.45],[-94.32,41.04],[-94.1,40.92],[-92.97,40.81],[-91.88,41.01],[-87.54,41.95],[-87.05,42.52],[-87.02,43.25],[-88.2,43.45],[-89.48,43.4],[-92.22,42.87],[-94.19,42.03],[-94.41,41.45]]]}}]}