{"type":"FeatureCollection","features":[{"type":"Feature","id":"geom_evt_20260105_central_plains_2026_01_05_fire_d1_hover","properties":{"event_id":"evt_20260105_central_plains_2026_01_05_fire","day_index":1,"geometry_role":"hover_geometry"},"geometry":{"type":"Polygon","coordinates":[[[-103.44,35.21],[-103.39,34.88],[-102.94,34.63],[-101.76,34.18],[-100.87,34.1],[-100.52,34.31],[-100.46,34.77],[-100.41,35.22],[-100.47,35.45],[-100.59,35.75],[-101.04,35.9],[-101.39,35.88],[-102.25,35.81],[-103.12,35.6],[-103.44,35.21]]]}},{"type":"Feature","id":"geom_evt_20260116_southern_plains_2026_01_16_fire_d1_hover","properties":{"event_id":"evt_20260116_southern_plains_2026_01_16_fire","day_index":1,"geometry_role":"hover_geometry"},"geometry":{"type":"Polygon","coordinates":[[[-101.63,35.94],[-100.56,34.01],[-100.04,33.59],[-99.03,33.67],[-98.12,34.08],[-97.86,35.01],[-98.14,35.93],[-98.73,36.7],[-99.06,36.85],[-99.98,36.98],[-100.56,36.95],[-101.11,36.85],[-101.44,36.6],[-101.63,35.94]]]}},{"type":"Feature","id":"geom_evt_20260109_southeast_2026_01_09_rain_d1_hover","properties":{"event_id":"evt_20260109_southeast_2026_01_09_rain","day_index":1,"geometry_role":"hover_geometry"},"geometry":{"type":"Polygon","coordinates":[[[-90.86,31.28],[-90.81,31.1],[-90.55,30.91],[-90.02,30.94],[-87.88,32.09],[-87.6,32.3],[-87.61,32.98],[-87.77,33.08],[-88.2,33.01],[-90.09,31.94],[-90.86,31.28]]]}},{"type":"Feature","id":"geom_evt_20260104_pacific_northwest_2026_01_04_winter_d1_hover","properties":{"event_id":"evt_20260104_pacific_northwest_2026_01_04_winter","day_index":1,"geometry_role":"hover_geometry"},"geometry":{"type":"Polygon","coordinates":[[[-173.12,60.66],[-173.07,60.5],[-172.77,60.19],[-161.77,58.55],[-158.91,58.39],[-158.85,58.39],[-157.21,58.84],[-156,59.69],[-156,60.91],[-160.93,61.69],[-160.95,61.69],[-173.07,60.71],[-173.09,60.7],[-173.11,60.68],[-173.12,60.67],[-173.12,60.66]]]}},{"type":"Feature","id":"geom_evt_20260105_pacific_northwest_2026_01_05_winter_d1_hover","properties":{"event_id":"evt_20260104_pacific_northwest_2026_01_04_winter","day_index":2,"geometry_role":"hover_geometry"},"geometry":{"type":"Polygon","coordinates":[[[-166.18,61.57],[-166.17,61.55],[-166.11,61.49],[-165.57,61.09],[-165.14,60.92],[-133.53,54.76],[-132.78,54.67],[-132.67,54.67],[-132.02,54.69],[-130.16,55.78],[-130.07,55.84],[-130.03,55.89],[-130.02,55.91],[-130,56],[-130,56.01],[-130.1,56.12],[-133.38,58.43],[-135.23,59.7],[-135.48,59.8],[-153.51,63.85],[-159.49,63.9],[-159.74,63.9],[-164.24,63.25],[-164.36,63.23],[-164.41,63.22],[-164.48,63.19],[-164.57,63.15],[-164.64,63.1],[-166,62.05],[-166.01,62.03],[-166.13,61.78],[-166.16,61.68],[-166.17,61.64],[-166.18,61.6],[-166.18,61.57]]]}},{"type":"Feature","id":"geom_evt_20260106_pacific_northwest_2026_01_06_winter_d1_hover","properties":{"event_id":"evt_20260104_pacific_northwest_2026_01_04_winter","day_index":3,"geometry_role":"hover_geometry"},"geometry":{"type":"Polygon","coordinates":[[[-122.72,46.7],[-122.69,46.25],[-122.53,44.94],[-122.51,44.92],[-122.4,44.88],[-121.73,44.89],[-118.08,45.3],[-114.12,46.78],[-113.98,47.14],[-116.05,49],[-122.06,49],[-122.22,48.94],[-122.24,48.93],[-122.26,48.9],[-122.31,48.8],[-122.32,48.77],[-122.72,46.7]]]}},{"type":"Feature","id":"geom_evt_20260109_pacific_northwest_2026_01_09_winter_d1_hover","properties":{"event_id":"evt_20260109_pacific_northwest_2026_01_09_winter","day_index":1,"geometry_role":"hover_geometry"},"geometry":{"type":"Polygon","coordinates":[[[-179.15,51.27],[-179.14,51.23],[-179.13,51.22],[-179.1,51.22],[-173.03,52.07],[-135.07,58.19],[-135.06,58.2],[-134.31,58.96],[-134.38,59.04],[-134.48,59.13],[-135.03,59.56],[-135.23,59.7],[-149,67.17],[-150.51,67.13],[-178.83,51.84],[-178.86,51.82],[-179.06,51.59],[-179.15,51.28],[-179.15,51.27]]]}},{"type":"Feature","id":"geom_evt_20260110_pacific_northwest_2026_01_10_winter_d1_hover","properties":{"event_id":"evt_20260109_pacific_northwest_2026_01_09_winter","day_index":2,"geometry_role":"hover_geometry"},"geometry":{"type":"Polygon","coordinates":[[[-171.85,63.49],[-171.84,63.47],[-171.82,63.43],[-171.8,63.41],[-171.76,63.38],[-171.74,63.37],[-171.68,63.35],[-171.56,63.32],[-169.73,62.95],[-151.28,59.36],[-146.34,59.41],[-146.3,59.44],[-146.29,59.45],[-143.1,63.2],[-144.88,64.1],[-145.72,64.3],[-164.4,66.58],[-164.45,66.58],[-164.53,66.57],[-164.61,66.56],[-164.75,66.54],[-164.93,66.51],[-165.38,66.43],[-168.94,65.77],[-171.74,63.78],[-171.84,63.56],[-171.85,63.51],[-171.85,63.49]]]}},{"type":"Feature","id":"geom_evt_20260115_pacific_northwest_2026_01_15_winter_d1_hover","properties":{"event_id":"evt_20260115_pacific_northwest_2026_01_15_winter","day_index":1,"geometry_role":"hover_geometry"},"geometry":{"type":"Polygon","coordinates":[[[-173.12,60.66],[-173.07,60.5],[-172.77,60.19],[-164.88,54.44],[-164.85,54.42],[-164.83,54.41],[-164.81,54.4],[-164.74,54.39],[-162.5,54.36],[-162.39,54.36],[-159.54,54.75],[-159.27,54.86],[-148.59,59.94],[-143.1,63.2],[-144.16,63.61],[-147,64.26],[-148,64.35],[-149.13,64.36],[-150.73,64.36],[-173.07,60.71],[-173.09,60.7],[-173.11,60.68],[-173.12,60.67],[-173.12,60.66]]]}},{"type":"Feature","id":"geom_evt_20260116_pacific_northwest_2026_01_16_winter_d1_hover","properties":{"event_id":"evt_20260115_pacific_northwest_2026_01_15_winter","day_index":2,"geometry_role":"hover_geometry"},"geometry":{"type":"Polygon","coordinates":[[[-171.85,63.49],[-171.84,63.47],[-171.82,63.43],[-171.8,63.41],[-171.76,63.38],[-171.74,63.37],[-171.68,63.35],[-171.56,63.32],[-169.73,62.95],[-169.66,62.94],[-160.92,61.95],[-159.27,61.95],[-153.76,62.03],[-153.4,62.12],[-143.71,64.65],[-143.65,64.67],[-141.39,65.61],[-141,65.84],[-141,68.5],[-147.83,69.11],[-162.79,69.93],[-162.8,69.93],[-166.22,68.88],[-166.85,68.34],[-171.74,63.78],[-171.84,63.56],[-171.85,63.51],[-171.85,63.49]]]}},{"type":"Feature","id":"geom_evt_20260106_northern_california_2026_01_06_winter_d1_hover","properties":{"event_id":"evt_20260106_northern_california_2026_01_06_winter","day_index":1,"geometry_role":"hover_geometry"},"geometry":{"type":"Polygon","coordinates":[[[-123.48,42],[-122.63,42],[-122.15,42.01],[-121.03,43.62],[-121.04,43.7],[-121.34,45.36],[-121.35,45.4],[-121.41,45.53],[-121.42,45.55],[-121.44,45.56],[-122.53,44.94],[-122.57,44.85],[-123.11,43.54],[-123.48,42.07],[-123.48,42]]]}},{"type":"Feature","id":"geom_evt_20260123_southeast_2026_01_23_winter_d1_hover","properties":{"event_id":"evt_20260123_southeast_2026_01_23_winter","day_index":1,"geometry_role":"hover_geometry"},"geometry":{"type":"Polygon","coordinates":[[[-90.29,35.44],[-90.2,34.34],[-90.19,34.3],[-90.14,34.16],[-89.93,33.9],[-89.51,33.72],[-88.51,33.66],[-88.46,33.66],[-88.42,33.67],[-88.36,33.69],[-88.25,33.74],[-88.24,33.78],[-87.98,35.01],[-87.97,35.4],[-87.97,35.82],[-88.21,36.15],[-88.53,36.15],[-90.29,36],[-90.29,35.44]]]}},{"type":"Feature","id":"geom_evt_20260124_southeast_2026_01_24_winter_d1_hover","properties":{"event_id":"evt_20260123_southeast_2026_01_23_winter","day_index":2,"geometry_role":"hover_geometry"},"geometry":{"type":"Polygon","coordinates":[[[-90.17,33.33],[-89.96,32.88],[-89.73,32.58],[-89.32,32.58],[-82.42,32.76],[-80.61,33.47],[-77.68,34.72],[-76.85,35.7],[-76.8,35.77],[-76.79,35.79],[-76.78,35.82],[-76.78,35.87],[-76.81,35.89],[-77.33,36.07],[-77.67,36.15],[-83.94,36.19],[-83.95,36.19],[-85.03,36.17],[-86.52,36.1],[-87.18,36.05],[-87.54,36],[-87.96,35.84],[-90.14,33.81],[-90.17,33.42],[-90.17,33.33]]]}},{"type":"Feature","id":"geom_evt_20260125_southeast_2026_01_25_winter_d1_hover","properties":{"event_id":"evt_20260123_southeast_2026_01_23_winter","day_index":3,"geometry_role":"hover_geometry"},"geometry":{"type":"Polygon","coordinates":[[[-90.35,30.91],[-90.26,30.71],[-90.15,30.69],[-90.02,30.67],[-89.85,30.66],[-89.84,30.66],[-78.32,34.37],[-78.27,34.39],[-78.25,34.4],[-78.18,34.46],[-78.18,34.47],[-78.32,34.67],[-78.39,34.75],[-78.41,34.77],[-78.49,34.85],[-78.5,34.86],[-78.84,34.85],[-88.81,33.29],[-89.32,32.93],[-89.77,32.61],[-89.78,32.6],[-90.35,31],[-90.35,30.91]]]}},{"type":"Feature","id":"geom_evt_20260130_southeast_2026_01_30_winter_d1_hover","properties":{"event_id":"evt_20260130_southeast_2026_01_30_winter","day_index":1,"geometry_role":"hover_geometry"},"geometry":{"type":"Polygon","coordinates":[[[-84.37,35.24],[-84.35,35.21],[-83.63,34.45],[-83.62,34.44],[-83.61,34.43],[-83.35,34.23],[-82.94,34.01],[-82.86,33.98],[-82.79,33.97],[-82.58,33.96],[-82.05,33.95],[-78.25,34.55],[-78.11,34.71],[-77.35,35.82],[-77.34,35.89],[-77.34,35.91],[-77.4,36.01],[-77.54,36.1],[-77.64,36.14],[-77.67,36.15],[-83.94,36.19],[-83.95,36.19],[-83.98,36.17],[-84.27,35.94],[-84.37,35.24]]]}},{"type":"Feature","id":"geom_evt_20260131_southeast_2026_01_31_winter_d1_hover","properties":{"event_id":"evt_20260130_southeast_2026_01_30_winter","day_index":2,"geometry_role":"hover_geometry"},"geometry":{"type":"Polygon","coordinates":[[[-84.94,34.67],[-84.83,33.51],[-83.5,32.46],[-81.78,32.15],[-80.93,32.04],[-80.91,32.04],[-80.44,32.31],[-76.53,34.59],[-75.53,35.23],[-75.52,35.24],[-75.5,35.33],[-75.48,35.42],[-75.46,35.55],[-75.46,35.61],[-75.47,35.65],[-75.48,35.69],[-75.49,35.72],[-75.5,35.75],[-75.64,36],[-75.76,36.21],[-75.77,36.22],[-77.33,36.07],[-84.81,34.99],[-84.84,34.94],[-84.93,34.71],[-84.94,34.68],[-84.94,34.67]]]}},{"type":"Feature","id":"geom_evt_20260123_southwest_2026_01_23_winter_d1_hover","properties":{"event_id":"evt_20260123_southwest_2026_01_23_winter","day_index":1,"geometry_role":"hover_geometry"},"geometry":{"type":"Polygon","coordinates":[[[-110.93,32.38],[-110.92,32.37],[-110.69,32.17],[-110.56,32.08],[-110.53,32.06],[-110.51,32.05],[-110.5,32.05],[-104.84,32.52],[-104.37,35.73],[-104.37,35.74],[-104.38,35.78],[-104.79,36.71],[-104.8,36.73],[-104.82,36.76],[-104.94,36.86],[-104.97,36.88],[-105.16,37],[-105.97,37],[-106.87,36.99],[-110.08,34.29],[-110.09,34.28],[-110.26,34.01],[-110.93,32.38]]]}},{"type":"Feature","id":"geom_evt_20260124_southwest_2026_01_24_winter_d1_hover","properties":{"event_id":"evt_20260123_southwest_2026_01_23_winter","day_index":2,"geometry_role":"hover_geometry"},"geometry":{"type":"Polygon","coordinates":[[[-109.05,33.47],[-108.81,33.26],[-108.75,33.21],[-105.5,32.46],[-105.48,32.46],[-105.42,32.5],[-105.37,32.54],[-105.35,32.56],[-105.32,32.96],[-105.32,33.31],[-106.39,35.41],[-106.4,35.42],[-106.44,35.45],[-106.77,35.57],[-106.86,35.59],[-107.02,35.62],[-107.08,35.63],[-107.15,35.62],[-107.92,35.38],[-107.99,35.35],[-108.01,35.34],[-108.04,35.32],[-109.05,34.28],[-109.05,33.47]]]}},{"type":"Feature","id":"geom_evt_20260123_southern_plains_2026_01_23_winter_d1_hover","properties":{"event_id":"evt_20260123_southern_plains_2026_01_23_winter","day_index":1,"geometry_role":"hover_geometry"},"geometry":{"type":"Polygon","coordinates":[[[-100.25,38.38],[-100.15,32.08],[-98.21,31.92],[-96.71,31.81],[-96.5,31.8],[-93.81,31.84],[-93.44,31.85],[-91.89,32.15],[-90.86,32.44],[-90.73,32.57],[-90.37,33.01],[-90.17,33.33],[-90.1,33.46],[-89.93,33.82],[-89.67,34.55],[-89.64,35],[-89.63,35.37],[-89.63,35.38],[-89.96,36.63],[-97.93,39.22],[-98.49,39.22],[-100.15,39.13],[-100.25,38.7],[-100.25,38.38]]]}},{"type":"Feature","id":"geom_evt_20260124_southern_plains_2026_01_24_winter_d1_hover","properties":{"event_id":"evt_20260123_southern_plains_2026_01_23_winter","day_index":2,"geometry_role":"hover_geometry"},"geometry":{"type":"Polygon","coordinates":[[[-97.93,38.96],[-92.31,31.93],[-91.78,31.87],[-90.85,31.79],[-90.74,31.79],[-89.73,32.05],[-89.73,32.88],[-89.86,37.6],[-89.92,39.56],[-89.99,39.87],[-90.38,39.88],[-90.58,39.88],[-97.93,39.65],[-97.93,38.96]]]}},{"type":"Feature","id":"geom_evt_20260114_mid_atlantic_2026_01_14_winter_d1_hover","properties":{"event_id":"evt_20260114_mid_atlantic_2026_01_14_winter","day_index":1,"geometry_role":"hover_geometry"},"geometry":{"type":"Polygon","coordinates":[[[-86.93,41.17],[-86.05,41.17],[-82.5,43.17],[-82.5,43.18],[-82.53,43.39],[-82.54,43.44],[-82.61,43.78],[-82.63,43.83],[-82.65,43.87],[-82.72,43.97],[-82.74,43.99],[-82.76,44.01],[-82.8,44.03],[-82.92,44.07],[-82.97,44.07],[-83.26,43.98],[-83.4,43.92],[-86.37,42.24],[-86.91,41.73],[-86.93,41.71],[-86.93,41.17]]]}},{"type":"Feature","id":"geom_evt_20260118_mid_atlantic_2026_01_18_winter_d1_hover","properties":{"event_id":"evt_20260118_mid_atlantic_2026_01_18_winter","day_index":1,"geometry_role":"hover_geometry"},"geometry":{"type":"Polygon","coordinates":[[[-86.54,43.61],[-86.36,42.24],[-86.22,42.07],[-85.76,42.07],[-85.54,42.42],[-84.85,44.51],[-84.73,45.11],[-84.73,45.75],[-84.74,45.79],[-84.78,45.79],[-85.08,45.77],[-85.79,45.49],[-85.88,45.44],[-86.15,45.03],[-86.16,45.01],[-86.52,44.06],[-86.54,43.67],[-86.54,43.61]]]}},{"type":"Feature","id":"geom_evt_20260119_mid_atlantic_2026_01_19_winter_d1_hover","properties":{"event_id":"evt_20260118_mid_atlantic_2026_01_18_winter","day_index":2,"geometry_role":"hover_geometry"},"geometry":{"type":"Polygon","coordinates":[[[-89.25,47.87],[-88.93,46.81],[-88.68,46.42],[-87.62,45.99],[-87.24,45.99],[-86.62,46.16],[-85.86,46.5],[-85.86,46.69],[-88.43,48.19],[-88.44,48.19],[-88.57,48.17],[-88.61,48.16],[-88.64,48.15],[-89.18,47.94],[-89.21,47.92],[-89.25,47.88],[-89.25,47.87]]]}},{"type":"Feature","id":"geom_evt_20260123_mid_atlantic_2026_01_23_winter_d1_hover","properties":{"event_id":"evt_20260123_mid_atlantic_2026_01_23_winter","day_index":1,"geometry_role":"hover_geometry"},"geometry":{"type":"Polygon","coordinates":[[[-89.96,36],[-89.64,35.9],[-88.92,35.8],[-88.81,35.79],[-88.71,35.79],[-87.99,35.81],[-87.97,35.82],[-87.94,35.86],[-87.93,35.89],[-87.92,36.12],[-87.92,36.18],[-87.95,36.31],[-88.05,36.5],[-89.18,36.51],[-89.33,36.51],[-89.54,36.5],[-89.96,36.39],[-89.96,36]]]}},{"type":"Feature","id":"geom_evt_20260124_mid_atlantic_2026_01_24_winter_d1_hover","properties":{"event_id":"evt_20260123_mid_atlantic_2026_01_23_winter","day_index":2,"geometry_role":"hover_geometry"},"geometry":{"type":"Polygon","coordinates":[[[-90.28,38.92],[-90.26,36.88],[-90.21,36.77],[-90.14,36.63],[-89.97,36.39],[-87.85,35.8],[-78.21,35.73],[-78.19,35.73],[-76.87,35.81],[-76.76,35.86],[-76.74,35.87],[-76.46,36.02],[-76.41,36.06],[-75.87,36.55],[-75.08,38.33],[-75.06,38.38],[-75.05,38.41],[-75.05,38.45],[-75.76,38.69],[-83.5,40.82],[-83.88,40.82],[-87.94,40.49],[-88.46,40.4],[-89.99,39.9],[-90.15,39.52],[-90.28,38.96],[-90.28,38.92]]]}},{"type":"Feature","id":"geom_evt_20260125_mid_atlantic_2026_01_25_winter_d1_hover","properties":{"event_id":"evt_20260123_mid_atlantic_2026_01_23_winter","day_index":3,"geometry_role":"hover_geometry"},"geometry":{"type":"Polygon","coordinates":[[[-87.53,39.61],[-77.66,37.99],[-77.64,37.99],[-76.32,38.05],[-75.05,38.45],[-75.05,38.54],[-75.06,38.64],[-75.07,38.71],[-75.08,38.77],[-75.09,38.79],[-75.31,38.95],[-75.75,39.14],[-81.97,41.51],[-82.01,41.52],[-82.81,41.72],[-83.46,41.73],[-83.69,41.73],[-84.08,41.72],[-84.4,41.71],[-86.58,40.91],[-87.53,40.48],[-87.53,39.61]]]}},{"type":"Feature","id":"geom_evt_20260130_mid_atlantic_2026_01_30_winter_d1_hover","properties":{"event_id":"evt_20260130_mid_atlantic_2026_01_30_winter","day_index":1,"geometry_role":"hover_geometry"},"geometry":{"type":"Polygon","coordinates":[[[-87.53,41.17],[-83.71,36.08],[-83.67,36.04],[-83.51,35.94],[-83.28,35.81],[-78.21,35.73],[-78.19,35.73],[-77.84,35.84],[-77.41,36],[-77.23,36.1],[-77.23,36.11],[-77.26,36.16],[-78.24,37.69],[-78.28,37.71],[-86.93,41.71],[-86.95,41.71],[-87.52,41.7],[-87.53,41.5],[-87.53,41.17]]]}},{"type":"Feature","id":"geom_evt_20260131_mid_atlantic_2026_01_31_winter_d1_hover","properties":{"event_id":"evt_20260130_mid_atlantic_2026_01_30_winter","day_index":2,"geometry_role":"hover_geometry"},"geometry":{"type":"Polygon","coordinates":[[[-88.03,41.64],[-87.79,41.47],[-78.73,36.54],[-77.04,35.86],[-76.9,35.81],[-76.87,35.81],[-75.79,36.08],[-75.05,38.41],[-75.05,38.45],[-87.66,42.02],[-87.82,42.02],[-87.91,42.01],[-87.94,42],[-88.03,41.69],[-88.03,41.64]]]}},{"type":"Feature","id":"geom_evt_20260119_great_lakes_2026_01_19_winter_d1_hover","properties":{"event_id":"evt_20260119_great_lakes_2026_01_19_winter","day_index":1,"geometry_role":"hover_geometry"},"geometry":{"type":"Polygon","coordinates":[[[-79.76,42],[-78.31,42],[-75.88,43.16],[-75.11,43.61],[-75.11,43.63],[-75.12,43.73],[-75.13,43.81],[-75.16,44.04],[-75.17,44.1],[-75.23,44.13],[-75.8,44.38],[-75.83,44.39],[-75.85,44.39],[-76,44.35],[-79.05,43.27],[-79.06,43.26],[-79.76,42.27],[-79.76,42]]]}},{"type":"Feature","id":"geom_evt_20260121_great_lakes_2026_01_21_winter_d1_hover","properties":{"event_id":"evt_20260121_great_lakes_2026_01_21_winter","day_index":1,"geometry_role":"hover_geometry"},"geometry":{"type":"Polygon","coordinates":[[[-79.61,41.62],[-78.81,40.73],[-78.8,40.72],[-78.35,40.72],[-74.18,43.06],[-74.12,43.1],[-74.05,43.77],[-74.05,43.8],[-74.28,44.12],[-74.3,44.12],[-75.17,44.1],[-79.61,42],[-79.61,41.62]]]}},{"type":"Feature","id":"geom_evt_20260124_great_lakes_2026_01_24_winter_d1_hover","properties":{"event_id":"evt_20260124_great_lakes_2026_01_24_winter","day_index":1,"geometry_role":"hover_geometry"},"geometry":{"type":"Polygon","coordinates":[[[-82.32,39.01],[-81.9,38.87],[-79.13,38.81],[-77.65,38.94],[-77.33,39.06],[-76.41,39.47],[-76.18,39.66],[-76.23,39.72],[-81.93,39.77],[-82.08,39.77],[-82.28,39.47],[-82.29,39.42],[-82.31,39.21],[-82.32,39.1],[-82.32,39.01]]]}},{"type":"Feature","id":"geom_evt_20260125_great_lakes_2026_01_25_winter_d1_hover","properties":{"event_id":"evt_20260124_great_lakes_2026_01_24_winter","day_index":2,"geometry_role":"hover_geometry"},"geometry":{"type":"Polygon","coordinates":[[[-82.23,39.91],[-82.17,39.82],[-82.08,39.77],[-81.59,39.59],[-79.76,39.03],[-79.51,38.97],[-79.36,38.96],[-76.37,38.84],[-75.72,38.83],[-75.55,38.84],[-74.9,38.93],[-74.86,38.94],[-69.96,41.25],[-69.65,45.12],[-69.65,45.87],[-69.68,45.98],[-69.79,45.98],[-70.26,45.96],[-74.83,45.02],[-74.98,44.98],[-75.22,44.88],[-79.05,43.27],[-81.97,41.51],[-82.17,41.14],[-82.22,40.67],[-82.23,39.95],[-82.23,39.91]]]}},{"type":"Feature","id":"geom_evt_20260118_upper_midwest_2026_01_18_winter_d1_hover","properties":{"event_id":"evt_20260118_upper_midwest_2026_01_18_winter","day_index":1,"geometry_role":"hover_geometry"},"geometry":{"type":"Polygon","coordinates":[[[-99.85,48.02],[-99.81,47.85],[-98.01,45.94],[-96.25,45.76],[-95.76,45.76],[-95.55,47.15],[-95.55,47.67],[-95.59,48.17],[-96.41,49],[-99.53,49],[-99.85,48.37],[-99.85,48.02]]]}},{"type":"Feature","id":"geom_evt_20260123_gulf_coast_2026_01_23_winter_d1_hover","properties":{"event_id":"evt_20260123_gulf_coast_2026_01_23_winter","day_index":1,"geometry_role":"hover_geometry"},"geometry":{"type":"Polygon","coordinates":[[[-100.24,31.63],[-100.12,30.29],[-99.3,30.29],[-97.16,30.46],[-97.12,30.47],[-96.57,30.69],[-96.5,30.72],[-95,31.43],[-94.94,31.47],[-94.88,31.52],[-94.87,31.53],[-94.98,32.12],[-94.99,32.14],[-97.09,32.27],[-98.56,32.26],[-100.23,32.08],[-100.24,32.07],[-100.24,31.63]]]}},{"type":"Feature","id":"geom_evt_20260124_gulf_coast_2026_01_24_winter_d1_hover","properties":{"event_id":"evt_20260123_gulf_coast_2026_01_23_winter","day_index":2,"geometry_role":"hover_geometry"},"geometry":{"type":"Polygon","coordinates":[[[-100.05,29.7],[-100.01,29.62],[-96.31,28.96],[-91.37,30.06],[-91.03,32.1],[-91.03,32.12],[-91.12,32.24],[-91.13,32.25],[-91.18,32.25],[-93.19,32.15],[-94.51,31.97],[-98.96,30.92],[-99.75,30.29],[-99.97,30.08],[-99.99,30.03],[-100.03,29.85],[-100.04,29.78],[-100.05,29.71],[-100.05,29.7]]]}},{"type":"Feature","id":"geom_evt_20260125_gulf_coast_2026_01_25_winter_d1_hover","properties":{"event_id":"evt_20260123_gulf_coast_2026_01_23_winter","day_index":3,"geometry_role":"hover_geometry"},"geometry":{"type":"Polygon","coordinates":[[[-98.8,28.06],[-97.14,27.9],[-97.09,27.91],[-91.13,30.05],[-91.11,30.06],[-90.55,30.44],[-89.84,31],[-89.65,31.78],[-89.65,32.01],[-89.66,32.05],[-90.72,32.05],[-91.33,31.86],[-91.69,31.74],[-98.8,28.64],[-98.8,28.06]]]}},{"type":"Feature","id":"geom_evt_20260123_central_plains_2026_01_23_winter_d1_hover","properties":{"event_id":"evt_20260123_central_plains_2026_01_23_winter","day_index":1,"geometry_role":"hover_geometry"},"geometry":{"type":"Polygon","coordinates":[[[-105.31,34.35],[-104.92,30.77],[-104.89,30.7],[-103.79,29.33],[-103.42,29.13],[-103.32,29.09],[-100.12,30.29],[-99.99,32.96],[-99.99,33.66],[-100,37],[-100.25,38.7],[-101.13,38.7],[-102.04,38.26],[-105.29,35.22],[-105.31,34.61],[-105.31,34.35]]]}},{"type":"Feature","id":"geom_evt_20260125_northeast_2026_01_25_winter_d1_hover","properties":{"event_id":"evt_20260125_northeast_2026_01_25_winter","day_index":1,"geometry_role":"hover_geometry"},"geometry":{"type":"Polygon","coordinates":[[[-70.13,44.37],[-70.05,43.99],[-70.02,43.94],[-69.86,43.7],[-69.85,43.7],[-68.85,43.78],[-68.74,43.88],[-68.6,44.01],[-68.6,44.09],[-68.81,44.68],[-68.82,44.69],[-69.35,45.07],[-69.66,45.12],[-69.76,45.06],[-69.94,44.95],[-70.08,44.86],[-70.13,44.49],[-70.13,44.37]]]}},{"type":"Feature","id":"geom_evt_20260126_northeast_2026_01_26_winter_d1_hover","properties":{"event_id":"evt_20260125_northeast_2026_01_25_winter","day_index":2,"geometry_role":"hover_geometry"},"geometry":{"type":"Polygon","coordinates":[[[-69.81,45.74],[-69.78,45.54],[-69.66,45.1],[-69.62,45.01],[-68.87,44.21],[-68.69,44.12],[-68.52,44.1],[-68.33,44.1],[-68.24,44.14],[-67.57,44.45],[-67.26,44.6],[-67.19,44.64],[-67.16,44.66],[-66.95,44.81],[-66.95,44.82],[-66.98,44.91],[-67.79,47.07],[-67.95,47.2],[-68.02,47.24],[-68.09,47.28],[-68.1,47.28],[-69.72,46.57],[-69.81,45.74]]]}},{"type":"Feature","id":"geom_evt_20260108_southern_plains_2026_01_08_severe_d1_hover","properties":{"event_id":"evt_20260108_southern_plains_2026_01_08_severe","day_index":1,"geometry_role":"hover_geometry"},"geometry":{"type":"Polygon","coordinates":[[[-95.4,35.05],[-94.2,35.12],[-93.87,36.31],[-94.01,37.74],[-94.19,38.09],[-94.65,38.1],[-95.18,37.72],[-95.4,35.05]]]}},{"type":"Feature","id":"geom_evt_20260109_gulf_coast_2026_01_09_severe_d1_hover","properties":{"event_id":"evt_20260109_gulf_coast_2026_01_09_severe","day_index":1,"geometry_role":"hover_geometry"},"geometry":{"type":"Polygon","coordinates":[[[-96.49,30.64],[-96.48,30.21],[-96.3,29.88],[-91.08,28.73],[-90.74,28.71],[-90.54,28.71],[-90.1,28.76],[-89.78,28.83],[-86.25,31.72],[-85.88,32.85],[-87.98,33.79],[-89.51,33.85],[-94.06,32.54],[-95.61,31.82],[-96.49,30.64]]]}},{"type":"Feature","id":"geom_evt_20260110_southeast_2026_01_10_severe_d1_hover","properties":{"event_id":"evt_20260110_southeast_2026_01_10_severe","day_index":1,"geometry_role":"hover_geometry"},"geometry":{"type":"Polygon","coordinates":[[[-86.42,32.01],[-85.57,31.97],[-84.86,32.59],[-84.45,33.52],[-84.62,33.53],[-86.42,32.01]]]}},{"type":"Feature","id":"geom_evt_20260125_southeast_2026_01_25_severe_d1_hover","properties":{"event_id":"evt_20260125_southeast_2026_01_25_severe","day_index":1,"geometry_role":"hover_geometry"},"geometry":{"type":"Polygon","coordinates":[[[-88.95,28.69],[-85.02,29.25],[-84.47,29.44],[-84.23,29.59],[-83.65,30.37],[-83.31,31.02],[-83.6,31.82],[-84.58,32.36],[-85.69,32.32],[-87.22,31.88],[-88.32,31.23],[-88.93,30.37],[-88.95,28.69]]]}}]}