{"type":"FeatureCollection","features":[{"type":"Feature","id":"geom_evt_20260518_central_plains_2026_05_18_fire_d1_hover","properties":{"event_id":"evt_20260518_central_plains_2026_05_18_fire","day_index":1,"geometry_role":"hover_geometry"},"geometry":{"type":"Polygon","coordinates":[[[-108.33,31.7],[-108.19,31.65],[-106.36,31.6],[-105.78,31.61],[-104.75,31.64],[-102.2,32.02],[-101.16,32.25],[-100.54,32.78],[-100.17,33.36],[-99.74,34.47],[-99.66,35.75],[-99.6,37.01],[-99.57,37.73],[-99.74,38],[-100.15,38.09],[-101.09,38.03],[-102.5,37.91],[-103.72,37.57],[-105.66,36.04],[-107.15,33.94],[-108.03,32.57],[-108.27,32.01],[-108.33,31.7]]]}},{"type":"Feature","id":"geom_evt_20260517_southwest_2026_05_17_fire_d1_hover","properties":{"event_id":"evt_20260517_southwest_2026_05_17_fire","day_index":1,"geometry_role":"hover_geometry"},"geometry":{"type":"Polygon","coordinates":[[[-122.76,40],[-122.56,39.51],[-122.22,38.91],[-121.75,38.22],[-121.38,37.85],[-109.2,31.31],[-109.08,31.31],[-108.21,31.31],[-101.79,32.61],[-101.41,32.75],[-101.05,33.35],[-99.17,38.22],[-99.1,38.69],[-99.32,38.93],[-99.53,38.96],[-122.46,40.53],[-122.67,40.36],[-122.76,40]]]}},{"type":"Feature","id":"geom_evt_20260518_southern_plains_2026_05_18_severe_d1_hover","properties":{"event_id":"evt_20260518_southern_plains_2026_05_18_severe","day_index":1,"geometry_role":"hover_geometry"},"geometry":{"type":"Polygon","coordinates":[[[-98.82,38],[-98.35,37.47],[-97.31,37.48],[-96.23,38.29],[-94.68,40.13],[-94.67,40.65],[-95.19,40.83],[-96.62,40.52],[-97.67,39.47],[-98.82,38]]]}},{"type":"Feature","id":"geom_evt_20260519_southern_plains_2026_05_19_severe_d1_hover","properties":{"event_id":"evt_20260518_southern_plains_2026_05_18_severe","day_index":2,"geometry_role":"hover_geometry"},"geometry":{"type":"Polygon","coordinates":[[[-103.03,29.01],[-100.14,28.15],[-98.19,28.51],[-96.78,29.05],[-77.15,42.54],[-75.93,43.42],[-75.92,44.18],[-76.01,44.35],[-82.14,43.84],[-82.6,43.58],[-102.44,31.33],[-102.79,30.58],[-103.03,29.01]]]}},{"type":"Feature","id":"geom_evt_20260528_southern_california_2026_05_28_winter_d1_hover","properties":{"event_id":"evt_20260528_southern_california_2026_05_28_winter","day_index":1,"geometry_role":"hover_geometry"},"geometry":{"type":"Polygon","coordinates":[[[-119.66,38.24],[-119.46,37.73],[-119.19,37.22],[-118.55,36.41],[-118.46,36.36],[-118.24,36.41],[-118.21,36.45],[-118.21,36.63],[-118.27,36.81],[-118.33,36.98],[-118.58,37.31],[-119.53,38.44],[-119.61,38.44],[-119.64,38.42],[-119.66,38.24]]]}},{"type":"Feature","id":"geom_evt_20260511_northern_plains_2026_05_11_fire_d1_hover","properties":{"event_id":"evt_20260511_northern_plains_2026_05_11_fire","day_index":1,"geometry_role":"hover_geometry"},"geometry":{"type":"Polygon","coordinates":[[[-106.34,48.11],[-106.21,47.5],[-105.58,47.1],[-104.08,46.8],[-102.66,46.6],[-101.75,46.8],[-101.25,47.36],[-100.9,48.02],[-100.94,48.19],[-101.02,48.37],[-101.32,48.47],[-103.93,48.78],[-105,48.78],[-105.95,48.59],[-106.34,48.11]]]}},{"type":"Feature","id":"geom_evt_20260513_northern_rockies_2026_05_13_fire_d1_hover","properties":{"event_id":"evt_20260513_northern_rockies_2026_05_13_fire","day_index":1,"geometry_role":"hover_geometry"},"geometry":{"type":"Polygon","coordinates":[[[-109.07,49],[-109.01,48.69],[-108.62,47.87],[-108.23,47.15],[-107.84,46.98],[-106.2,46.71],[-104.9,46.58],[-104.29,46.87],[-103.71,47.68],[-103.37,48.4],[-103.56,48.77],[-103.85,48.99],[-105.6,49.01],[-109.07,49]]]}},{"type":"Feature","id":"geom_evt_20260515_central_plains_2026_05_15_fire_d1_hover","properties":{"event_id":"evt_20260515_central_plains_2026_05_15_fire","day_index":1,"geometry_role":"hover_geometry"},"geometry":{"type":"Polygon","coordinates":[[[-106.61,46.51],[-105.84,32.48],[-105.66,32.11],[-104.89,32.03],[-103.88,32.04],[-103.01,32.18],[-101.93,32.51],[-99.89,33.59],[-99.47,34.12],[-96.24,46.41],[-96.19,47.14],[-97.75,47.68],[-101.36,47.73],[-106.34,47.16],[-106.61,46.51]]]}},{"type":"Feature","id":"geom_evt_20260516_central_plains_2026_05_16_fire_d1_hover","properties":{"event_id":"evt_20260515_central_plains_2026_05_15_fire","day_index":2,"geometry_role":"hover_geometry"},"geometry":{"type":"Polygon","coordinates":[[[-105.77,32.98],[-105.73,32.52],[-105.44,32.17],[-104.98,32.05],[-104.29,32.06],[-103.47,32.18],[-102.45,32.52],[-101.7,32.92],[-101.09,33.34],[-100.58,33.9],[-100.35,34.43],[-100.47,34.94],[-100.82,35.28],[-101.26,35.41],[-101.87,35.45],[-102.62,35.34],[-105.33,33.57],[-105.77,32.98]]]}},{"type":"Feature","id":"geom_evt_20260525_northern_california_2026_05_25_fire_d1_hover","properties":{"event_id":"evt_20260525_northern_california_2026_05_25_fire","day_index":1,"geometry_role":"hover_geometry"},"geometry":{"type":"Polygon","coordinates":[[[-119.96,40.71],[-119.92,40.22],[-119.68,39.85],[-119.2,39.89],[-117.13,42.42],[-117.03,43.42],[-117.13,43.7],[-117.31,43.98],[-117.47,44.19],[-117.71,44.26],[-118.36,44.1],[-118.96,43.82],[-119.65,43.44],[-119.78,43.01],[-119.96,40.71]]]}},{"type":"Feature","id":"geom_evt_20260506_southeast_2026_05_06_rain_d1_hover","properties":{"event_id":"evt_20260506_southeast_2026_05_06_rain","day_index":1,"geometry_role":"hover_geometry"},"geometry":{"type":"Polygon","coordinates":[[[-91.38,31.43],[-91.33,31.34],[-90.38,31.36],[-88.93,31.49],[-86.38,32.15],[-86.05,32.27],[-85.99,32.36],[-86.24,32.51],[-87.09,32.69],[-87.9,32.72],[-89.31,32.51],[-90.34,32.27],[-90.72,32.1],[-91.27,31.61],[-91.38,31.43]]]}},{"type":"Feature","id":"geom_evt_20260518_southern_plains_2026_05_18_rain_d1_hover","properties":{"event_id":"evt_20260518_southern_plains_2026_05_18_rain","day_index":1,"geometry_role":"hover_geometry"},"geometry":{"type":"Polygon","coordinates":[[[-96.49,39.5],[-96.42,38.39],[-96.13,37.73],[-95.67,37.19],[-95,36.93],[-94.16,36.79],[-92.94,36.87],[-91.81,37.08],[-91.41,37.29],[-91.35,37.56],[-93.44,40.6],[-94.02,40.87],[-95.23,40.87],[-95.98,40.65],[-96.27,40.29],[-96.49,39.5]]]}},{"type":"Feature","id":"geom_evt_20260505_northern_rockies_2026_05_05_winter_d1_hover","properties":{"event_id":"evt_20260505_northern_rockies_2026_05_05_winter","day_index":1,"geometry_role":"hover_geometry"},"geometry":{"type":"Polygon","coordinates":[[[-106.78,41.76],[-106.5,40.31],[-106.24,40.12],[-105.53,39.93],[-105.4,39.91],[-105.22,39.91],[-104.67,41.03],[-104.67,41.04],[-104.93,41.58],[-104.94,41.6],[-104.99,41.66],[-106.11,41.86],[-106.35,41.9],[-106.41,41.9],[-106.75,41.79],[-106.77,41.78],[-106.78,41.77],[-106.78,41.76]]]}},{"type":"Feature","id":"geom_evt_20260518_northern_rockies_2026_05_18_winter_d1_hover","properties":{"event_id":"evt_20260518_northern_rockies_2026_05_18_winter","day_index":1,"geometry_role":"hover_geometry"},"geometry":{"type":"Polygon","coordinates":[[[-110.02,43.57],[-109.22,42.02],[-109.14,41.87],[-106.39,41],[-105.14,41],[-105.12,41.07],[-105.12,41.09],[-105.16,42.38],[-105.26,42.54],[-105.27,42.55],[-105.52,42.73],[-109.98,43.73],[-109.99,43.73],[-110,43.72],[-110.02,43.57]]]}},{"type":"Feature","id":"geom_evt_20260506_southeast_2026_05_06_severe_d1_hover","properties":{"event_id":"evt_20260506_southeast_2026_05_06_severe","day_index":1,"geometry_role":"hover_geometry"},"geometry":{"type":"Polygon","coordinates":[[[-91.77,32.3],[-91.69,31.59],[-91.24,31.21],[-88.85,31.36],[-87.03,31.87],[-85.9,32.61],[-85.77,33.33],[-86.21,33.71],[-89.93,33.03],[-91.77,32.3]]]}},{"type":"Feature","id":"geom_evt_20260507_southeast_2026_05_07_severe_d1_hover","properties":{"event_id":"evt_20260506_southeast_2026_05_06_severe","day_index":2,"geometry_role":"hover_geometry"},"geometry":{"type":"Polygon","coordinates":[[[-86.28,30],[-85.67,29.44],[-85.34,29.34],[-85.02,29.25],[-84.88,29.3],[-82.38,30.2],[-82.23,30.95],[-85.5,30.88],[-86.1,30.71],[-86.22,30.5],[-86.28,30]]]}},{"type":"Feature","id":"geom_evt_20260530_southern_plains_2026_05_30_severe_d1_hover","properties":{"event_id":"evt_20260530_southern_plains_2026_05_30_severe","day_index":1,"geometry_role":"hover_geometry"},"geometry":{"type":"Polygon","coordinates":[[[-99.55,39.12],[-99.54,37.7],[-99.26,37.01],[-98.67,37.01],[-97.92,37.36],[-97.25,37.97],[-97.24,39.1],[-98.15,40.01],[-99.49,39.99],[-99.55,39.12]]]}},{"type":"Feature","id":"geom_evt_20260531_southern_plains_2026_05_31_severe_d1_hover","properties":{"event_id":"evt_20260530_southern_plains_2026_05_30_severe","day_index":2,"geometry_role":"hover_geometry"},"geometry":{"type":"Polygon","coordinates":[[[-96.92,37.43],[-96.78,37.02],[-95.94,37.03],[-92,37.22],[-91.32,37.42],[-91.26,37.79],[-91.76,38.46],[-94.68,39.63],[-95.66,39.51],[-96.08,39.25],[-96.55,38.44],[-96.92,37.43]]]}},{"type":"Feature","id":"geom_evt_20260510_gulf_coast_2026_05_10_severe_d1_hover","properties":{"event_id":"evt_20260510_gulf_coast_2026_05_10_severe","day_index":1,"geometry_role":"hover_geometry"},"geometry":{"type":"Polygon","coordinates":[[[-101.86,32.01],[-101.31,31.27],[-100.51,30.61],[-100.03,30.35],[-98.63,30.06],[-96.84,30.49],[-96.32,30.96],[-96.6,31.75],[-97.37,32.78],[-98.18,33.28],[-99.77,33.26],[-101.72,32.49],[-101.86,32.01]]]}},{"type":"Feature","id":"geom_evt_20260515_upper_midwest_2026_05_15_severe_d1_hover","properties":{"event_id":"evt_20260515_upper_midwest_2026_05_15_severe","day_index":1,"geometry_role":"hover_geometry"},"geometry":{"type":"Polygon","coordinates":[[[-95.91,42.16],[-95.71,41.22],[-95.42,40.93],[-93.86,40.8],[-91.91,41.16],[-91.25,41.42],[-90.87,42.18],[-91.05,42.58],[-92.23,43.22],[-92.44,43.31],[-93.18,43.35],[-94.53,43.21],[-95.32,43.02],[-95.77,42.62],[-95.91,42.16]]]}},{"type":"Feature","id":"geom_evt_20260516_upper_midwest_2026_05_16_severe_d1_hover","properties":{"event_id":"evt_20260515_upper_midwest_2026_05_15_severe","day_index":2,"geometry_role":"hover_geometry"},"geometry":{"type":"Polygon","coordinates":[[[-102.8,40.64],[-102.68,39.7],[-102.33,39.04],[-101.52,38.92],[-99.55,39.1],[-97.96,39.51],[-96.62,40.23],[-96.58,40.72],[-96.88,41.01],[-98.23,41.31],[-100.24,41.48],[-102.38,41.09],[-102.8,40.64]]]}},{"type":"Feature","id":"geom_evt_20260517_upper_midwest_2026_05_17_severe_d1_hover","properties":{"event_id":"evt_20260515_upper_midwest_2026_05_15_severe","day_index":3,"geometry_role":"hover_geometry"},"geometry":{"type":"Polygon","coordinates":[[[-103.47,39.45],[-103.2,39.13],[-98.63,38.76],[-97.91,38.8],[-97.04,39.23],[-95.81,39.85],[-93.28,42.51],[-92.92,42.93],[-92.66,43.53],[-92.78,44.01],[-93.45,44.31],[-94.79,44.43],[-97.01,44.12],[-97.45,43.88],[-103.45,39.89],[-103.47,39.45]]]}},{"type":"Feature","id":"geom_evt_20260530_northern_rockies_2026_05_30_winter_d1_hover","properties":{"event_id":"evt_20260530_northern_rockies_2026_05_30_winter","day_index":1,"geometry_role":"hover_geometry"},"geometry":{"type":"Polygon","coordinates":[[[-110.93,40.69],[-110.77,40.61],[-110.31,40.65],[-110.08,40.68],[-109.87,40.78],[-110.35,40.94],[-110.59,40.96],[-110.68,40.89],[-110.93,40.69]]]}},{"type":"Feature","id":"geom_evt_20260527_northern_california_2026_05_27_winter_d1_hover","properties":{"event_id":"evt_20260527_northern_california_2026_05_27_winter","day_index":1,"geometry_role":"hover_geometry"},"geometry":{"type":"Polygon","coordinates":[[[-117.49,38.9],[-117.43,38.73],[-117.36,38.69],[-117.32,38.74],[-117.33,38.92],[-117.44,39.05],[-117.49,38.9]]]}},{"type":"Feature","id":"geom_evt_20260502_southeast_2026_05_02_severe_d1_hover","properties":{"event_id":"evt_20260502_southeast_2026_05_02_severe","day_index":1,"geometry_role":"hover_geometry"},"geometry":{"type":"Polygon","coordinates":[[[-83.35,28.97],[-83.18,27.78],[-83.1,27.53],[-82.93,27.24],[-82.2,27.61],[-80.59,29.21],[-81.06,30.54],[-81.5,30.5],[-83.35,28.97]]]}},{"type":"Feature","id":"geom_evt_20260520_southeast_2026_05_20_severe_d1_hover","properties":{"event_id":"evt_20260520_southeast_2026_05_20_severe","day_index":1,"geometry_role":"hover_geometry"},"geometry":{"type":"Polygon","coordinates":[[[-104.14,30.8],[-103.83,29.76],[-103.36,29],[-100.33,28.4],[-74.15,39.15],[-71.17,40.87],[-71.44,41.36],[-71.85,41.56],[-72.59,41.61],[-77.15,40.84],[-82.43,39.13],[-102.65,32.19],[-103.44,31.9],[-104.07,31.25],[-104.14,30.8]]]}},{"type":"Feature","id":"geom_evt_20260504_southern_plains_2026_05_04_severe_d1_hover","properties":{"event_id":"evt_20260504_southern_plains_2026_05_04_severe","day_index":1,"geometry_role":"hover_geometry"},"geometry":{"type":"Polygon","coordinates":[[[-95.9,39.05],[-95.59,38.46],[-93.93,38.01],[-92.63,38.14],[-90.21,38.64],[-83.09,40.86],[-82.83,41.43],[-83.32,41.87],[-84.75,42.05],[-87.03,41.66],[-95.52,39.62],[-95.82,39.37],[-95.9,39.05]]]}},{"type":"Feature","id":"geom_evt_20260505_southern_plains_2026_05_05_severe_d1_hover","properties":{"event_id":"evt_20260504_southern_plains_2026_05_04_severe","day_index":2,"geometry_role":"hover_geometry"},"geometry":{"type":"Polygon","coordinates":[[[-97.95,32.7],[-97.91,32.26],[-97.5,31.96],[-95.85,32.03],[-89.13,34.57],[-88.7,34.96],[-88.42,35.37],[-88.67,35.95],[-89.53,36.28],[-92.45,36.45],[-93.98,35.99],[-94.55,35.62],[-97.95,32.7]]]}},{"type":"Feature","id":"geom_evt_20260508_southern_plains_2026_05_08_severe_d1_hover","properties":{"event_id":"evt_20260508_southern_plains_2026_05_08_severe","day_index":1,"geometry_role":"hover_geometry"},"geometry":{"type":"Polygon","coordinates":[[[-99.13,34.53],[-98.91,33.87],[-98.49,33.48],[-97.31,33.23],[-95.75,33.24],[-94.74,33.6],[-94.56,34.52],[-94.64,36.63],[-94.73,37.26],[-95.06,37.58],[-95.57,37.7],[-97.23,36.76],[-98.71,35.79],[-99.13,34.53]]]}},{"type":"Feature","id":"geom_evt_20260509_southern_plains_2026_05_09_severe_d1_hover","properties":{"event_id":"evt_20260508_southern_plains_2026_05_08_severe","day_index":2,"geometry_role":"hover_geometry"},"geometry":{"type":"Polygon","coordinates":[[[-99.98,34.58],[-99.79,33.81],[-99.2,33.54],[-97.88,33.54],[-97.42,33.98],[-96.7,35.2],[-96.6,36],[-96.8,36.29],[-97.58,36.94],[-98.26,37.02],[-99.26,36.99],[-99.75,36.9],[-99.98,36.54],[-99.98,34.58]]]}},{"type":"Feature","id":"geom_evt_20260514_southern_plains_2026_05_14_severe_d1_hover","properties":{"event_id":"evt_20260514_southern_plains_2026_05_14_severe","day_index":1,"geometry_role":"hover_geometry"},"geometry":{"type":"Polygon","coordinates":[[[-102.53,34.34],[-102.42,33.23],[-101.38,33.11],[-100.39,33.22],[-95.04,38.87],[-95.42,39.35],[-96.18,39.75],[-97.4,39.82],[-98.36,39.77],[-99.18,39.43],[-99.79,38.97],[-100.92,37.9],[-102.29,35.29],[-102.53,34.34]]]}},{"type":"Feature","id":"geom_evt_20260523_southern_plains_2026_05_23_severe_d1_hover","properties":{"event_id":"evt_20260523_southern_plains_2026_05_23_severe","day_index":1,"geometry_role":"hover_geometry"},"geometry":{"type":"Polygon","coordinates":[[[-103.03,35.96],[-101.95,31.12],[-101.2,31.07],[-91.37,30.81],[-89.96,30.99],[-88.96,31.56],[-88.83,32.64],[-89.57,33.3],[-90.28,33.69],[-101.63,36.5],[-102.9,36.54],[-103.03,35.96]]]}},{"type":"Feature","id":"geom_evt_20260513_northern_rockies_2026_05_13_severe_d1_hover","properties":{"event_id":"evt_20260513_northern_rockies_2026_05_13_severe","day_index":1,"geometry_role":"hover_geometry"},"geometry":{"type":"Polygon","coordinates":[[[-113.47,41.44],[-113.27,40.46],[-112.06,39.83],[-110.84,40.07],[-109.69,41.27],[-108.9,42.35],[-106.98,47.36],[-106.85,47.74],[-106.81,48.3],[-106.99,48.96],[-107.01,49],[-109.64,49],[-112.11,49],[-113.35,43.41],[-113.47,41.44]]]}},{"type":"Feature","id":"geom_evt_20260524_upper_midwest_2026_05_24_severe_d1_hover","properties":{"event_id":"evt_20260524_upper_midwest_2026_05_24_severe","day_index":1,"geometry_role":"hover_geometry"},"geometry":{"type":"Polygon","coordinates":[[[-98,43.1],[-97.86,42.5],[-97.34,42.14],[-96.55,42.28],[-95.9,42.58],[-95.52,42.97],[-95.13,43.49],[-94.87,44.18],[-95.24,44.62],[-96.07,44.67],[-97.21,44.05],[-98,43.1]]]}},{"type":"Feature","id":"geom_evt_20260521_central_plains_2026_05_21_severe_d1_hover","properties":{"event_id":"evt_20260521_central_plains_2026_05_21_severe","day_index":1,"geometry_role":"hover_geometry"},"geometry":{"type":"Polygon","coordinates":[[[-104.25,40.03],[-104.2,39.13],[-103.86,37.13],[-103.63,36.8],[-103.35,36.55],[-102.79,36.45],[-102,36.5],[-101.55,36.78],[-101.38,37.24],[-102.28,40.62],[-102.57,40.93],[-103.07,41.02],[-103.64,40.98],[-104,40.76],[-104.16,40.45],[-104.25,40.03]]]}},{"type":"Feature","id":"geom_evt_20260522_central_plains_2026_05_22_severe_d1_hover","properties":{"event_id":"evt_20260521_central_plains_2026_05_21_severe","day_index":2,"geometry_role":"hover_geometry"},"geometry":{"type":"Polygon","coordinates":[[[-102.91,34.91],[-102.75,34.4],[-100.97,32.2],[-100.34,32.09],[-99.32,32.61],[-98.93,33.41],[-98.84,34.39],[-98.85,35.55],[-99.67,36.15],[-100.16,36.4],[-101.16,36.18],[-102.77,35.45],[-102.91,34.91]]]}},{"type":"Feature","id":"geom_evt_20260526_central_plains_2026_05_26_severe_d1_hover","properties":{"event_id":"evt_20260526_central_plains_2026_05_26_severe","day_index":1,"geometry_role":"hover_geometry"},"geometry":{"type":"Polygon","coordinates":[[[-102.49,29.77],[-99.36,26.92],[-98.9,28.6],[-98.79,29.37],[-98.86,30.6],[-99.3,31.36],[-99.94,31.97],[-100.46,32.27],[-101.26,32.21],[-101.76,31.69],[-102.48,30.29],[-102.49,29.77]]]}},{"type":"Feature","id":"geom_evt_20260529_central_plains_2026_05_29_severe_d1_hover","properties":{"event_id":"evt_20260529_central_plains_2026_05_29_severe","day_index":1,"geometry_role":"hover_geometry"},"geometry":{"type":"Polygon","coordinates":[[[-102.66,30.76],[-102.31,30.38],[-101.82,30.35],[-101.42,30.59],[-101.16,30.93],[-97.76,36.13],[-97.53,36.67],[-97.81,37.28],[-99.47,37.33],[-101.03,36.32],[-101.99,35.32],[-102.16,34.9],[-102.66,30.76]]]}},{"type":"Feature","id":"geom_evt_20260527_mid_atlantic_2026_05_27_severe_d1_hover","properties":{"event_id":"evt_20260527_mid_atlantic_2026_05_27_severe","day_index":1,"geometry_role":"hover_geometry"},"geometry":{"type":"Polygon","coordinates":[[[-83.04,38.63],[-82.82,38.24],[-82.49,37.96],[-79.2,37.03],[-77.01,36.68],[-75.52,36.57],[-74.77,38.23],[-76.62,38.67],[-81.43,39.61],[-82.16,39.57],[-82.77,39.34],[-82.99,39.05],[-83.04,38.63]]]}},{"type":"Feature","id":"geom_evt_20260528_pacific_northwest_2026_05_28_severe_d1_hover","properties":{"event_id":"evt_20260528_pacific_northwest_2026_05_28_severe","day_index":1,"geometry_role":"hover_geometry"},"geometry":{"type":"Polygon","coordinates":[[[-121.71,43.8],[-121.62,43.52],[-116.78,42.11],[-115.82,42.19],[-115.43,42.83],[-116.37,46.54],[-117.57,49.01],[-117.74,49.02],[-120.05,49],[-121.29,46.36],[-121.68,45.24],[-121.71,43.8]]]}}]}