{"type":"FeatureCollection","features":[{"type":"Feature","id":"geom_evt_20260604_southern_plains_severe_d1_hover","properties":{"event_id":"evt_20260604_southern_plains_severe","day_index":1,"geometry_role":"hover_geometry"},"geometry":{"type":"Polygon","coordinates":[[[-103.5,33],[-103,30],[-101,29.5],[-96,30.5],[-93,32],[-92,35],[-93,38],[-96,39],[-100,38.5],[-103,36],[-103.5,33]]]}},{"type":"Feature","id":"geom_evt_20260605_midwest_severe_d2_hover","properties":{"event_id":"evt_20260605_midwest_severe","day_index":2,"geometry_role":"hover_geometry"},"geometry":{"type":"Polygon","coordinates":[[[-94.5,40],[-94,38],[-91,37.5],[-86,38.5],[-85,41],[-85.5,44],[-88,45.5],[-92,45],[-94.5,43],[-94.5,40]]]}},{"type":"Feature","id":"geom_evt_20260604_central_winter_storm_d1_hover","properties":{"event_id":"evt_20260604_central_winter_storm","day_index":1,"geometry_role":"hover_geometry"},"geometry":{"type":"Polygon","coordinates":[[[-104.5,41],[-104,35],[-100,34.5],[-95,36],[-92,39],[-92.5,43],[-96,44.5],[-101,44],[-104.5,41]]]}},{"type":"Feature","id":"geom_evt_20260604_central_winter_storm_d2_hover","properties":{"event_id":"evt_20260604_central_winter_storm","day_index":2,"geometry_role":"hover_geometry"},"geometry":{"type":"Polygon","coordinates":[[[-94.5,42],[-94,37],[-90,36.5],[-85,38],[-83,41],[-84,45],[-88,46.5],[-93,45.5],[-94.5,42]]]}},{"type":"Feature","id":"geom_evt_20260604_central_winter_storm_d3_hover","properties":{"event_id":"evt_20260604_central_winter_storm","day_index":3,"geometry_role":"hover_geometry"},"geometry":{"type":"Polygon","coordinates":[[[-84.5,43],[-84,39],[-80,38.5],[-73,40],[-71,42],[-72,45],[-76,46.5],[-82,46],[-84.5,43]]]}},{"type":"Feature","id":"geom_evt_20260605_pnw_winter_d2_hover","properties":{"event_id":"evt_20260605_pnw_winter","day_index":2,"geometry_role":"hover_geometry"},"geometry":{"type":"Polygon","coordinates":[[[-124.5,45],[-122,44.5],[-118,45.5],[-117.5,48],[-119,49.5],[-122.5,49],[-124.5,47.5],[-124.5,45]]]}},{"type":"Feature","id":"geom_evt_20260604_southwest_fire_d1_hover","properties":{"event_id":"evt_20260604_southwest_fire","day_index":1,"geometry_role":"hover_geometry"},"geometry":{"type":"Polygon","coordinates":[[[-117.5,35],[-117,32],[-114,31.5],[-108,32],[-104,33.5],[-104,36.5],[-107,37.5],[-114,37],[-117.5,35]]]}},{"type":"Feature","id":"geom_evt_20260604_southwest_fire_d2_hover","properties":{"event_id":"evt_20260604_southwest_fire","day_index":2,"geometry_role":"hover_geometry"},"geometry":{"type":"Polygon","coordinates":[[[-116.5,35.5],[-116,32.5],[-113,32],[-107,32.5],[-104.5,34],[-104.5,37],[-107.5,38],[-113.5,37.5],[-116.5,35.5]]]}},{"type":"Feature","id":"geom_evt_20260604_southwest_fire_d3_hover","properties":{"event_id":"evt_20260604_southwest_fire","day_index":3,"geometry_role":"hover_geometry"},"geometry":{"type":"Polygon","coordinates":[[[-115.5,36],[-115,33],[-112,32.5],[-106,33],[-105,34.5],[-105,37.5],[-108,38.5],[-113,38],[-115.5,36]]]}},{"type":"Feature","id":"geom_evt_20260604_nm_wildfires_d1_hover","properties":{"event_id":"evt_20260604_nm_wildfires","day_index":1,"geometry_role":"hover_geometry"},"geometry":{"type":"Polygon","coordinates":[[[-107.3,36.5],[-107,35.5],[-106,35.2],[-104.5,35.8],[-104.2,36.8],[-105,37.3],[-106.5,37.2],[-107.3,36.5]]]}},{"type":"Feature","id":"geom_evt_20260604_nm_wildfires_d2_hover","properties":{"event_id":"evt_20260604_nm_wildfires","day_index":2,"geometry_role":"hover_geometry"},"geometry":{"type":"Polygon","coordinates":[[[-107.3,36.5],[-107,35.5],[-106,35.2],[-104.5,35.8],[-104.2,36.8],[-105,37.3],[-106.5,37.2],[-107.3,36.5]]]}},{"type":"Feature","id":"geom_evt_20260604_nm_wildfires_d3_hover","properties":{"event_id":"evt_20260604_nm_wildfires","day_index":3,"geometry_role":"hover_geometry"},"geometry":{"type":"Polygon","coordinates":[[[-107.3,36.5],[-107,35.5],[-106,35.2],[-104.5,35.8],[-104.2,36.8],[-105,37.3],[-106.5,37.2],[-107.3,36.5]]]}},{"type":"Feature","id":"geom_evt_20260604_nm_wildfires_d4_hover","properties":{"event_id":"evt_20260604_nm_wildfires","day_index":4,"geometry_role":"hover_geometry"},"geometry":{"type":"Polygon","coordinates":[[[-107.3,36.5],[-107,35.5],[-106,35.2],[-104.5,35.8],[-104.2,36.8],[-105,37.3],[-106.5,37.2],[-107.3,36.5]]]}},{"type":"Feature","id":"geom_evt_20260604_nm_wildfires_d5_hover","properties":{"event_id":"evt_20260604_nm_wildfires","day_index":5,"geometry_role":"hover_geometry"},"geometry":{"type":"Polygon","coordinates":[[[-107.3,36.5],[-107,35.5],[-106,35.2],[-104.5,35.8],[-104.2,36.8],[-105,37.3],[-106.5,37.2],[-107.3,36.5]]]}},{"type":"Feature","id":"geom_evt_20260604_nm_wildfires_d6_hover","properties":{"event_id":"evt_20260604_nm_wildfires","day_index":6,"geometry_role":"hover_geometry"},"geometry":{"type":"Polygon","coordinates":[[[-107.3,36.5],[-107,35.5],[-106,35.2],[-104.5,35.8],[-104.2,36.8],[-105,37.3],[-106.5,37.2],[-107.3,36.5]]]}},{"type":"Feature","id":"geom_evt_2026_al05_erin_d1_hover","properties":{"event_id":"evt_2026_al05_erin","day_index":1,"geometry_role":"hover_geometry"},"geometry":{"type":"Polygon","coordinates":[[[-94,25],[-92,23],[-85,23.5],[-83,26],[-84,29],[-88,29.5],[-93,28],[-94,25]]]}},{"type":"Feature","id":"geom_evt_2026_al05_erin_d2_hover","properties":{"event_id":"evt_2026_al05_erin","day_index":2,"geometry_role":"hover_geometry"},"geometry":{"type":"Polygon","coordinates":[[[-93.5,28],[-93,26],[-86,26.5],[-84.5,29],[-85.5,31.5],[-89,31.5],[-92.5,30],[-93.5,28]]]}},{"type":"Feature","id":"geom_evt_2026_al05_erin_d3_hover","properties":{"event_id":"evt_2026_al05_erin","day_index":3,"geometry_role":"hover_geometry"},"geometry":{"type":"Polygon","coordinates":[[[-92.5,32],[-92,30],[-85,30.5],[-83,33],[-84,35.5],[-88,35.5],[-91.5,34],[-92.5,32]]]}},{"type":"Feature","id":"geom_evt_2026_al05_erin_d4_hover","properties":{"event_id":"evt_2026_al05_erin","day_index":4,"geometry_role":"hover_geometry"},"geometry":{"type":"Polygon","coordinates":[[[-89.5,34.5],[-89,33],[-81,33.5],[-79,36],[-80,38.5],[-85,38],[-88.5,36.5],[-89.5,34.5]]]}},{"type":"Feature","id":"geom_evt_2026_al05_erin_d5_hover","properties":{"event_id":"evt_2026_al05_erin","day_index":5,"geometry_role":"hover_geometry"},"geometry":{"type":"Polygon","coordinates":[[[-84.5,37],[-84,35],[-76,35.5],[-73,38],[-74,41],[-79,41],[-83.5,39],[-84.5,37]]]}},{"type":"Feature","id":"geom_evt_2026_al_invest_92l_d3_hover","properties":{"event_id":"evt_2026_al_invest_92l","day_index":3,"geometry_role":"hover_geometry"},"geometry":{"type":"Polygon","coordinates":[[[-57,14],[-56,12],[-49,12.5],[-46,15],[-47,18],[-52,18.5],[-56.5,17],[-57,14]]]}},{"type":"Feature","id":"geom_evt_2026_al_invest_92l_d4_hover","properties":{"event_id":"evt_2026_al_invest_92l","day_index":4,"geometry_role":"hover_geometry"},"geometry":{"type":"Polygon","coordinates":[[[-61,15],[-60,13],[-53,13.5],[-50,16],[-51,19],[-56,19.5],[-60.5,18],[-61,15]]]}},{"type":"Feature","id":"geom_evt_2026_al_invest_92l_d5_hover","properties":{"event_id":"evt_2026_al_invest_92l","day_index":5,"geometry_role":"hover_geometry"},"geometry":{"type":"Polygon","coordinates":[[[-65,16],[-64,14],[-57,14.5],[-54,17],[-55,20],[-60,20.5],[-64.5,19],[-65,16]]]}},{"type":"Feature","id":"geom_evt_2026_al_invest_92l_d6_hover","properties":{"event_id":"evt_2026_al_invest_92l","day_index":6,"geometry_role":"hover_geometry"},"geometry":{"type":"Polygon","coordinates":[[[-69,17],[-68,15],[-61,15.5],[-58,18],[-59,21],[-64,21.5],[-68.5,20],[-69,17]]]}},{"type":"Feature","id":"geom_evt_20260604_appalachian_rain_d1_hover","properties":{"event_id":"evt_20260604_appalachian_rain","day_index":1,"geometry_role":"hover_geometry"},"geometry":{"type":"Polygon","coordinates":[[[-85.5,35.5],[-85,34],[-82,33.5],[-79.5,34.5],[-79.5,36.5],[-81,37.5],[-84,37],[-85.5,35.5]]]}},{"type":"Feature","id":"geom_evt_20260605_upper_midwest_rain_d2_hover","properties":{"event_id":"evt_20260605_upper_midwest_rain","day_index":2,"geometry_role":"hover_geometry"},"geometry":{"type":"Polygon","coordinates":[[[-97.5,45],[-97,43],[-93,42.5],[-89,43.5],[-89,46],[-91.5,47.5],[-96,47],[-97.5,45]]]}}]}